{
"type": "FeatureCollection",
"name": "caminos_secundarios_034_final",
"crs": { "type": "name", "properties": { "name": "urn:ogc:def:crs:OGC:1.3:CRS84" } },
"features": [
{ "type": "Feature", "properties": { "NOMEMCLATURA": "034-01", "PARTIDO": "34", "PARTIDO_NOMBRE": "General Alvear", "DENOMINACION": "Yerbas - Gral. Alvear (Tramo 1)", "CLASE": "DE TIERRA", "TRANSITABIlIDAD": "TEMPORARIO", "TIPO": "CAMINO", "TRAMO_NUM": null, "LON_INI": -60.063151609724194, "LAT_INI": -36.180010852245658, "LON_FIN": -60.022703030724067, "LAT_FIN": -36.027309668846684, "LONGITUD_KM_ORIG": 17.67, "LONGITUD_KM_WGS84": 17.5276, "N_VERTICES": 18, "N_LINEAS": 1, "DIFF_PCT": -0.8, "ALERTA": "" }, "geometry": { "type": "MultiLineString", "coordinates": [ [ [ -60.063151609724194, -36.180010852245658, 0.0 ], [ -60.0633651, -36.1787142, 0.0 ], [ -60.0638279, -36.177573, 0.0 ], [ -60.064468935717265, -36.173562833403565, 0.0 ], [ -60.0647749, -36.1701204, 0.0 ], [ -60.064547, -36.1667384, 0.0 ], [ -60.063945, -36.1639648, 0.0 ], [ -60.0630747, -36.1614249, 0.0 ], [ -60.0592715, -36.151491, 0.0 ], [ -60.043813455842852, -36.110332511080834, 0.0 ], [ -60.042690014844609, -36.108135166662613, 0.0 ], [ -60.042052930647728, -36.106871931740784, 0.0 ], [ -60.039787030093976, -36.102780748316029, 0.0 ], [ -60.036335096221769, -36.096442853361523, 0.0 ], [ -60.0295318, -36.0833059, 0.0 ], [ -60.0292149, -36.0821378, 0.0 ], [ -60.0289732, -36.0808829, 0.0 ], [ -60.022703030724067, -36.027309668846684, 0.0 ] ] ] } },
{ "type": "Feature", "properties": { "NOMEMCLATURA": "034-01", "PARTIDO": "34", "PARTIDO_NOMBRE": "General Alvear", "DENOMINACION": "Gral. Alvear - Saladillo (Tramo 2)", "CLASE": "DE TIERRA", "TRANSITABIlIDAD": "TEMPORARIO", "TIPO": "CAMINO", "TRAMO_NUM": null, "LON_INI": -60.022703030724067, "LAT_INI": -36.027309668846684, "LON_FIN": -59.939162748243916, "LAT_FIN": -35.870383194731104, "LONGITUD_KM_ORIG": 19.405, "LONGITUD_KM_WGS84": 20.6836, "N_VERTICES": 40, "N_LINEAS": 1, "DIFF_PCT": 6.6, "ALERTA": "" }, "geometry": { "type": "MultiLineString", "coordinates": [ [ [ -60.022703030724067, -36.027309668846684, 0.0 ], [ -60.022691788710411, -36.02724289984868, 0.0 ], [ -60.021782257511568, -36.018887801922439, 0.0 ], [ -60.020928355487442, -36.010308708459938, 0.0 ], [ -60.020913789588811, -36.010272245485055, 0.0 ], [ -60.020819173638735, -36.01027127639054, 0.0 ], [ -60.013907366607881, -36.010833560863652, 0.0 ], [ -60.01384742934188, -36.010832078796604, 0.0 ], [ -60.013816332574805, -36.010804313058152, 0.0 ], [ -60.0115067, -35.9906492, 0.0 ], [ -60.0117814, -35.9871008, 0.0 ], [ -60.011887, -35.9869168, 0.0 ], [ -60.012132, -35.9868369, 0.0 ], [ -60.013669173193506, -35.986967686619359, 0.0 ], [ -60.014101183521532, -35.986985516781402, 0.0 ], [ -60.014545178733449, -35.986918819545281, 0.0 ], [ -60.016179126094286, -35.986533374153908, 0.0 ], [ -60.016609126417258, -35.986512184298306, 0.0 ], [ -60.016900818720295, -35.986572505277259, 0.0 ], [ -60.018050621196963, -35.987064828634189, 0.0 ], [ -60.018250120588171, -35.987133294755047, 0.0 ], [ -60.018325903412702, -35.987094846430082, 0.0 ], [ -60.018339266184292, -35.987035333356111, 0.0 ], [ -60.018374363354326, -35.986893292343311, 0.0 ], [ -60.0182975, -35.9860456, 0.0 ], [ -60.01786689175843, -35.984328945664011, 0.0 ], [ -60.017260303485081, -35.983061605769464, 0.0 ], [ -60.016927938120894, -35.982539306849212, 0.0 ], [ -60.016675639123861, -35.98216482972947, 0.0 ], [ -60.016055775739318, -35.981488896256842, 0.0 ], [ -60.00874440511047, -35.974133357679605, 0.0 ], [ -60.007318418323088, -35.97279309077021, 0.0 ], [ -60.001336, -35.9667186, 0.0 ], [ -59.9968233, -35.9620372, 0.0 ], [ -59.9950736, -35.9601215, 0.0 ], [ -59.9696953, -35.9196813, 0.0 ], [ -59.943636, -35.8780535, 0.0 ], [ -59.93920079402713, -35.870992620755786, 0.0 ], [ -59.939159023644443, -35.870771531572821, 0.0 ], [ -59.939162748243916, -35.870383194731104, 0.0 ] ] ] } },
{ "type": "Feature", "properties": { "NOMEMCLATURA": "034-02", "PARTIDO": "34", "PARTIDO_NOMBRE": "General Alvear", "DENOMINACION": "Gral Alvear - Mamaguita", "CLASE": "DE TIERRA", "TRANSITABIlIDAD": "TEMPORARIO", "TIPO": "CAMINO", "TRAMO_NUM": null, "LON_INI": -60.018250120588171, "LAT_INI": -35.987133294755047, "LON_FIN": -60.179986662762573, "LAT_FIN": -35.848945724500204, "LONGITUD_KM_ORIG": 22.315, "LONGITUD_KM_WGS84": 22.3608, "N_VERTICES": 54, "N_LINEAS": 1, "DIFF_PCT": 0.2, "ALERTA": "" }, "geometry": { "type": "MultiLineString", "coordinates": [ [ [ -60.018250120588171, -35.987133294755047, 0.0 ], [ -60.018453302609039, -35.987183233548897, 0.0 ], [ -60.018795309959849, -35.987186431396211, 0.0 ], [ -60.021187227415354, -35.98670489400827, 0.0 ], [ -60.0221938, -35.9865615, 0.0 ], [ -60.022804729698336, -35.986543151603655, 0.0 ], [ -60.0269389, -35.986582, 0.0 ], [ -60.032268331804168, -35.986582373027382, 0.0 ], [ -60.0325350868087, -35.986509369668177, 0.0 ], [ -60.032750884491136, -35.986375275016727, 0.0 ], [ -60.034738088043405, -35.982834589377745, 0.0 ], [ -60.0355062, -35.981307, 0.0 ], [ -60.0362639, -35.9773499, 0.0 ], [ -60.037598350163201, -35.974606275420186, 0.0 ], [ -60.0387414, -35.9725009, 0.0 ], [ -60.0414693, -35.9701984, 0.0 ], [ -60.0418501, -35.9699486, 0.0 ], [ -60.0423435, -35.9698811, 0.0 ], [ -60.0451113, -35.9700326, 0.0 ], [ -60.0455671, -35.9699735, 0.0 ], [ -60.0459477, -35.9697842, 0.0 ], [ -60.050773, -35.9666069, 0.0 ], [ -60.0544393, -35.9633426, 0.0 ], [ -60.0551365, -35.9619219, 0.0 ], [ -60.088159875595494, -35.936497620430252, 0.0 ], [ -60.090886, -35.9335708, 0.0 ], [ -60.098943893650826, -35.923357518232187, 0.0 ], [ -60.099176100303637, -35.923006464308216, 0.0 ], [ -60.099214455715142, -35.922671339355901, 0.0 ], [ -60.098986932985817, -35.919001269114673, 0.0 ], [ -60.098902338952534, -35.917231256539459, 0.0 ], [ -60.099014409567907, -35.916743307328929, 0.0 ], [ -60.099289093262541, -35.916465149920043, 0.0 ], [ -60.1088398, -35.9091994, 0.0 ], [ -60.112101, -35.9087896, 0.0 ], [ -60.1141441, -35.9073209, 0.0 ], [ -60.1166539, -35.905813, 0.0 ], [ -60.1236675, -35.9021878, 0.0 ], [ -60.1424131, -35.8882161, 0.0 ], [ -60.1435543, -35.8868644, 0.0 ], [ -60.1440813, -35.8863905, 0.0 ], [ -60.1470616, -35.8851321, 0.0 ], [ -60.1520385, -35.8815907, 0.0 ], [ -60.157503, -35.8778316, 0.0 ], [ -60.1617367, -35.8752684, 0.0 ], [ -60.1649687, -35.8734268, 0.0 ], [ -60.1654259, -35.8731341, 0.0 ], [ -60.1657946, -35.8727435, 0.0 ], [ -60.1738157, -35.8560177, 0.0 ], [ -60.1765249, -35.8517012, 0.0 ], [ -60.1767321, -35.8514264, 0.0 ], [ -60.1774382, -35.8510495, 0.0 ], [ -60.179941563116778, -35.849076874115191, 0.0 ], [ -60.179986662762573, -35.848945724500204, 0.0 ] ] ] } },
{ "type": "Feature", "properties": { "NOMEMCLATURA": "034-03", "PARTIDO": "34", "PARTIDO_NOMBRE": "General Alvear", "DENOMINACION": "J. M. Micheo - RP 51", "CLASE": "DE TIERRA", "TRANSITABIlIDAD": "TEMPORARIO", "TIPO": "CAMINO", "TRAMO_NUM": null, "LON_INI": -59.9458051, "LAT_INI": -35.8815236, "LON_FIN": -59.8661600877127, "LAT_FIN": -35.910980177008462, "LONGITUD_KM_ORIG": 10.525, "LONGITUD_KM_WGS84": 10.8382, "N_VERTICES": 25, "N_LINEAS": 1, "DIFF_PCT": 3.0, "ALERTA": "" }, "geometry": { "type": "MultiLineString", "coordinates": [ [ [ -59.9458051, -35.8815236, 0.0 ], [ -59.944396, -35.882092, 0.0 ], [ -59.943946367321679, -35.882395755668554, 0.0 ], [ -59.94367, -35.882637, 0.0 ], [ -59.9418531, -35.8844958, 0.0 ], [ -59.9406657, -35.8859055, 0.0 ], [ -59.9365705, -35.8916047, 0.0 ], [ -59.9330242, -35.896569, 0.0 ], [ -59.9296061, -35.9012073, 0.0 ], [ -59.9267177, -35.9050216, 0.0 ], [ -59.918510077668657, -35.912152882346469, 0.0 ], [ -59.91843309145839, -35.912206050873579, 0.0 ], [ -59.918311302114724, -35.912236520749637, 0.0 ], [ -59.918159344374494, -35.912150672683133, 0.0 ], [ -59.902765316356991, -35.898888434375124, 0.0 ], [ -59.902645441706376, -35.898850885509802, 0.0 ], [ -59.902513347650874, -35.898900056975982, 0.0 ], [ -59.891974728911656, -35.907024469683435, 0.0 ], [ -59.89178930584734, -35.907077523569441, 0.0 ], [ -59.891572546348478, -35.907012280367304, 0.0 ], [ -59.8809205, -35.8993784, 0.0 ], [ -59.8802185, -35.8993267, 0.0 ], [ -59.8796345, -35.8996141, 0.0 ], [ -59.8780761, -35.9017531, 0.0 ], [ -59.8661600877127, -35.910980177008462, 0.0 ] ] ] } },
{ "type": "Feature", "properties": { "NOMEMCLATURA": "034-04", "PARTIDO": "34", "PARTIDO_NOMBRE": "General Alvear", "DENOMINACION": "Gral. Alvear - Bolivar", "CLASE": "DE TIERRA", "TRANSITABIlIDAD": "TEMPORARIO", "TIPO": "CAMINO", "TRAMO_NUM": null, "LON_INI": -60.0866204, "LAT_INI": -36.0149924, "LON_FIN": -60.3719838, "LAT_FIN": -35.9529642, "LONGITUD_KM_ORIG": 35.362, "LONGITUD_KM_WGS84": 30.9752, "N_VERTICES": 49, "N_LINEAS": 1, "DIFF_PCT": -12.4, "ALERTA": "REVISAR" }, "geometry": { "type": "MultiLineString", "coordinates": [ [ [ -60.0866204, -36.0149924, 0.0 ], [ -60.1667052, -36.0165271, 0.0 ], [ -60.1675013, -36.0167619, 0.0 ], [ -60.1710654, -36.0186107, 0.0 ], [ -60.1813651, -36.0150085, 0.0 ], [ -60.1823786, -36.0149706, 0.0 ], [ -60.1941303, -36.0183991, 0.0 ], [ -60.1947573, -36.018447, 0.0 ], [ -60.1952447, -36.018304, 0.0 ], [ -60.2038337, -36.0131232, 0.0 ], [ -60.2084094, -36.010424, 0.0 ], [ -60.211976, -36.0085228, 0.0 ], [ -60.2125404, -36.0082824, 0.0 ], [ -60.2130297, -36.0083284, 0.0 ], [ -60.2196947, -36.0113884, 0.0 ], [ -60.2258983, -36.0132201, 0.0 ], [ -60.2281901, -36.0140208, 0.0 ], [ -60.2292771, -36.0144125, 0.0 ], [ -60.2297632, -36.0144744, 0.0 ], [ -60.2365952, -36.0141163, 0.0 ], [ -60.2375871, -36.0139095, 0.0 ], [ -60.2422373, -36.0110211, 0.0 ], [ -60.2450237, -36.0099554, 0.0 ], [ -60.2477779, -36.0090112, 0.0 ], [ -60.2516983, -36.0082639, 0.0 ], [ -60.2526003, -36.0082117, 0.0 ], [ -60.253454, -36.0084675, 0.0 ], [ -60.2584929, -36.0104371, 0.0 ], [ -60.2593231, -36.0108407, 0.0 ], [ -60.2632111, -36.0134313, 0.0 ], [ -60.2700224, -36.0157706, 0.0 ], [ -60.2782669, -36.0173457, 0.0 ], [ -60.282046, -36.0181959, 0.0 ], [ -60.2864475, -36.0192629, 0.0 ], [ -60.2899708, -36.0208086, 0.0 ], [ -60.2906918, -36.0213363, 0.0 ], [ -60.2912143, -36.0215321, 0.0 ], [ -60.3039057, -36.0125544, 0.0 ], [ -60.313462, -36.0059534, 0.0 ], [ -60.3373363, -35.9889556, 0.0 ], [ -60.3547894, -35.9766007, 0.0 ], [ -60.3554283, -35.9763181, 0.0 ], [ -60.357698, -35.9745422, 0.0 ], [ -60.3623991, -35.9708481, 0.0 ], [ -60.3581952, -35.9672713, 0.0 ], [ -60.3680977, -35.9596224, 0.0 ], [ -60.3665578, -35.9583232, 0.0 ], [ -60.371831, -35.95325, 0.0 ], [ -60.3719838, -35.9529642, 0.0 ] ] ] } },
{ "type": "Feature", "properties": { "NOMEMCLATURA": "034-05", "PARTIDO": "34", "PARTIDO_NOMBRE": "General Alvear", "DENOMINACION": "Gral Alvear - Tapalque (Tramo 1)", "CLASE": "DE TIERRA", "TRANSITABIlIDAD": "TEMPORARIO", "TIPO": "CAMINO", "TRAMO_NUM": null, "LON_INI": -60.1710654, "LAT_INI": -36.0186107, "LON_FIN": -60.586848803775212, "LAT_FIN": -36.204019489081062, "LONGITUD_KM_ORIG": 48.399, "LONGITUD_KM_WGS84": 46.0589, "N_VERTICES": 88, "N_LINEAS": 1, "DIFF_PCT": -4.8, "ALERTA": "" }, "geometry": { "type": "MultiLineString", "coordinates": [ [ [ -60.1710654, -36.0186107, 0.0 ], [ -60.1719783, -36.0191042, 0.0 ], [ -60.1754179, -36.0231945, 0.0 ], [ -60.2258971, -36.0566062, 0.0 ], [ -60.2280537, -36.0571855, 0.0 ], [ -60.234614, -36.0606303, 0.0 ], [ -60.2347685, -36.0608025, 0.0 ], [ -60.2348318, -36.0610182, 0.0 ], [ -60.2347342, -36.0619342, 0.0 ], [ -60.2348458, -36.0621694, 0.0 ], [ -60.2362783, -36.0632075, 0.0 ], [ -60.2404481, -36.0644335, 0.0 ], [ -60.2457824, -36.0674225, 0.0 ], [ -60.2461445, -36.0676968, 0.0 ], [ -60.246646, -36.0688904, 0.0 ], [ -60.2477724, -36.0699378, 0.0 ], [ -60.2481326, -36.0699538, 0.0 ], [ -60.2500698, -36.0692847, 0.0 ], [ -60.2513446, -36.0697341, 0.0 ], [ -60.2586883, -36.072566, 0.0 ], [ -60.2665047, -36.0760044, 0.0 ], [ -60.2702678, -36.0786864, 0.0 ], [ -60.2746104, -36.0809172, 0.0 ], [ -60.2901141, -36.0854305, 0.0 ], [ -60.2944056, -36.0889231, 0.0 ], [ -60.3012727, -36.0950337, 0.0 ], [ -60.3046112, -36.0973366, 0.0 ], [ -60.3124996, -36.105142, 0.0 ], [ -60.3147919, -36.1075189, 0.0 ], [ -60.3169584, -36.1099522, 0.0 ], [ -60.3235926, -36.1144753, 0.0 ], [ -60.329734, -36.1187077, 0.0 ], [ -60.3303849, -36.1186405, 0.0 ], [ -60.331346, -36.1183101, 0.0 ], [ -60.3323876, -36.11814, 0.0 ], [ -60.3333284, -36.11829, 0.0 ], [ -60.3885988, -36.1424011, 0.0 ], [ -60.3974615, -36.1488477, 0.0 ], [ -60.3977575, -36.148937, 0.0 ], [ -60.3984075, -36.1489483, 0.0 ], [ -60.415282566748076, -36.160760489993187, 0.0 ], [ -60.4255977, -36.1597962, 0.0 ], [ -60.4401037, -36.1658424, 0.0 ], [ -60.4456703, -36.1693186, 0.0 ], [ -60.446775345113998, -36.170621573077462, 0.0 ], [ -60.446892386507336, -36.170684209485295, 0.0 ], [ -60.447021006136403, -36.170645294106002, 0.0 ], [ -60.458858817201154, -36.161935827480953, 0.0 ], [ -60.459008203264418, -36.161918501090085, 0.0 ], [ -60.459165409877777, -36.161991812345669, 0.0 ], [ -60.466960332475445, -36.168910561520711, 0.0 ], [ -60.467176181428201, -36.169030938255752, 0.0 ], [ -60.46740091764449, -36.169010350789897, 0.0 ], [ -60.4786259, -36.1653305, 0.0 ], [ -60.4871213, -36.1619591, 0.0 ], [ -60.487504321479541, -36.161725062472037, 0.0 ], [ -60.488090025141169, -36.161318613822566, 0.0 ], [ -60.4890564, -36.1608975, 0.0 ], [ -60.489421459826765, -36.160836188220685, 0.0 ], [ -60.489767215883873, -36.160933326378974, 0.0 ], [ -60.4930837, -36.1630537, 0.0 ], [ -60.49743945880288, -36.164187416756789, 0.0 ], [ -60.497779966626723, -36.164219509266367, 0.0 ], [ -60.498027379218335, -36.164136682482521, 0.0 ], [ -60.498209013222414, -36.164030476474188, 0.0 ], [ -60.502596260196817, -36.161516810582249, 0.0 ], [ -60.502846083448411, -36.161432978217285, 0.0 ], [ -60.503038277021879, -36.161459765460194, 0.0 ], [ -60.5162951, -36.1669716, 0.0 ], [ -60.516529551012823, -36.166998092658957, 0.0 ], [ -60.517575775016667, -36.166960067137921, 0.0 ], [ -60.517750939069721, -36.166981976700356, 0.0 ], [ -60.517958267281173, -36.167089486790843, 0.0 ], [ -60.5189368, -36.1680928, 0.0 ], [ -60.5249853, -36.1706168, 0.0 ], [ -60.525179611154506, -36.170632495423575, 0.0 ], [ -60.5252931, -36.1706875, 0.0 ], [ -60.527478581056634, -36.17234112753254, 0.0 ], [ -60.5425892, -36.1834279, 0.0 ], [ -60.5429794, -36.1835972, 0.0 ], [ -60.5434997, -36.1836745, 0.0 ], [ -60.548093, -36.1858218, 0.0 ], [ -60.5483531, -36.1860128, 0.0 ], [ -60.548911, -36.186654, 0.0 ], [ -60.585543485403896, -36.203616896988649, 0.0 ], [ -60.585829115568082, -36.203763325269421, 0.0 ], [ -60.586136369176955, -36.203874168718215, 0.0 ], [ -60.586848803775212, -36.204019489081062, 0.0 ] ] ] } },
{ "type": "Feature", "properties": { "NOMEMCLATURA": "034-05", "PARTIDO": "34", "PARTIDO_NOMBRE": "General Alvear", "DENOMINACION": "Gral Alvear - Tapalque (Tramo 2, sin abrir)", "CLASE": "DE TIERRA", "TRANSITABIlIDAD": "TEMPORARIO", "TIPO": "CAMINO", "TRAMO_NUM": null, "LON_INI": -60.586848803775212, "LAT_INI": -36.204019489081062, "LON_FIN": -60.599246823420678, "LAT_FIN": -36.210060306357946, "LONGITUD_KM_ORIG": null, "LONGITUD_KM_WGS84": 1.3409, "N_VERTICES": 5, "N_LINEAS": 1, "DIFF_PCT": null, "ALERTA": "" }, "geometry": { "type": "MultiLineString", "coordinates": [ [ [ -60.586848803775212, -36.204019489081062, 0.0 ], [ -60.587009234302855, -36.204008847264639, 0.0 ], [ -60.586806050201659, -36.204319292763714, 0.0 ], [ -60.587026835312301, -36.204411833195259, 0.0 ], [ -60.599246823420678, -36.210060306357946, 0.0 ] ] ] } },
{ "type": "Feature", "properties": { "NOMEMCLATURA": "034-06", "PARTIDO": "34", "PARTIDO_NOMBRE": "General Alvear", "DENOMINACION": "Yerbas - Emma", "CLASE": "DE TIERRA", "TRANSITABIlIDAD": "TEMPORARIO", "TIPO": "CAMINO", "TRAMO_NUM": null, "LON_INI": -60.0579659, "LAT_INI": -36.148051, "LON_FIN": -60.2128699, "LAT_FIN": -36.2086178, "LONGITUD_KM_ORIG": 18.117, "LONGITUD_KM_WGS84": 18.3866, "N_VERTICES": 27, "N_LINEAS": 1, "DIFF_PCT": 1.5, "ALERTA": "" }, "geometry": { "type": "MultiLineString", "coordinates": [ [ [ -60.0579659, -36.148051, 0.0 ], [ -60.0586863, -36.1480624, 0.0 ], [ -60.0719858, -36.1430355, 0.0 ], [ -60.0991119, -36.16315, 0.0 ], [ -60.1318449, -36.1877872, 0.0 ], [ -60.1452767, -36.1965296, 0.0 ], [ -60.1506545, -36.2019662, 0.0 ], [ -60.1514446, -36.2027711, 0.0 ], [ -60.1520951, -36.2035587, 0.0 ], [ -60.1528943, -36.2045476, 0.0 ], [ -60.1539294, -36.2055451, 0.0 ], [ -60.1564453, -36.2079624, 0.0 ], [ -60.1577301, -36.2094005, 0.0 ], [ -60.1598519, -36.2129334, 0.0 ], [ -60.1607789, -36.2136423, 0.0 ], [ -60.1634869, -36.2146801, 0.0 ], [ -60.1639166, -36.2147318, 0.0 ], [ -60.1650008, -36.2145845, 0.0 ], [ -60.1656349, -36.2146446, 0.0 ], [ -60.171302, -36.2154141, 0.0 ], [ -60.1718507, -36.2156089, 0.0 ], [ -60.1728447, -36.2160807, 0.0 ], [ -60.1813614, -36.2203739, 0.0 ], [ -60.1855131, -36.2230385, 0.0 ], [ -60.1893003, -36.2253395, 0.0 ], [ -60.2062496, -36.2134032, 0.0 ], [ -60.2128699, -36.2086178, 0.0 ] ] ] } },
{ "type": "Feature", "properties": { "NOMEMCLATURA": "034-07", "PARTIDO": "34", "PARTIDO_NOMBRE": "General Alvear", "DENOMINACION": "RN 205 - 25 de Mayo", "CLASE": "DE TIERRA", "TRANSITABIlIDAD": "TEMPORARIO", "TIPO": "CAMINO", "TRAMO_NUM": null, "LON_INI": -60.140461379336287, "LAT_INI": -35.812064930748527, "LON_FIN": -60.187423363576848, "LAT_FIN": -35.724231891952847, "LONGITUD_KM_ORIG": 11.72, "LONGITUD_KM_WGS84": 10.8832, "N_VERTICES": 19, "N_LINEAS": 1, "DIFF_PCT": -7.1, "ALERTA": "" }, "geometry": { "type": "MultiLineString", "coordinates": [ [ [ -60.140461379336287, -35.812064930748527, 0.0 ], [ -60.140724466456611, -35.811672359764849, 0.0 ], [ -60.1421041, -35.8088834, 0.0 ], [ -60.1429428, -35.8070883, 0.0 ], [ -60.143811344586247, -35.805735474936832, 0.0 ], [ -60.144332167070466, -35.804709840089068, 0.0 ], [ -60.1510574, -35.7972064, 0.0 ], [ -60.151839191810851, -35.79627381693146, 0.0 ], [ -60.1590077, -35.7881967, 0.0 ], [ -60.1601436, -35.7866374, 0.0 ], [ -60.1617622, -35.784643, 0.0 ], [ -60.1620616, -35.7843297, 0.0 ], [ -60.163434, -35.783268, 0.0 ], [ -60.1649662, -35.781597, 0.0 ], [ -60.169812, -35.7760427, 0.0 ], [ -60.1778109, -35.767076, 0.0 ], [ -60.179079266834918, -35.762264982800659, 0.0 ], [ -60.1808404, -35.7542379, 0.0 ], [ -60.187423363576848, -35.724231891952847, 0.0 ] ] ] } },
{ "type": "Feature", "properties": { "NOMEMCLATURA": "034-08", "PARTIDO": "34", "PARTIDO_NOMBRE": "General Alvear", "DENOMINACION": "Las Flores - Estrugamou", "CLASE": "DE TIERRA", "TRANSITABIlIDAD": "TEMPORARIO", "TIPO": "CAMINO", "TRAMO_NUM": null, "LON_INI": -59.7117951, "LAT_INI": -35.8335712, "LON_FIN": -59.67561, "LAT_FIN": -35.85154, "LONGITUD_KM_ORIG": 5.388, "LONGITUD_KM_WGS84": 5.3239, "N_VERTICES": 13, "N_LINEAS": 1, "DIFF_PCT": -1.2, "ALERTA": "" }, "geometry": { "type": "MultiLineString", "coordinates": [ [ [ -59.7117951, -35.8335712, 0.0 ], [ -59.7118484, -35.8405258, 0.0 ], [ -59.7117466, -35.8409391, 0.0 ], [ -59.7114786, -35.8412523, 0.0 ], [ -59.697584, -35.8533475, 0.0 ], [ -59.6970548, -35.8537224, 0.0 ], [ -59.695061, -35.854606, 0.0 ], [ -59.6882072, -35.859982, 0.0 ], [ -59.6877588, -35.8600637, 0.0 ], [ -59.6873802, -35.8599758, 0.0 ], [ -59.6760182, -35.8516413, 0.0 ], [ -59.6758101, -35.8515646, 0.0 ], [ -59.67561, -35.85154, 0.0 ] ] ] } },
{ "type": "Feature", "properties": { "NOMEMCLATURA": "034-09", "PARTIDO": "34", "PARTIDO_NOMBRE": "General Alvear", "DENOMINACION": "RN 205 - Del Valle", "CLASE": "DE TIERRA", "TRANSITABIlIDAD": "TEMPORARIO", "TIPO": "CAMINO", "TRAMO_NUM": null, "LON_INI": -60.5540149, "LAT_INI": -36.0753233, "LON_FIN": -60.579631493176336, "LAT_FIN": -36.04831295391682, "LONGITUD_KM_ORIG": 4.543, "LONGITUD_KM_WGS84": 4.4082, "N_VERTICES": 17, "N_LINEAS": 1, "DIFF_PCT": -3.0, "ALERTA": "" }, "geometry": { "type": "MultiLineString", "coordinates": [ [ [ -60.5540149, -36.0753233, 0.0 ], [ -60.5533784, -36.0747113, 0.0 ], [ -60.5526601, -36.0740743, 0.0 ], [ -60.5525949, -36.0738871, 0.0 ], [ -60.5527121, -36.073726, 0.0 ], [ -60.5688625, -36.0624632, 0.0 ], [ -60.5689945, -36.0623382, 0.0 ], [ -60.5689348, -36.0621557, 0.0 ], [ -60.5657067, -36.0591523, 0.0 ], [ -60.5656732, -36.0590372, 0.0 ], [ -60.5657577, -36.0589384, 0.0 ], [ -60.5725242, -36.0542537, 0.0 ], [ -60.576789, -36.0512937, 0.0 ], [ -60.5794858, -36.0494873, 0.0 ], [ -60.5796199, -36.0492676, 0.0 ], [ -60.579665516897919, -36.04898098047132, 0.0 ], [ -60.579631493176336, -36.04831295391682, 0.0 ] ] ] } }
]
}
