{
"type": "FeatureCollection",
"name": "caminos_secundarios_075_final",
"crs": { "type": "name", "properties": { "name": "urn:ogc:def:crs:OGC:1.3:CRS84" } },
"features": [
{ "type": "Feature", "properties": { "NOMEMCLATURA": "075-01", "PARTIDO": "075", "PARTIDO_NOMBRE": "Navarro", "DENOMINACION": "RP 40 - SEC 062-07", "CLASE": "DE TIERRA", "TRANSITABIlIDAD": "TEMPORARIO", "TIPO": "CAMINO", "TRAMO_NUM": null, "LON_INI": -59.33586652841182, "LAT_INI": -35.055038935156738, "LON_FIN": -59.360721034853739, "LAT_FIN": -35.158054449574443, "LONGITUD_KM_ORIG": 17.709, "LONGITUD_KM_WGS84": 16.9399, "N_VERTICES": 48, "N_LINEAS": 1, "DIFF_PCT": -4.3, "ALERTA": "" }, "geometry": { "type": "MultiLineString", "coordinates": [ [ [ -59.33586652841182, -35.055038935156738, 0.0 ], [ -59.335920456820944, -35.055248323817509, 0.0 ], [ -59.335602978350032, -35.055856441180012, 0.0 ], [ -59.333688792510721, -35.059335186643509, 0.0 ], [ -59.332058688156167, -35.062715273239412, 0.0 ], [ -59.327257278706909, -35.071930208096262, 0.0 ], [ -59.327244616006695, -35.072827494078112, 0.0 ], [ -59.325395414288081, -35.07668761347152, 0.0 ], [ -59.325414887933, -35.076896814329231, 0.0 ], [ -59.325592927468904, -35.077154814107459, 0.0 ], [ -59.329265654469907, -35.079026522897912, 0.0 ], [ -59.332815218399467, -35.080771947241416, 0.0 ], [ -59.333376447491283, -35.081135758789287, 0.0 ], [ -59.3340838273892, -35.081795237392235, 0.0 ], [ -59.336593496283818, -35.083043945451131, 0.0 ], [ -59.336845207414306, -35.083372029234418, 0.0 ], [ -59.335605083487906, -35.085669613786372, 0.0 ], [ -59.33555396380099, -35.08609187452538, 0.0 ], [ -59.335756079301973, -35.086654917563465, 0.0 ], [ -59.344127934445687, -35.098745074051351, 0.0 ], [ -59.364631468039789, -35.118308526070052, 0.0 ], [ -59.364805838701571, -35.118383493261497, 0.0 ], [ -59.365029274145733, -35.118284474171624, 0.0 ], [ -59.365718080225797, -35.116968189068807, 0.0 ], [ -59.366015290011475, -35.116926183144415, 0.0 ], [ -59.375452169072425, -35.121762504073821, 0.0 ], [ -59.372816496807182, -35.125307807986808, 0.0 ], [ -59.372924696974913, -35.125717838786066, 0.0 ], [ -59.379274508007938, -35.132280279019788, 0.0 ], [ -59.380308510928039, -35.13297818589843, 0.0 ], [ -59.382382859131226, -35.134243323440352, 0.0 ], [ -59.386257961962265, -35.138632148340108, 0.0 ], [ -59.386424625509854, -35.139035928620984, 0.0 ], [ -59.38673245013544, -35.140416182235334, 0.0 ], [ -59.388122553785877, -35.141738741584938, 0.0 ], [ -59.388231340280001, -35.142083420098871, 0.0 ], [ -59.383846680417918, -35.147926643461936, 0.0 ], [ -59.383535007410046, -35.148114546813105, 0.0 ], [ -59.376745111593792, -35.157336429727849, 0.0 ], [ -59.376500499772561, -35.157417936108423, 0.0 ], [ -59.364569945591896, -35.1514796370898, 0.0 ], [ -59.362346790046459, -35.154312459001908, 0.0 ], [ -59.362337475751261, -35.154826423900651, 0.0 ], [ -59.362690215239517, -35.155843239475914, 0.0 ], [ -59.362579348291348, -35.156456859162347, 0.0 ], [ -59.362200429302433, -35.157434975897502, 0.0 ], [ -59.361465698400714, -35.157788301668809, 0.0 ], [ -59.360721034853739, -35.158054449574443, 0.0 ] ] ] } },
{ "type": "Feature", "properties": { "NOMEMCLATURA": "075-02", "PARTIDO": "075", "PARTIDO_NOMBRE": "Navarro", "DENOMINACION": "SEC 075-01 - SEC 075-03", "CLASE": "DE TIERRA", "TRANSITABIlIDAD": "TEMPORARIO", "TIPO": "CAMINO", "TRAMO_NUM": null, "LON_INI": -59.383846680417918, "LAT_INI": -35.147926643461936, "LON_FIN": -59.494739219427636, "LAT_FIN": -35.210052550490389, "LONGITUD_KM_ORIG": 13.9, "LONGITUD_KM_WGS84": 13.9368, "N_VERTICES": 24, "N_LINEAS": 1, "DIFF_PCT": 0.3, "ALERTA": "" }, "geometry": { "type": "MultiLineString", "coordinates": [ [ [ -59.383846680417918, -35.147926643461936, 0.0 ], [ -59.383903572353226, -35.14811859943169, 0.0 ], [ -59.389065801289227, -35.150703923692859, 0.0 ], [ -59.394925912449374, -35.153634466541739, 0.0 ], [ -59.397362759359297, -35.154753051013309, 0.0 ], [ -59.427200792831151, -35.169619103412522, 0.0 ], [ -59.427323388026252, -35.169725317434832, 0.0 ], [ -59.42728126808364, -35.169868868185397, 0.0 ], [ -59.42323572249299, -35.176232925805323, 0.0 ], [ -59.423114381491558, -35.176699534448353, 0.0 ], [ -59.421312662593763, -35.179582267859722, 0.0 ], [ -59.421284777055504, -35.179773800757225, 0.0 ], [ -59.421405813937838, -35.179913772558194, 0.0 ], [ -59.46545198763264, -35.201948702029476, 0.0 ], [ -59.465680212968181, -35.201945353278681, 0.0 ], [ -59.467415431892718, -35.199535392824451, 0.0 ], [ -59.467671036812419, -35.199401479329794, 0.0 ], [ -59.480018111511619, -35.205553593684556, 0.0 ], [ -59.480293555967222, -35.205637541091271, 0.0 ], [ -59.480501034379948, -35.205560022640626, 0.0 ], [ -59.481668400729411, -35.203927152443917, 0.0 ], [ -59.481956115341326, -35.203749785832301, 0.0 ], [ -59.482210770012045, -35.203763943197565, 0.0 ], [ -59.494739219427636, -35.210052550490389, 0.0 ] ] ] } },
{ "type": "Feature", "properties": { "NOMEMCLATURA": "075-03", "PARTIDO": "075", "PARTIDO_NOMBRE": "Navarro", "DENOMINACION": "RP 40 - SEC 062-06", "CLASE": "DE TIERRA", "TRANSITABIlIDAD": "TEMPORARIO", "TIPO": "CAMINO", "TRAMO_NUM": null, "LON_INI": -59.539427963403256, "LAT_INI": -35.161133507474183, "LON_FIN": -59.485957360508898, "LAT_FIN": -35.220753764863588, "LONGITUD_KM_ORIG": 8.395, "LONGITUD_KM_WGS84": 8.4181, "N_VERTICES": 24, "N_LINEAS": 1, "DIFF_PCT": 0.3, "ALERTA": "" }, "geometry": { "type": "MultiLineString", "coordinates": [ [ [ -59.539427963403256, -35.161133507474183, 0.0 ], [ -59.534659755170765, -35.164776577687334, 0.0 ], [ -59.530470470164403, -35.167994805546755, 0.0 ], [ -59.52886357633691, -35.169291035122278, 0.0 ], [ -59.525503090271208, -35.171996112382701, 0.0 ], [ -59.522164398849796, -35.17456505291873, 0.0 ], [ -59.517212238361445, -35.178323221192159, 0.0 ], [ -59.515245737003944, -35.1797986092689, 0.0 ], [ -59.51520761563355, -35.17996398738255, 0.0 ], [ -59.515286370814714, -35.180103696837698, 0.0 ], [ -59.516300257157312, -35.180913623095464, 0.0 ], [ -59.516388826405525, -35.18118840919, 0.0 ], [ -59.51635016476078, -35.181445262943512, 0.0 ], [ -59.500870880154636, -35.202019292649858, 0.0 ], [ -59.498505157645447, -35.205272199492732, 0.0 ], [ -59.49735499485606, -35.206748486736259, 0.0 ], [ -59.496765420140171, -35.20768258793246, 0.0 ], [ -59.495994748942223, -35.20871829943475, 0.0 ], [ -59.494739219427636, -35.210052550490389, 0.0 ], [ -59.494375287864685, -35.210538908201599, 0.0 ], [ -59.494005071458091, -35.21118205606966, 0.0 ], [ -59.490719890444581, -35.215389286223377, 0.0 ], [ -59.486084932330435, -35.220515813566458, 0.0 ], [ -59.485957360508898, -35.220753764863588, 0.0 ] ] ] } },
{ "type": "Feature", "properties": { "NOMEMCLATURA": "075-04", "PARTIDO": "075", "PARTIDO_NOMBRE": "Navarro", "DENOMINACION": "TRAZA ORIG. RP30 - RP 40", "CLASE": "DE TIERRA", "TRANSITABIlIDAD": "TEMPORARIO", "TIPO": "CAMINO", "TRAMO_NUM": null, "LON_INI": -59.662102004790164, "LAT_INI": -35.18397986152042, "LON_FIN": -59.557449929922534, "LAT_FIN": -35.175787040170867, "LONGITUD_KM_ORIG": 12.443, "LONGITUD_KM_WGS84": 12.4231, "N_VERTICES": 25, "N_LINEAS": 1, "DIFF_PCT": -0.2, "ALERTA": "" }, "geometry": { "type": "MultiLineString", "coordinates": [ [ [ -59.662102004790164, -35.18397986152042, 0.0 ], [ -59.633659131299666, -35.159533507208295, 0.0 ], [ -59.633497238752142, -35.15955806519495, 0.0 ], [ -59.613749142143014, -35.173028939694412, 0.0 ], [ -59.613388021920706, -35.173106197379646, 0.0 ], [ -59.605348142413519, -35.166207439870284, 0.0 ], [ -59.605137491758065, -35.166163192460971, 0.0 ], [ -59.604885250746406, -35.166217910281546, 0.0 ], [ -59.600364866622904, -35.169618261981078, 0.0 ], [ -59.600155040409021, -35.169675287840931, 0.0 ], [ -59.599908580966172, -35.169629824118942, 0.0 ], [ -59.592627161748418, -35.163312086836847, 0.0 ], [ -59.592251282263213, -35.163162714976998, 0.0 ], [ -59.59176359675817, -35.163095731112918, 0.0 ], [ -59.591243540399901, -35.163137538523991, 0.0 ], [ -59.590833027872399, -35.163284260075436, 0.0 ], [ -59.581837421384343, -35.17035234323945, 0.0 ], [ -59.581416857857448, -35.170638392733082, 0.0 ], [ -59.580959648244011, -35.170828479987136, 0.0 ], [ -59.579918216513803, -35.17114722361945, 0.0 ], [ -59.578239500879519, -35.171594423763395, 0.0 ], [ -59.57435703999009, -35.172443349350566, 0.0 ], [ -59.56977627952655, -35.173402930212809, 0.0 ], [ -59.568525978360341, -35.173577082619744, 0.0 ], [ -59.557449929922534, -35.175787040170867, 0.0 ] ] ] } },
{ "type": "Feature", "properties": { "NOMEMCLATURA": "075-05", "PARTIDO": "075", "PARTIDO_NOMBRE": "Navarro", "DENOMINACION": "RP 44 - SEC 109-03", "CLASE": "DE TIERRA", "TRANSITABIlIDAD": "TEMPORARIO", "TIPO": "CAMINO", "TRAMO_NUM": null, "LON_INI": -59.639563610523822, "LAT_INI": -35.059132817719423, "LON_FIN": -59.73938972410518, "LAT_FIN": -35.203901769000446, "LONGITUD_KM_ORIG": 21.376, "LONGITUD_KM_WGS84": 21.2917, "N_VERTICES": 31, "N_LINEAS": 1, "DIFF_PCT": -0.4, "ALERTA": "" }, "geometry": { "type": "MultiLineString", "coordinates": [ [ [ -59.639563610523822, -35.059132817719423, 0.0 ], [ -59.6362994981762, -35.061667083947896, 0.0 ], [ -59.639653658583455, -35.068178688425242, 0.0 ], [ -59.639804631587822, -35.068789001268556, 0.0 ], [ -59.639602393363631, -35.072608764000506, 0.0 ], [ -59.639754790497129, -35.072896724057891, 0.0 ], [ -59.643867762987689, -35.073849803944363, 0.0 ], [ -59.653418237285202, -35.082136769491271, 0.0 ], [ -59.65096953920861, -35.08409873344926, 0.0 ], [ -59.650841230799223, -35.084361912058419, 0.0 ], [ -59.650927418369825, -35.084656201298259, 0.0 ], [ -59.663590322927533, -35.095360777937344, 0.0 ], [ -59.66435545049422, -35.105242658850727, 0.0 ], [ -59.664290483829269, -35.105573546503301, 0.0 ], [ -59.66397104201873, -35.105912441335704, 0.0 ], [ -59.659503796840823, -35.109402321162442, 0.0 ], [ -59.694671734417334, -35.140537864632584, 0.0 ], [ -59.695273281031078, -35.14134526296283, 0.0 ], [ -59.734628690250659, -35.176292265088129, 0.0 ], [ -59.739686518495759, -35.180739937629397, 0.0 ], [ -59.739808091485337, -35.180883950405068, 0.0 ], [ -59.739702821118371, -35.181035098960159, 0.0 ], [ -59.734863862891267, -35.184744717392405, 0.0 ], [ -59.728738506950123, -35.189409606953234, 0.0 ], [ -59.728454658822507, -35.189796663762408, 0.0 ], [ -59.728473677008715, -35.190061339467107, 0.0 ], [ -59.736279412389564, -35.197006962555747, 0.0 ], [ -59.736583348507011, -35.19738007023971, 0.0 ], [ -59.736674944910938, -35.19777449607485, 0.0 ], [ -59.736940787845946, -35.200088159966555, 0.0 ], [ -59.73938972410518, -35.203901769000446, 0.0 ] ] ] } },
{ "type": "Feature", "properties": { "NOMEMCLATURA": "075-06", "PARTIDO": "075", "PARTIDO_NOMBRE": "Navarro", "DENOMINACION": "RP40 - SEC 102-01", "CLASE": "DE TIERRA", "TRANSITABIlIDAD": "TEMPORARIO", "TIPO": "CAMINO", "TRAMO_NUM": null, "LON_INI": -59.460593558583852, "LAT_INI": -35.111020774492168, "LON_FIN": -59.575399540196507, "LAT_FIN": -34.927809610811671, "LONGITUD_KM_ORIG": 24.879, "LONGITUD_KM_WGS84": 24.3477, "N_VERTICES": 50, "N_LINEAS": 1, "DIFF_PCT": -2.1, "ALERTA": "" }, "geometry": { "type": "MultiLineString", "coordinates": [ [ [ -59.460593558583852, -35.111020774492168, 0.0 ], [ -59.471908448160818, -35.096704125845605, 0.0 ], [ -59.471811464221844, -35.096538170818221, 0.0 ], [ -59.4693467936941, -35.0953218526071, 0.0 ], [ -59.469276217666277, -35.095171257540741, 0.0 ], [ -59.498807819203847, -35.055212796700545, 0.0 ], [ -59.498721902537902, -35.054968496952739, 0.0 ], [ -59.496725166281095, -35.053926186987752, 0.0 ], [ -59.496973442347105, -35.053609217288184, 0.0 ], [ -59.497164663022161, -35.053525609502302, 0.0 ], [ -59.498554448155161, -35.051705587440722, 0.0 ], [ -59.498864705534992, -35.051212445433521, 0.0 ], [ -59.499882166333215, -35.049846631877998, 0.0 ], [ -59.504774331089962, -35.043232263216687, 0.0 ], [ -59.507881824296781, -35.039102191284016, 0.0 ], [ -59.509472774120049, -35.03699589070127, 0.0 ], [ -59.512099813842333, -35.033425707919648, 0.0 ], [ -59.513589019129569, -35.031471407533239, 0.0 ], [ -59.516530890254472, -35.027436274372924, 0.0 ], [ -59.517929473010071, -35.025546899562094, 0.0 ], [ -59.521265736621885, -35.021003538188502, 0.0 ], [ -59.523069664522268, -35.018575532222059, 0.0 ], [ -59.525796798805878, -35.014887813353027, 0.0 ], [ -59.528390546789609, -35.011334553792366, 0.0 ], [ -59.530701600953158, -35.008106857948889, 0.0 ], [ -59.534116299029606, -35.003485016133723, 0.0 ], [ -59.534154505966924, -35.003282599416316, 0.0 ], [ -59.53408911998212, -35.003142950035731, 0.0 ], [ -59.531723945987153, -35.001979455799869, 0.0 ], [ -59.531616511030741, -35.001787368444724, 0.0 ], [ -59.531665547058644, -35.00154361034204, 0.0 ], [ -59.5425, -34.986809, 0.0 ], [ -59.546475060606276, -34.981524239409559, 0.0 ], [ -59.548098835598857, -34.979319511678924, 0.0 ], [ -59.54936813101952, -34.977559958955936, 0.0 ], [ -59.551351819324644, -34.974835951910542, 0.0 ], [ -59.553545902889915, -34.971838242081638, 0.0 ], [ -59.553568158448051, -34.971637937426522, 0.0 ], [ -59.553333878925834, -34.971412730206261, 0.0 ], [ -59.55077660641247, -34.970170484812463, 0.0 ], [ -59.550653267781122, -34.969982710687155, 0.0 ], [ -59.550699593357692, -34.969736755182808, 0.0 ], [ -59.556767516024209, -34.961277468165662, 0.0 ], [ -59.560504402941881, -34.956120193057501, 0.0 ], [ -59.568010342266525, -34.945960040716763, 0.0 ], [ -59.577069973757574, -34.933674608608449, 0.0 ], [ -59.579501784072825, -34.930335262658055, 0.0 ], [ -59.579556300879759, -34.930017444152895, 0.0 ], [ -59.579287941529692, -34.929742070678678, 0.0 ], [ -59.575399540196507, -34.927809610811671, 0.0 ] ] ] } },
{ "type": "Feature", "properties": { "NOMEMCLATURA": "075-07", "PARTIDO": "075", "PARTIDO_NOMBRE": "Navarro", "DENOMINACION": "RP 41 - SEC 109-01", "CLASE": "DE TIERRA", "TRANSITABIlIDAD": "TEMPORARIO", "TIPO": "CAMINO", "TRAMO_NUM": null, "LON_INI": -59.342744514483897, "LAT_INI": -34.86519366789237, "LON_FIN": -59.575399540196507, "LAT_FIN": -34.927809610811671, "LONGITUD_KM_ORIG": 24.87, "LONGITUD_KM_WGS84": 24.6934, "N_VERTICES": 36, "N_LINEAS": 1, "DIFF_PCT": -0.7, "ALERTA": "" }, "geometry": { "type": "MultiLineString", "coordinates": [ [ [ -59.342744514483897, -34.86519366789237, 0.0 ], [ -59.343250858592135, -34.865324913048575, 0.0 ], [ -59.349095074151499, -34.870527193495683, 0.0 ], [ -59.355250425315276, -34.875909472944493, 0.0 ], [ -59.356323219261753, -34.876620869061988, 0.0 ], [ -59.361600025148327, -34.881231461461503, 0.0 ], [ -59.375762830431817, -34.893540606609363, 0.0 ], [ -59.375861955580518, -34.893716454254509, 0.0 ], [ -59.375841960455631, -34.893913471415715, 0.0 ], [ -59.374903162263728, -34.895091366049932, 0.0 ], [ -59.374809394515012, -34.895342456553088, 0.0 ], [ -59.375059804394937, -34.895613830994336, 0.0 ], [ -59.400606292051698, -34.908465978235498, 0.0 ], [ -59.421025424898659, -34.918747674612185, 0.0 ], [ -59.421988771563399, -34.919011456637975, 0.0 ], [ -59.422416460403511, -34.91911150551315, 0.0 ], [ -59.42268596512578, -34.919143279840711, 0.0 ], [ -59.423059542735437, -34.919040504467176, 0.0 ], [ -59.423359810509091, -34.918832830447997, 0.0 ], [ -59.429826979025066, -34.909987509051838, 0.0 ], [ -59.429978711323074, -34.90989257163519, 0.0 ], [ -59.430085610758745, -34.909852085625602, 0.0 ], [ -59.430237570722895, -34.909805304852256, 0.0 ], [ -59.430430372782205, -34.909791244953752, 0.0 ], [ -59.430687311439648, -34.909842341001308, 0.0 ], [ -59.451043449827139, -34.920077331855879, 0.0 ], [ -59.451596135198514, -34.920275858244736, 0.0 ], [ -59.452313474992941, -34.920369485511266, 0.0 ], [ -59.452966495666075, -34.920390940942156, 0.0 ], [ -59.515396382514894, -34.922406073733988, 0.0 ], [ -59.534894791272968, -34.923025713757269, 0.0 ], [ -59.535376330267063, -34.922983993372974, 0.0 ], [ -59.545722704235899, -34.923284489671317, 0.0 ], [ -59.545867502751328, -34.923402649957112, 0.0 ], [ -59.567996073703078, -34.924088858027467, 0.0 ], [ -59.575399540196507, -34.927809610811671, 0.0 ] ] ] } },
{ "type": "Feature", "properties": { "NOMEMCLATURA": "075-08", "PARTIDO": "075", "PARTIDO_NOMBRE": "Navarro", "DENOMINACION": "SEC 075-07 - SEC 071-03", "CLASE": "DE TIERRA", "TRANSITABIlIDAD": "TEMPORARIO", "TIPO": "CAMINO", "TRAMO_NUM": null, "LON_INI": -59.429826979025066, "LAT_INI": -34.909987509051838, "LON_FIN": -59.458090574382382, "LAT_FIN": -34.867280579070652, "LONGITUD_KM_ORIG": 5.61, "LONGITUD_KM_WGS84": 5.6351, "N_VERTICES": 10, "N_LINEAS": 1, "DIFF_PCT": 0.4, "ALERTA": "" }, "geometry": { "type": "MultiLineString", "coordinates": [ [ [ -59.429826979025066, -34.909987509051838, 0.0 ], [ -59.43000044272528, -34.909756352814121, 0.0 ], [ -59.430030743542503, -34.909677469403974, 0.0 ], [ -59.430025345115155, -34.909596377676465, 0.0 ], [ -59.429990715356581, -34.909526994693088, 0.0 ], [ -59.429934902635729, -34.909483780214956, 0.0 ], [ -59.427820712143813, -34.908471908998294, 0.0 ], [ -59.427768800141997, -34.908332264799185, 0.0 ], [ -59.427833342943487, -34.908175743912381, 0.0 ], [ -59.458090574382382, -34.867280579070652, 0.0 ] ] ] } },
{ "type": "Feature", "properties": { "NOMEMCLATURA": "075-09", "PARTIDO": "075", "PARTIDO_NOMBRE": "Navarro", "DENOMINACION": "ZONA URBANA. AV. CIRCUNVALACIÓN. PARTE DE RP 47", "CLASE": "DE TIERRA", "TRANSITABIlIDAD": "TEMPORARIO", "TIPO": "CAMINO", "TRAMO_NUM": null, "LON_INI": -59.277070707693476, "LAT_INI": -34.992303594868744, "LON_FIN": -59.280346368951157, "LAT_FIN": -35.010703217451713, "LONGITUD_KM_ORIG": 2.883, "LONGITUD_KM_WGS84": 2.8562, "N_VERTICES": 4, "N_LINEAS": 1, "DIFF_PCT": -0.9, "ALERTA": "" }, "geometry": { "type": "MultiLineString", "coordinates": [ [ [ -59.277070707693476, -34.992303594868744, 0.0 ], [ -59.273841476471212, -34.998324104573328, 0.0 ], [ -59.284870718992011, -35.002173972257886, 0.0 ], [ -59.280346368951157, -35.010703217451713, 0.0 ] ] ] } }
]
}
