{"type": "FeatureCollection", "features": [{"type": "Feature", "properties": {"PARTIDO": "Carlos Tejedor", "CABECERA": "CARLOS TEJEDOR", "FNA": "Partido de CARLOS TEJEDOR", "GNA": "Partido", "NAM": "CARLOS TEJEDOR", "CDE": "0154", "CCA": "017", "ARA": 3917.62850677, "ARL": 3910.74, "SDP": null, "SAG": "Dirección Provincial de Estadística - Ministerio de Economía - PBA", "COD_PART": "154", "partido": "Carlos Tejedor"}, "geometry": {"type": "MultiPolygon", "coordinates": [[[[-62.39665112655124, -35.071452609200826], [-62.37080650366964, -35.09283358415851], [-62.37068939953171, -35.09288448341957], [-62.28519192507841, -35.16362149847185], [-62.270403273079, -35.15160983032824], [-62.267148477789426, -35.15426205282083], [-62.25803450864697, -35.16173633732323], [-62.23880283528357, -35.17772985299231], [-62.2387515872991, -35.17797695256108], [-62.21107779240094, -35.20077067814028], [-62.22618994888679, -35.213003339975614], [-62.20600940541993, -35.23002188447855], [-62.14601814374329, -35.279963423742366], [-62.150003076096745, -35.28317335068446], [-62.11349733342194, -35.31356894516951], [-62.105083452447694, -35.32055081988086], [-62.10500098074992, -35.320773954679716], [-62.096854839334036, -35.327504046885544], [-62.08960117079723, -35.33356809087525], [-62.074719600592665, -35.34589939979506], [-62.0746505275377, -35.34585266979386], [-62.02923197853089, -35.38355799923819], [-62.02975527518539, -35.383992679289676], [-61.99905945094488, -35.40923754623201], [-61.94891261383216, -35.45007633083238], [-61.90582416454432, -35.48521101583732], [-61.94370959672371, -35.51684757428379], [-61.94605007922837, -35.51876809695483], [-61.94629485156932, -35.51859883843322], [-61.94648781463472, -35.518538500677195], [-61.949279981620606, -35.5208013577005], [-61.98758581492941, -35.55206379330999], [-62.04979132356645, -35.50123970100768], [-62.05046402000757, -35.5018958463614], [-62.07191422765819, -35.51913657403024], [-62.07211227822402, -35.51946695906152], [-62.07237690368587, -35.52011806522799], [-62.07276719336144, -35.52055243302143], [-62.07370613118429, -35.52077470800871], [-62.07417682813581, -35.52093350575342], [-62.08495795068141, -35.529592906016155], [-62.08733589857264, -35.53131605758775], [-62.090841567349884, -35.534342828870514], [-62.12948137052276, -35.56530895657571], [-62.097969165228484, -35.5915401920981], [-62.12772388888757, -35.615565475664546], [-62.162845235447485, -35.64382711852744], [-62.168469691457325, -35.64829623475819], [-62.1848489852584, -35.66161439809935], [-62.23221286216597, -35.699663033388866], [-62.24585988022773, -35.71064210489932], [-62.25882472665464, -35.72090457547776], [-62.28760930944277, -35.744000468845144], [-62.31054146926551, -35.76236428240961], [-62.310858992399, -35.76255525651525], [-62.33697281541573, -35.783565535438925], [-62.36744168058544, -35.75822546948936], [-62.38135595307091, -35.74672904998272], [-62.38143352943507, -35.74680185149272], [-62.41244887506755, -35.721021776116416], [-62.41441455569937, -35.72260977514907], [-62.43906965498536, -35.70230566901345], [-62.45045900055796, -35.69310258469132], [-62.473128000927, -35.67453924818913], [-62.483564690891264, -35.66586655533967], [-62.48487942390537, -35.66481433498191], [-62.49590327561812, -35.655767098620125], [-62.4975162544703, -35.654371240892985], [-62.55460030283758, -35.60728350113072], [-62.554682639397036, -35.60718004121881], [-62.55470991589447, -35.60705867783534], [-62.57116842991372, -35.593517487770846], [-62.57680604750954, -35.58899156044554], [-62.6001308356069, -35.56965185170434], [-62.61008288737733, -35.56139120560084], [-62.61151732015722, -35.5600442172324], [-62.62319032955477, -35.55036954355757], [-62.63808146030413, -35.53806572415571], [-62.64697023660299, -35.530941698463344], [-62.66953341570779, -35.51131594127692], [-62.69252363435982, -35.49209376308702], [-62.684439164383704, -35.4855976587062], [-62.707824327555166, -35.46609900330802], [-62.715700613184495, -35.45954591530305], [-62.7234446412092, -35.45309220822397], [-62.73064141153843, -35.44708435434667], [-62.7320054221486, -35.44592996097006], [-62.736836579508804, -35.44190147418555], [-62.737177370119404, -35.44162014201968], [-62.738999659344664, -35.44011574306834], [-62.73899971184574, -35.44011570043147], [-62.74682197433153, -35.43375822412576], [-62.756285816680446, -35.4258891146007], [-62.77395796251135, -35.41105406449974], [-62.77380858553462, -35.41100028599062], [-62.77692101251676, -35.40837522292711], [-62.803358994921936, -35.42952735681689], [-62.8216201362777, -35.41422389669521], [-62.872653334766476, -35.37146462309258], [-62.868660533116255, -35.36829219210619], [-62.84644230882858, -35.35044099824426], [-62.8610150323565, -35.338139119559024], [-62.89242597235021, -35.31181156042118], [-62.86594727219798, -35.29064507843369], [-62.86585632898395, -35.29072406633541], [-62.86351857133317, -35.288859625309485], [-62.89950202163358, -35.259263387503964], [-62.849613763291906, -35.21856089306762], [-62.83305757049909, -35.20503168102876], [-62.82361688012477, -35.1973595943393], [-62.81948839594286, -35.1939538035965], [-62.81847835779708, -35.19329793288234], [-62.801446580303036, -35.179354417503], [-62.78543989220256, -35.16630510346654], [-62.76929711119354, -35.153036988993215], [-62.74567315072945, -35.133705007009276], [-62.74668943065138, -35.132859505234435], [-62.707936913969164, -35.10140844543484], [-62.707847944923664, -35.10133619496559], [-62.67705174590038, -35.12692130035129], [-62.65935673717779, -35.112375410557874], [-62.676250108854724, -35.09830872295147], [-62.67632930444552, -35.09837287154501], [-62.68235586610605, -35.09329282879575], [-62.68308511660765, -35.09386075846581], [-62.69103591857039, -35.087366927178934], [-62.687111353613226, -35.08423992534033], [-62.68623967822482, -35.08374663607587], [-62.61086137434288, -35.02226460361036], [-62.57697940669688, -35.05013698205645], [-62.54883249259316, -35.073555605078404], [-62.483797126430034, -35.02062873995809], [-62.4711116828448, -35.010223986809486], [-62.424210105090616, -35.04864620137507], [-62.40893910380991, -35.06109248540167], [-62.4006902685293, -35.06804434612124], [-62.39665112655124, -35.071452609200826]]]]}}, {"type": "Feature", "properties": {"PARTIDO": "Florentino Ameghino", "CABECERA": "FLORENTINO AMEGHINO", "FNA": "Partido de FLORENTINO AMEGHINO", "GNA": "Partido", "NAM": "FLORENTINO AMEGHINO", "CDE": "0277", "CCA": "128", "ARA": 1810.58882205, "ARL": 1808.55, "SDP": null, "SAG": "Dirección Provincial de Estadística - Ministerio de Economía - PBA", "COD_PART": "277", "partido": "Florentino Ameghino"}, "geometry": {"type": "MultiPolygon", "coordinates": [[[[-62.34782443057553, -34.654119620255806], [-62.33450164473249, -34.656524720949015], [-62.21906981822575, -34.677296127428406], [-62.18812568578503, -34.68275795210402], [-62.262632730522476, -34.7422546649437], [-62.24025855561756, -34.76183369405598], [-62.262453608191976, -34.77936085855161], [-62.273797096548314, -34.78834500831705], [-62.302510266177144, -34.811329699864544], [-62.30479336273646, -34.81294548562223], [-62.28521495134625, -34.81375206189559], [-62.28402632333652, -34.835614760694405], [-62.283029419151944, -34.85706269116591], [-62.25280407983601, -34.856043041262424], [-62.222499909455635, -34.854955695324925], [-62.22089027246656, -34.88991854505023], [-62.206433438793006, -34.889405896875125], [-62.181908934051314, -34.915208481641095], [-62.1848193178968, -34.91755005087933], [-62.1699155144115, -34.93006882377066], [-62.16509564274834, -34.93419198924235], [-62.1551006107929, -34.94248329695585], [-62.10486948875055, -34.984239201932986], [-62.10509538559958, -34.984311582896], [-62.138722693643096, -35.01165843599889], [-62.14546130282169, -35.01721098555022], [-62.14546807794886, -35.01735385242193], [-62.186089191261566, -35.05021485007786], [-62.166163461090015, -35.06684583115197], [-62.23486535545338, -35.12272439978844], [-62.23953631201591, -35.12645527275257], [-62.24140776000777, -35.12797746184576], [-62.24515276094981, -35.131034742223335], [-62.247038432652396, -35.1325520095913], [-62.24890406632194, -35.13404958587354], [-62.252377020797134, -35.136980472438935], [-62.2660195884882, -35.148015320847946], [-62.270403273079, -35.15160983032824], [-62.28519192507841, -35.16362149847185], [-62.37068939953171, -35.09288448341957], [-62.37080650366964, -35.09283358415851], [-62.39665112655124, -35.071452609200826], [-62.4006902685293, -35.06804434612124], [-62.40893910380991, -35.06109248540167], [-62.424210105090616, -35.04864620137507], [-62.4711116828448, -35.010223986809486], [-62.483797126430034, -35.02062873995809], [-62.54883249259316, -35.073555605078404], [-62.57697940669688, -35.05013698205645], [-62.61086137434288, -35.02226460361036], [-62.64142134638315, -34.99705325279264], [-62.606211426037234, -34.99676578810967], [-62.61099523341161, -34.88370505494716], [-62.6119375063998, -34.86077347370775], [-62.613035742054464, -34.83453627858322], [-62.61433372856378, -34.806437129893006], [-62.61617365138202, -34.76112852978586], [-62.61689212152965, -34.74819902018972], [-62.61752380594284, -34.73218046849545], [-62.618233748010844, -34.71565051439196], [-62.62036057086422, -34.66501303435801], [-62.62164205547372, -34.63230751862249], [-62.608664946834665, -34.6360787718045], [-62.5940879771704, -34.64992646481284], [-62.58379596142661, -34.61082338588792], [-62.55195304697692, -34.61670018798014], [-62.54089581967849, -34.6187450917464], [-62.53629508499166, -34.61944347323498], [-62.48776543224986, -34.62834164838107], [-62.48277767398554, -34.62930475062175], [-62.4806585089073, -34.62971387827298], [-62.47852247075138, -34.630126224108245], [-62.47621952670111, -34.63057074280526], [-62.47466699188577, -34.63087038930368], [-62.47381628923511, -34.63103456923246], [-62.47373218841138, -34.63105080051806], [-62.402048836330806, -34.64423043827486], [-62.34782443057553, -34.654119620255806]]]]}}, {"type": "Feature", "properties": {"PARTIDO": "General Arenales", "CABECERA": "GENERAL ARENALES", "FNA": "Partido de GENERAL ARENALES", "GNA": "Partido", "NAM": "GENERAL ARENALES", "CDE": "0294", "CCA": "035", "ARA": 1480.77996852, "ARL": 1482.64, "SDP": null, "SAG": "Dirección Provincial de Estadística - Ministerio de Economía - PBA", "COD_PART": "294", "partido": "General Arenales"}, "geometry": {"type": "MultiPolygon", "coordinates": [[[[-61.331748767038015, -34.02568200156645], [-61.3289579042758, -34.02797847593129], [-61.32852085565488, -34.02760040981413], [-61.326717949756905, -34.0291962276616], [-61.311952013270904, -34.04163668718374], [-61.282362033857446, -34.06625942471342], [-61.26485338913893, -34.08104794992836], [-61.23811557008785, -34.10329387674044], [-61.21988767419668, -34.11827914809155], [-61.21163754619922, -34.12495183749838], [-61.21062807132323, -34.12575840395561], [-61.2050671024258, -34.11966626164198], [-61.205238954873856, -34.119547911714236], [-61.20203467359362, -34.116772867759565], [-61.19988844211388, -34.11483325396918], [-61.19977021165663, -34.11481063720198], [-61.197690961905415, -34.11296104084481], [-61.19331728704784, -34.109097469286525], [-61.18914250793335, -34.10551980613875], [-61.186302429621776, -34.10295720010314], [-61.18352317939944, -34.1006131255192], [-61.1808293829502, -34.09809985874158], [-61.180629482077975, -34.09801909698588], [-61.18033082402365, -34.09798380627752], [-61.17997171733796, -34.09799997670639], [-61.17975555821965, -34.09784940761876], [-61.179630375890646, -34.09766036521141], [-61.179292577247566, -34.09754220385026], [-61.178943557293806, -34.09718302158866], [-61.17885535216997, -34.09688344876572], [-61.1788598845339, -34.09666228697741], [-61.17862747276929, -34.09644190968511], [-61.17842704895383, -34.09632298927256], [-61.17811888612228, -34.09641788813739], [-61.177340272085885, -34.09679134559253], [-61.177175960225206, -34.09670825744204], [-61.176929406206966, -34.096381868966965], [-61.176148018509856, -34.09571516967232], [-61.175897187479684, -34.09550100131177], [-61.17492352854124, -34.09526235344906], [-61.17462604617062, -34.09511915146932], [-61.17444344355638, -34.09508439965164], [-61.17409930666936, -34.095175069256264], [-61.1736398717775, -34.09512221777711], [-61.17358337862695, -34.094906510415456], [-61.173298617747605, -34.09476930535812], [-61.17300565710745, -34.09466592177637], [-61.17258614239492, -34.09466162464869], [-61.17253035384833, -34.094496791283426], [-61.17228407927465, -34.09437829739402], [-61.17187789476799, -34.09430585014984], [-61.171309609798456, -34.094120463545046], [-61.171131783312404, -34.093975873998055], [-61.17080134007192, -34.093851819775175], [-61.17052668287734, -34.09389259814395], [-61.17037642029535, -34.093846259467], [-61.17019466535328, -34.09365407259545], [-61.169834611645754, -34.09360026001017], [-61.16959616267837, -34.093494407340266], [-61.16934347499597, -34.09346501166608], [-61.16916115682043, -34.09354942954817], [-61.168989856079364, -34.093653895074205], [-61.16854523075064, -34.09379061827768], [-61.168247465526136, -34.09381889195029], [-61.167887674224694, -34.09378415119008], [-61.16775816302306, -34.09381718366081], [-61.167621859439556, -34.09371382576597], [-61.16769316897086, -34.09353795165397], [-61.16743847340462, -34.09336228605314], [-61.167008667043724, -34.09323916577087], [-61.16698337831596, -34.09306767935324], [-61.16662271915302, -34.092969341450164], [-61.16664120006437, -34.09264479443883], [-61.166515757352066, -34.09241701797432], [-61.1664295815088, -34.09226519050451], [-61.16636598777063, -34.092087707904625], [-61.1660900256524, -34.09203308578644], [-61.165746053233626, -34.09203635038059], [-61.165227198725276, -34.09178703667764], [-61.164851441847816, -34.09146605551608], [-61.164690399910945, -34.091429421426376], [-61.164328530022814, -34.09124204398705], [-61.164003537102, -34.091144779978855], [-61.16389717293395, -34.091004443377855], [-61.1636517022817, -34.09094316620623], [-61.16322008198045, -34.09071886743361], [-61.16257645075944, -34.090578092530315], [-61.16251938031866, -34.090317863398084], [-61.16210497017323, -34.09020093966353], [-61.16180891835767, -34.08998551265111], [-61.16094053123519, -34.08946144179735], [-61.160450905963835, -34.08943426646538], [-61.16021821414528, -34.08918841526916], [-61.159634527102554, -34.08899039891993], [-61.15937795420409, -34.08867480822701], [-61.15912510152963, -34.08852526214417], [-61.15887088142954, -34.08848878547582], [-61.1581911484198, -34.0879736566416], [-61.15773647712558, -34.08770443341732], [-61.15749065900825, -34.08761772433822], [-61.15706499072125, -34.08723375924496], [-61.15649687021283, -34.08705466206415], [-61.15612990086327, -34.0870517553524], [-61.15559149256672, -34.086808771641635], [-61.15546660658815, -34.08661913909036], [-61.155259284847446, -34.08655112636281], [-61.15503503698475, -34.08636242764503], [-61.15486461341681, -34.086350705433546], [-61.15464591723467, -34.086416966781606], [-61.15438455902986, -34.08631768429098], [-61.154051424981645, -34.08598369605205], [-61.153897563826014, -34.08585738502867], [-61.15371434294046, -34.085929619869304], [-61.153618137607694, -34.08559979021586], [-61.15323709895902, -34.08531517658697], [-61.152971705334416, -34.08528148596791], [-61.15279487631882, -34.08520682220864], [-61.152618760810405, -34.08501953510341], [-61.15233689266226, -34.08488476657425], [-61.152142860598175, -34.08484060242509], [-61.15202583768422, -34.084689986565444], [-61.15180389463257, -34.084681471828375], [-61.15146024095602, -34.084695288744065], [-61.15122946623741, -34.08445315106194], [-61.15120954740581, -34.08424605994569], [-61.1505747212652, -34.0836541437886], [-61.15040545523209, -34.08357304504495], [-61.15043164068169, -34.08324842718201], [-61.15036027293874, -34.08305828801009], [-61.14998163603215, -34.082756540904576], [-61.14920590552337, -34.081917885545295], [-61.14903750220136, -34.08190037956658], [-61.148849283696144, -34.081946880489475], [-61.14861911491717, -34.08205057736491], [-61.14829270155793, -34.08208438599388], [-61.14800896400166, -34.082151684175074], [-61.14769568785777, -34.08216097069069], [-61.14737253789826, -34.08200498276087], [-61.147140247163016, -34.08178454286592], [-61.14690170086297, -34.08176496824901], [-61.146705370904634, -34.08184584454997], [-61.14603743411848, -34.0816294676841], [-61.14579853235926, -34.08148541006436], [-61.1456072880946, -34.081474473011866], [-61.14512261586474, -34.08124366179655], [-61.144640085534924, -34.08117183487333], [-61.14407117506504, -34.08092908380957], [-61.14388552317283, -34.08076544551021], [-61.1438977302018, -34.08053636304502], [-61.14364414801755, -34.08043695962784], [-61.14343821803161, -34.080470676777594], [-61.14318617595611, -34.08048574339751], [-61.14296989786594, -34.08041403656246], [-61.14286201512586, -34.080253429547035], [-61.14223641303775, -34.080341930065266], [-61.142037186830926, -34.08030561993359], [-61.14188091605966, -34.08005266267308], [-61.141676277349816, -34.079985130863214], [-61.14150530884258, -34.07997346892088], [-61.14136995707121, -34.08014009327412], [-61.141017789367034, -34.08009884237718], [-61.14042946379841, -34.08011702489364], [-61.14020274441768, -34.080053661955304], [-61.14002183668083, -34.07992999996199], [-61.13967650414826, -34.07986496275893], [-61.13926994689978, -34.07972072544239], [-61.138956591871995, -34.07972363056323], [-61.138901559834586, -34.079609656183095], [-61.13872518014206, -34.07956676911765], [-61.13841318834029, -34.07967142431991], [-61.13794536179954, -34.07955491282174], [-61.13776040384266, -34.0794421411482], [-61.13741699014798, -34.07948348187733], [-61.137070599957795, -34.07930223988115], [-61.13700733361188, -34.07914381895155], [-61.13644567496032, -34.07886916352462], [-61.136086466892735, -34.07887248538461], [-61.135855657017295, -34.07876013473696], [-61.13540974866503, -34.078567087499756], [-61.13501903796754, -34.07850073462941], [-61.13478228385834, -34.07851564183415], [-61.1344203299441, -34.078367537279654], [-61.13426589942606, -34.07819603625787], [-61.13388164772952, -34.0780405763303], [-61.13352847496453, -34.0779229897091], [-61.133417580685, -34.077631440497306], [-61.133342878876554, -34.07756269598266], [-61.13307078201647, -34.077464040694046], [-61.13254310635337, -34.07739781328876], [-61.13221382895079, -34.07715332756955], [-61.13173547295763, -34.07701727801732], [-61.13145404589764, -34.076934765340084], [-61.13109539001828, -34.07659067407085], [-61.130819160692, -34.07651053246843], [-61.13050657816366, -34.07657065113603], [-61.13032146737251, -34.07644514901277], [-61.130044477921686, -34.0763077702995], [-61.12977589233728, -34.076227556929915], [-61.12939511853859, -34.07633282166724], [-61.1288288430085, -34.07636767770967], [-61.12847734276779, -34.07629037225531], [-61.12801845405612, -34.076269144079916], [-61.12774130126422, -34.076119042097275], [-61.127105542207445, -34.07601675046041], [-61.126692218625735, -34.075773020562075], [-61.12661951803027, -34.07567775254373], [-61.12682443219121, -34.07556774946934], [-61.12679099919412, -34.07535180607579], [-61.126707819662066, -34.0752195330179], [-61.125998969236804, -34.07459816828194], [-61.125752273296946, -34.07425463862], [-61.12552056279715, -34.074072313600325], [-61.12509040766573, -34.07391088547104], [-61.12480680073656, -34.07384987880877], [-61.12470551792308, -34.07370451953539], [-61.124490609377695, -34.07363652355099], [-61.124170473669544, -34.0737030549419], [-61.124047777152136, -34.07367237674297], [-61.123683634528746, -34.0733004502803], [-61.12346721640084, -34.073117980538335], [-61.12321586548861, -34.07260509558583], [-61.12257250337868, -34.072103507407014], [-61.11402063959382, -34.079164929266454], [-61.11390533196798, -34.07911509290138], [-61.07830978752096, -34.10861439736392], [-61.0791144174907, -34.108892824993994], [-61.066803201221056, -34.11877170834055], [-61.025898888063864, -34.15170199420357], [-61.01961365523552, -34.15632457291498], [-61.01182784910056, -34.16282123261573], [-61.004051373103465, -34.16905456986857], [-60.99985492129665, -34.173324778102646], [-60.961967965701604, -34.204303294881576], [-60.95794779967756, -34.20757849666098], [-60.93592896873911, -34.22611060680559], [-60.928131357099325, -34.23284815716005], [-60.91708778030196, -34.24189703435272], [-60.93711136976443, -34.258633428290814], [-60.94062170090394, -34.26157118939495], [-60.941292560008414, -34.26258573886899], [-60.95911244096766, -34.27703824898263], [-60.96838721912624, -34.2693775882646], [-60.97471780285464, -34.264184559731255], [-60.978834734388464, -34.26060019711913], [-60.982651299029435, -34.25745951877896], [-60.993362408729425, -34.24855158201331], [-60.9987830287115, -34.243922329182574], [-61.00027501973584, -34.24273017549136], [-61.00299191959416, -34.24055914575531], [-61.00769938222202, -34.236626985264905], [-61.007800595278404, -34.236444887211654], [-61.00786400176481, -34.23639247162813], [-61.013668974097, -34.23159328297458], [-61.033884157683616, -34.24844435025592], [-61.041681288350006, -34.254966920290194], [-61.05874432319878, -34.269140547040756], [-61.04160242194639, -34.28327517283709], [-61.051684074405905, -34.291665318631814], [-61.05736413498305, -34.29639605224467], [-61.07037124507741, -34.30730196056499], [-61.098081722605535, -34.28442702813496], [-61.13783052152583, -34.317590517140594], [-61.12787067179939, -34.32581348459871], [-61.134359583768955, -34.33119772145527], [-61.15404347481756, -34.34763815025047], [-61.15428557237038, -34.34767879753483], [-61.16871693911497, -34.359659847406746], [-61.17642465568797, -34.36624966482842], [-61.1771778370454, -34.36527007941158], [-61.178812762537866, -34.36426855092989], [-61.18026062144449, -34.363602702639554], [-61.18174746834552, -34.36298416074871], [-61.18316252781834, -34.36271609248116], [-61.1851001074042, -34.36279274522884], [-61.18731078866176, -34.36320061560777], [-61.19002600187542, -34.36403283694188], [-61.19274619552501, -34.36515889729607], [-61.19424028104673, -34.36657531177795], [-61.195133477336526, -34.36871306889693], [-61.19588123253414, -34.37073299094984], [-61.19698639488482, -34.372600351253325], [-61.198211395944426, -34.37468534748089], [-61.19894640914014, -34.376474824727765], [-61.19863835098847, -34.377733926132805], [-61.19773565593144, -34.37898294865257], [-61.19677382712058, -34.38012124485058], [-61.19618479892864, -34.38134719915506], [-61.19621966120864, -34.382956824963614], [-61.19627657979015, -34.38419267258668], [-61.1958962758969, -34.38577046774694], [-61.1950099209646, -34.38682851307254], [-61.19421107237769, -34.38729740648388], [-61.1939678883491, -34.38908055492365], [-61.194181329384584, -34.39060484898947], [-61.195216916858456, -34.391946216817594], [-61.196542916255275, -34.39347553221581], [-61.19661493009136, -34.39449241196378], [-61.19622373319176, -34.395307124914865], [-61.19630570127166, -34.39702349643642], [-61.19630932502566, -34.39923412441118], [-61.1965524302632, -34.401489509339655], [-61.19726078110293, -34.40273865735201], [-61.19671142340126, -34.40457250155335], [-61.195544106149306, -34.41016471924129], [-61.194297595536874, -34.41289574798306], [-61.19398191780867, -34.41498169190317], [-61.19428211639981, -34.41720471904199], [-61.195033506175214, -34.42012292331075], [-61.19659707824808, -34.422873580745986], [-61.198246117303874, -34.42414530821509], [-61.20040887819571, -34.42510987682533], [-61.20201236567271, -34.42587321037678], [-61.202928004291394, -34.425498513907186], [-61.2036705163182, -34.42509371627177], [-61.20454092915664, -34.42424246382144], [-61.2049328550667, -34.423475419353444], [-61.20510624027056, -34.42447687751229], [-61.20588406731147, -34.42558069797145], [-61.20661332091769, -34.42558940433882], [-61.208142618725496, -34.42519271376471], [-61.20930327180781, -34.42451345620042], [-61.21030093242594, -34.425839157089484], [-61.212031333005385, -34.4274119823409], [-61.21361405934166, -34.42938373833818], [-61.214069352499216, -34.43034909663697], [-61.21458474495116, -34.4314887508204], [-61.21472709954409, -34.43204382405692], [-61.215361396401406, -34.432117018708844], [-61.21712538067179, -34.43201997550965], [-61.21874994939836, -34.432894171560775], [-61.22013067127549, -34.43415237025185], [-61.22089498354971, -34.43426267116333], [-61.22217971329965, -34.43386161376645], [-61.22275206929593, -34.433633297049774], [-61.224543902719226, -34.435443818402526], [-61.22443898522525, -34.43614445137063], [-61.22429313957121, -34.4366705977968], [-61.224259281508026, -34.43742897514363], [-61.22615632810926, -34.43695926953154], [-61.2277807496276, -34.4364472029849], [-61.22900086226263, -34.43578069061073], [-61.22964390475045, -34.435138242173366], [-61.22989644882995, -34.43403863084468], [-61.23024678277502, -34.43306523225042], [-61.23026370724352, -34.431419520268854], [-61.23114530533393, -34.428481122214045], [-61.230794892977066, -34.426839608095094], [-61.22972499821868, -34.424349006084846], [-61.22980971887228, -34.42287798698797], [-61.23053786406838, -34.42150329533761], [-61.23135917702515, -34.41863309817829], [-61.23174505666909, -34.41745555064335], [-61.23291893636932, -34.416407336580974], [-61.232565951829265, -34.41588620742466], [-61.23183142376936, -34.415512016949165], [-61.23135659897751, -34.41453102092596], [-61.23198010960682, -34.411233561884586], [-61.234562123979885, -34.40720077599322], [-61.23504389591565, -34.40526246675907], [-61.23570034899476, -34.40372316113913], [-61.23786434773274, -34.40217491545267], [-61.24053466125693, -34.40114618712543], [-61.24208275814159, -34.40076478642584], [-61.24304076349146, -34.400691456518445], [-61.2439639394919, -34.40085696795549], [-61.244635437080476, -34.40086603726477], [-61.24509620217483, -34.4008931476848], [-61.24604539804542, -34.401519467896605], [-61.24691317248904, -34.401828617536836], [-61.24762280007902, -34.401821381972006], [-61.24846148648393, -34.40146303378132], [-61.24913204350701, -34.401408489171885], [-61.25007630876204, -34.40170093635189], [-61.2508252391178, -34.40175687840587], [-61.25186090971209, -34.40174628391145], [-61.252767775980374, -34.402102691586414], [-61.25337513273792, -34.40295504895515], [-61.25397751942871, -34.40347356175249], [-61.255768097139565, -34.40391628137232], [-61.26094978500318, -34.40588603244976], [-61.26239372082056, -34.40499678869954], [-61.264840514418715, -34.40571065336071], [-61.266522945737165, -34.40441326882419], [-61.26924700953136, -34.40492543162388], [-61.29122980662101, -34.422302654558436], [-61.2996376610012, -34.428767938466784], [-61.319580945612486, -34.44480165351107], [-61.3201280252519, -34.44541900197579], [-61.32063403317721, -34.445865078891444], [-61.32952112663124, -34.45296796430029], [-61.35870698138399, -34.42837868701485], [-61.36919190434094, -34.419549002837734], [-61.37686480552152, -34.42554909791552], [-61.416281318089304, -34.39187779850478], [-61.39490890085788, -34.37330915182689], [-61.40567177247043, -34.36401908925476], [-61.44338122279406, -34.331752015843726], [-61.47323146170585, -34.30631724663919], [-61.497242947274884, -34.326761670998934], [-61.50988404069008, -34.336899838730815], [-61.5106589897197, -34.33625117527506], [-61.52754991712838, -34.32210914852793], [-61.527800001926515, -34.321633824287204], [-61.5375408623422, -34.31340573573042], [-61.54974390674682, -34.303364262285974], [-61.569797026063235, -34.31943202999438], [-61.6109420577168, -34.35225274443185], [-61.622978207904936, -34.341699256570514], [-61.634795103317074, -34.33154485019211], [-61.64835774306463, -34.319871355784144], [-61.58577411749857, -34.261445517467564], [-61.5372225746167, -34.216598331087816], [-61.49496203091024, -34.17817828914817], [-61.46545317696869, -34.15166172088365], [-61.42895229163829, -34.1167088448295], [-61.397712278948674, -34.08676137197542], [-61.359309918533455, -34.051534856961965], [-61.35710336661339, -34.04944603537331], [-61.331748767038015, -34.02568200156645]]]]}}, {"type": "Feature", "properties": {"PARTIDO": "General Pinto", "CABECERA": "GENERAL PINTO", "FNA": "Partido de GENERAL PINTO", "GNA": "Partido", "NAM": "GENERAL PINTO", "CDE": "0351", "CCA": "044", "ARA": 2545.75622873, "ARL": 2541.44, "SDP": null, "SAG": "Dirección Provincial de Estadística - Ministerio de Economía - PBA", "COD_PART": "351", "partido": "General Pinto"}, "geometry": {"type": "MultiPolygon", "coordinates": [[[[-61.92452822936086, -34.56980739012527], [-61.916626974988624, -34.576624545029524], [-61.91654723464593, -34.57657760150733], [-61.91641655666587, -34.5765006716623], [-61.91622977735407, -34.57640186218843], [-61.91624937922639, -34.57658596316539], [-61.91620750021504, -34.57677103058874], [-61.9072598722305, -34.584561037728406], [-61.907110365163476, -34.58474778382386], [-61.90709280285323, -34.58488353846944], [-61.902978521164265, -34.58849730143797], [-61.89857234360031, -34.59248465611388], [-61.89664888977434, -34.594105738586435], [-61.89626373126383, -34.59443033770976], [-61.89208991981732, -34.597947659956866], [-61.84607688600063, -34.63769001720366], [-61.81310293811385, -34.611199549765615], [-61.78573800487076, -34.58917021365787], [-61.77001223595445, -34.5763223975552], [-61.72097023722761, -34.61810405072955], [-61.71076586686697, -34.62686171339924], [-61.772595283109496, -34.67624789176866], [-61.76460595012967, -34.68321646649835], [-61.67930018623496, -34.75596104152563], [-61.67338121885664, -34.76097941878871], [-61.734638126214264, -34.8097926872633], [-61.74503011053727, -34.817930550919954], [-61.741009183067206, -34.82123448765602], [-61.7857669050256, -34.85724516265202], [-61.791535597544915, -34.8617982681925], [-61.79189865689256, -34.86186445408102], [-61.86283820947408, -34.919207512947764], [-61.88766733328866, -34.939509116252445], [-61.903434387656304, -34.95204383432477], [-61.939886597473375, -34.9221380142987], [-61.94384697123043, -34.91892079985734], [-61.98357108237714, -34.8853914584507], [-62.00380587937488, -34.901798324486606], [-62.0242102199498, -34.918294188843845], [-62.0377113002927, -34.92934920951803], [-62.0378391078705, -34.929247825423], [-62.05067452620215, -34.939713946245284], [-62.050872430609594, -34.939909305281276], [-62.05099374505514, -34.9401298012998], [-62.051066228336346, -34.940327277310935], [-62.05120565249732, -34.940499778829185], [-62.06436173366384, -34.95115771025927], [-62.10486948875055, -34.984239201932986], [-62.1551006107929, -34.94248329695585], [-62.16509564274834, -34.93419198924235], [-62.1699155144115, -34.93006882377066], [-62.1848193178968, -34.91755005087933], [-62.181908934051314, -34.915208481641095], [-62.206433438793006, -34.889405896875125], [-62.22089027246656, -34.88991854505023], [-62.222499909455635, -34.854955695324925], [-62.25280407983601, -34.856043041262424], [-62.283029419151944, -34.85706269116591], [-62.28402632333652, -34.835614760694405], [-62.28521495134625, -34.81375206189559], [-62.30479336273646, -34.81294548562223], [-62.302510266177144, -34.811329699864544], [-62.273797096548314, -34.78834500831705], [-62.262453608191976, -34.77936085855161], [-62.24025855561756, -34.76183369405598], [-62.262632730522476, -34.7422546649437], [-62.18812568578503, -34.68275795210402], [-62.21906981822575, -34.677296127428406], [-62.33450164473249, -34.656524720949015], [-62.34782443057553, -34.654119620255806], [-62.34213033064852, -34.632593013159116], [-62.33469471596991, -34.604353844830726], [-62.333883687546184, -34.60113458320457], [-62.325415408386874, -34.568982319808036], [-62.3162200606111, -34.569455816338824], [-62.31016783275382, -34.546332897092], [-62.29995391228703, -34.506631339072584], [-62.27481356765402, -34.409343299237435], [-62.2686119770524, -34.3857195400563], [-62.21291232034202, -34.38572854461199], [-62.198299883822195, -34.385682061477006], [-62.1882946474957, -34.385837631418205], [-62.1328709706522, -34.38591053247411], [-62.08842482651153, -34.38586011804415], [-62.03702288892187, -34.385699180190706], [-61.996274119163154, -34.38569327409979], [-61.89145349538031, -34.3857087461412], [-61.818046797292, -34.38572477911212], [-61.86880264990194, -34.425860289529325], [-61.86897756194521, -34.42612940738627], [-61.871829419107605, -34.4284024217589], [-61.873315734385166, -34.42966729579232], [-61.87452738181046, -34.43057079832561], [-61.886965030067614, -34.44040857094863], [-61.88990961305828, -34.44271197327933], [-61.9051287126824, -34.454717059806434], [-61.90620100984479, -34.455622403683705], [-61.91275410360564, -34.46081419097678], [-61.91902394519222, -34.4657752546705], [-61.92875979869365, -34.47346900303662], [-61.92901711081028, -34.47357195930399], [-61.929365079170516, -34.47378473525353], [-61.9293656744034, -34.473785205333215], [-61.9847292925888, -34.517460342962174], [-61.96426915596547, -34.5352094674579], [-61.9595488449975, -34.539311913013655], [-61.94572874228583, -34.551440134746315], [-61.93844385456983, -34.55763946393854], [-61.93534094212841, -34.56043819918235], [-61.92452822936086, -34.56980739012527]]]]}}, {"type": "Feature", "properties": {"PARTIDO": "General Viamonte", "CABECERA": "LOS TOLDOS", "FNA": "Partido de GENERAL VIAMONTE", "GNA": "Partido", "NAM": "GENERAL VIAMONTE", "CDE": "0385", "CCA": "049", "ARA": 2147.05616879, "ARL": 2145.28, "SDP": null, "SAG": "Dirección Provincial de Estadística - Ministerio de Economía - PBA", "COD_PART": "385", "partido": "General Viamonte"}, "geometry": {"type": "MultiPolygon", "coordinates": [[[[-60.91868598734725, -34.79909864152519], [-60.904061119947706, -34.81115168157831], [-60.894322955678014, -34.802650764348606], [-60.880860093680056, -34.79095803355107], [-60.86765717830481, -34.779433621819], [-60.84894024238049, -34.76306049648855], [-60.847404305120634, -34.76431448381427], [-60.838683720214846, -34.77109681837959], [-60.83857601983447, -34.771116639860125], [-60.81567455389436, -34.78891194584457], [-60.7868748420035, -34.812196951948465], [-60.786774944325046, -34.81233473050273], [-60.78429319300617, -34.8143958119853], [-60.78406232091209, -34.81444499830862], [-60.77371706270949, -34.8226735141206], [-60.75627000268525, -34.836014695248046], [-60.73505129850947, -34.85230722748968], [-60.72425812489815, -34.860208694508884], [-60.74098231473072, -34.87479890833676], [-60.74149106674883, -34.87505814489055], [-60.76124423517747, -34.892250285112596], [-60.76367685785312, -34.89440709266985], [-60.76398195415517, -34.894427272569565], [-60.77976573940736, -34.90856428438405], [-60.78821998756499, -34.91581975250252], [-60.802814091927054, -34.928561461724605], [-60.80763309250595, -34.93275072632321], [-60.83469564020375, -34.956312997271226], [-60.84098604973577, -34.961866034376406], [-60.847942593173116, -34.96781946806483], [-60.83633046899262, -34.976862943104294], [-60.81987046515242, -34.98967445765389], [-60.81949038747351, -34.990147669853776], [-60.81707407604265, -34.992053297886066], [-60.786210694120804, -35.01612400613371], [-60.7860623279289, -35.0161708784309], [-60.754605927083084, -35.04061184572561], [-60.75853505830169, -35.044069191269], [-60.77831210606658, -35.06132925913879], [-60.83834889663899, -35.11352601616874], [-60.84499330326798, -35.11927255345265], [-60.86080181146395, -35.13295961535763], [-60.87280133705339, -35.14348149957901], [-60.86931379614777, -35.14628695580615], [-60.87883004767765, -35.15458911696252], [-60.889498810111036, -35.16371323105311], [-60.88959096960867, -35.163642601793626], [-60.89238957596018, -35.166044925804826], [-60.90460983170591, -35.176517122923265], [-60.911445827449405, -35.18248814312423], [-60.91824287959961, -35.18835095086525], [-60.92102818826575, -35.190797206407545], [-60.94601531063754, -35.213224502317345], [-60.96285127882456, -35.22815044950323], [-60.96621104126789, -35.231099794726866], [-60.96899717116342, -35.23376093656635], [-60.984833920492115, -35.24730160816874], [-60.98669949729084, -35.24580471803263], [-60.99066947986269, -35.24270715106812], [-60.99963039717951, -35.23563933451232], [-61.00583094793867, -35.23074762737224], [-61.018893084913245, -35.22043822132444], [-61.02104586498686, -35.21871281079069], [-61.021001864582544, -35.21865895414087], [-61.025820850366806, -35.21488536256159], [-61.039433830958174, -35.2044228267312], [-61.049260719080166, -35.19680240887692], [-61.0582667399716, -35.19023658302543], [-61.05829430008319, -35.1902153499218], [-61.06200131691001, -35.1870253482379], [-61.072582348358836, -35.19585404518372], [-61.08106044420747, -35.20309170784101], [-61.09437529780755, -35.214393145309764], [-61.099995022909454, -35.21913065227573], [-61.10730139561388, -35.22532779068387], [-61.11502943232317, -35.23167320683314], [-61.1551012738866, -35.26523089400273], [-61.18279298789408, -35.24292860094126], [-61.194698407670735, -35.23337480906533], [-61.205935772044995, -35.224424269905256], [-61.214228855924894, -35.217734298283], [-61.225988993057754, -35.208280666357005], [-61.22638570786342, -35.20786966775735], [-61.23664924814497, -35.199530281250205], [-61.2377686751827, -35.1987621147709], [-61.248505622365236, -35.19012437806031], [-61.25731962224021, -35.183006419334184], [-61.257591755897785, -35.18257117712327], [-61.2638951596708, -35.17747553843069], [-61.27741015330919, -35.166580575177846], [-61.300258952252186, -35.185682085429384], [-61.31032322943758, -35.17763754581055], [-61.325642417212016, -35.165210645809616], [-61.351437469767234, -35.144176136908214], [-61.35400959521461, -35.14195980421657], [-61.355998544949166, -35.140513251451964], [-61.369433056031475, -35.129609059688924], [-61.37273282974738, -35.126983603522945], [-61.38131681675447, -35.12012006928442], [-61.38137721814437, -35.120030354555205], [-61.421110157896486, -35.08769301937965], [-61.42011230017169, -35.08680809109743], [-61.409102254575906, -35.07773503961512], [-61.408821211130196, -35.077585688208195], [-61.40797483360481, -35.077398388713085], [-61.40806838244562, -35.07699032456948], [-61.40799659350667, -35.07686397783712], [-61.39026270535112, -35.06225610791475], [-61.34035860226195, -35.021277442125296], [-61.329325335423846, -35.01213365260857], [-61.31399768304561, -34.99954404554612], [-61.30832785318705, -34.994854967476336], [-61.292684907492074, -34.981947995995554], [-61.28214894698441, -34.9732203705315], [-61.27350914264484, -34.96607445800301], [-61.25964385183561, -34.95454343743756], [-61.24639417011526, -34.94362766699821], [-61.24624639787757, -34.943559231079114], [-61.23680085428133, -34.93582109088199], [-61.23328194309833, -34.93293336329015], [-61.223705232930484, -34.92503651314439], [-61.21306026522934, -34.916297392479], [-61.20644914432992, -34.91085599671098], [-61.19962093310678, -34.90528918211969], [-61.199304804470565, -34.90478355088562], [-61.19738330791649, -34.90323172953194], [-61.19639305263982, -34.902548308485834], [-61.19116657835596, -34.89823074003581], [-61.18089530750627, -34.88977120331281], [-61.17970464821411, -34.89070488040666], [-61.16406668594707, -34.87738731054081], [-61.16344772883179, -34.87672549379989], [-61.15442011796294, -34.86907209643305], [-61.15425712419229, -34.869003690123655], [-61.13911852949195, -34.856160412845256], [-61.12810547081396, -34.84683194347505], [-61.14078852254503, -34.83660729873725], [-61.146442450539695, -34.83216292610528], [-61.152833973403574, -34.82702127732053], [-61.16361755370484, -34.81839051587785], [-61.18344200714188, -34.80211612376329], [-61.17673359575861, -34.79662932667254], [-61.17017476649101, -34.791299695388695], [-61.158892971873364, -34.782211752748765], [-61.15539096484684, -34.77926241758825], [-61.15186746852342, -34.77638747052042], [-61.13579191900978, -34.763200798371514], [-61.11805436843214, -34.74850258940957], [-61.11678459113035, -34.7474712654811], [-61.05468840175292, -34.69641105043447], [-61.054624559052925, -34.696105012218], [-61.05452438885096, -34.696099519018276], [-61.05434649906276, -34.69603746184572], [-61.05415232527951, -34.69590558780595], [-61.04880198024807, -34.69154129751064], [-61.02794953946992, -34.70883299590038], [-61.01299435881327, -34.72121155345313], [-61.001227932415446, -34.73095227960506], [-60.99303811942435, -34.73773189578622], [-60.99207627057502, -34.7384981771955], [-60.99110945453515, -34.73927736582467], [-60.99023594909034, -34.74002444288932], [-60.98930941626936, -34.74081684917686], [-60.987256862686856, -34.74257219639189], [-60.98256929984993, -34.7429816629421], [-60.982460445803966, -34.74300861611298], [-60.982377359531704, -34.74306771618093], [-60.9823205832612, -34.74315283758823], [-60.982296512937204, -34.74325984735638], [-60.98235469007853, -34.74374963400868], [-60.982399289825466, -34.74412511232417], [-60.982411663614606, -34.744229283524085], [-60.98230133234463, -34.74427798332546], [-60.9825456230242, -34.74625425916152], [-60.982475680119165, -34.74631139912173], [-60.98041386740318, -34.748007130263574], [-60.97840829539362, -34.74965567740789], [-60.978145723361926, -34.74979513550411], [-60.977895777756835, -34.749869630555196], [-60.97748986179273, -34.74993493116589], [-60.9767818725783, -34.750004422329354], [-60.97694253672973, -34.7510771290043], [-60.976632419479785, -34.751333096545785], [-60.9706184343541, -34.75629550082367], [-60.95275617848631, -34.7710193947868], [-60.9522654623909, -34.77144111279019], [-60.950572049503805, -34.77277266819115], [-60.94857380943354, -34.77461348932501], [-60.93989946917848, -34.78178456271072], [-60.93531648623001, -34.78549577190796], [-60.933018580439885, -34.78736771726558], [-60.91868598734725, -34.79909864152519]]]]}}, {"type": "Feature", "properties": {"PARTIDO": "General Villegas", "CABECERA": "GENERAL VILLEGAS", "FNA": "Partido de GENERAL VILLEGAS", "GNA": "Partido", "NAM": "GENERAL VILLEGAS", "CDE": "0392", "CCA": "050", "ARA": 7252.87051907, "ARL": 7232.8, "SDP": null, "SAG": "Dirección Provincial de Estadística - Ministerio de Economía - PBA", "COD_PART": "392", "partido": "General Villegas"}, "geometry": {"type": "MultiPolygon", "coordinates": [[[[-62.2686119770524, -34.3857195400563], [-62.27481356765402, -34.409343299237435], [-62.29995391228703, -34.506631339072584], [-62.31016783275382, -34.546332897092], [-62.3162200606111, -34.569455816338824], [-62.325415408386874, -34.568982319808036], [-62.333883687546184, -34.60113458320457], [-62.33469471596991, -34.604353844830726], [-62.34213033064852, -34.632593013159116], [-62.34782443057553, -34.654119620255806], [-62.402048836330806, -34.64423043827486], [-62.47373218841138, -34.63105080051806], [-62.47381628923511, -34.63103456923246], [-62.47466699188577, -34.63087038930368], [-62.47621952670111, -34.63057074280526], [-62.47852247075138, -34.630126224108245], [-62.4806585089073, -34.62971387827298], [-62.48277767398554, -34.62930475062175], [-62.48776543224986, -34.62834164838107], [-62.53629508499166, -34.61944347323498], [-62.54089581967849, -34.6187450917464], [-62.55195304697692, -34.61670018798014], [-62.58379596142661, -34.61082338588792], [-62.5940879771704, -34.64992646481284], [-62.608664946834665, -34.6360787718045], [-62.62164205547372, -34.63230751862249], [-62.62036057086422, -34.66501303435801], [-62.618233748010844, -34.71565051439196], [-62.61752380594284, -34.73218046849545], [-62.61689212152965, -34.74819902018972], [-62.61617365138202, -34.76112852978586], [-62.61433372856378, -34.806437129893006], [-62.613035742054464, -34.83453627858322], [-62.6119375063998, -34.86077347370775], [-62.61099523341161, -34.88370505494716], [-62.606211426037234, -34.99676578810967], [-62.64142134638315, -34.99705325279264], [-62.61086137434288, -35.02226460361036], [-62.68623967822482, -35.08374663607587], [-62.687111353613226, -35.08423992534033], [-62.69103591857039, -35.087366927178934], [-62.68308511660765, -35.09386075846581], [-62.68235586610605, -35.09329282879575], [-62.67632930444552, -35.09837287154501], [-62.676250108854724, -35.09830872295147], [-62.65935673717779, -35.112375410557874], [-62.67705174590038, -35.12692130035129], [-62.707847944923664, -35.10133619496559], [-62.707936913969164, -35.10140844543484], [-62.74668943065138, -35.132859505234435], [-62.74567315072945, -35.133705007009276], [-62.76929711119354, -35.153036988993215], [-62.78543989220256, -35.16630510346654], [-62.801446580303036, -35.179354417503], [-62.81847835779708, -35.19329793288234], [-62.81948839594286, -35.1939538035965], [-62.82361688012477, -35.1973595943393], [-62.83305757049909, -35.20503168102876], [-62.849613763291906, -35.21856089306762], [-62.89950202163358, -35.259263387503964], [-62.964773649766094, -35.31266085008683], [-62.9648347906544, -35.31241141191293], [-62.99452298457544, -35.28779636049328], [-63.01473832810146, -35.271222904584306], [-63.039501641053505, -35.250792716874585], [-63.08720304018644, -35.21124496318738], [-63.11438130145202, -35.18873385638144], [-63.09017532200531, -35.16906947524336], [-63.114521605922235, -35.149020999997376], [-63.13891868154852, -35.12876747229831], [-63.23627808269927, -35.208172089641224], [-63.23041533647421, -35.21303179631979], [-63.21142289653006, -35.22874919912682], [-63.26704473866764, -35.27387107936125], [-63.28493416563488, -35.28836873653545], [-63.309675646920326, -35.2677611880475], [-63.31140110733553, -35.26909633923126], [-63.311463769754006, -35.27170452429338], [-63.34685769602368, -35.300278601058416], [-63.34646016205416, -35.30086163907724], [-63.334185510009604, -35.31675598586266], [-63.328776422676775, -35.32369880616077], [-63.38563517358524, -35.36977154793903], [-63.38562085052452, -35.30323347997057], [-63.38571358863347, -35.28384187338719], [-63.385685632055676, -35.20994315942453], [-63.38569899869519, -35.16070537167367], [-63.38570886516175, -35.129148238743845], [-63.38573017210752, -35.08553043870247], [-63.385687662323335, -35.0711831898719], [-63.385700436436316, -35.047646105684635], [-63.385879264255344, -35.0474146794211], [-63.385756920413876, -35.033927653313036], [-63.38577386872349, -35.024897701976094], [-63.38595866774248, -35.02487005244085], [-63.38591686466043, -35.02188091685253], [-63.38584437621671, -35.01669553952965], [-63.385859317602595, -35.013968423704824], [-63.38585678047316, -35.011344932457185], [-63.385854379921994, -35.00885480880825], [-63.38585431885365, -35.00879164897422], [-63.385789025906156, -35.0085816793298], [-63.38570735957051, -35.0083190569039], [-63.38570679472295, -35.00831221187453], [-63.38568964762568, -35.00810449200402], [-63.385661034001714, -35.00775784936525], [-63.38561351828162, -35.0047949680937], [-63.385573855495984, -35.002321148569976], [-63.38547669034759, -34.81860352016047], [-63.385746913485164, -34.727852246100774], [-63.386480271233324, -34.70529653522542], [-63.387287379474905, -34.68278548090424], [-63.388810993900414, -34.646529191705014], [-63.39052393644468, -34.59272898382314], [-63.39147574641576, -34.56546052579293], [-63.39277086768388, -34.52919225023074], [-63.38410881952305, -34.52973184522288], [-63.38470286467312, -34.46301072317613], [-63.38519420538067, -34.41736648579258], [-63.385085574844986, -34.38566715600358], [-63.36119278489766, -34.38547161465905], [-63.29231282008575, -34.38573808731813], [-63.253154283682996, -34.38581393826282], [-63.25316645493413, -34.38612827018128], [-63.230825253676706, -34.38628218600836], [-63.17489677138172, -34.386069370468896], [-63.116879289268944, -34.386202005226984], [-63.058624319381735, -34.38676141295239], [-62.998097697090294, -34.386140356211904], [-62.89072638794551, -34.386277517985], [-62.889341788742136, -34.38698970026823], [-62.88847326277795, -34.38640228906391], [-62.814558152055916, -34.38640341347813], [-62.754580312849, -34.38615604617298], [-62.70698154655823, -34.38612923818723], [-62.59094148326376, -34.38616811271725], [-62.47526217089825, -34.38607300692115], [-62.29951510411904, -34.385890707717735], [-62.2686119770524, -34.3857195400563]]]]}}, {"type": "Feature", "properties": {"PARTIDO": "Junín", "CABECERA": "JUNIN", "FNA": "Partido de JUNIN", "GNA": "Partido", "NAM": "JUNIN", "CDE": "0413", "CCA": "054", "ARA": 2253.70839093, "ARL": 2253.2, "SDP": null, "SAG": "Dirección Provincial de Estadística - Ministerio de Economía - PBA", "COD_PART": "413", "partido": "Junín"}, "geometry": {"type": "MultiPolygon", "coordinates": [[[[-61.04160242194639, -34.28327517283709], [-61.00073884407414, -34.31713049440492], [-60.9836160148663, -34.33136429685049], [-60.96631354407457, -34.34557276707693], [-60.957181203064636, -34.33801061070154], [-60.95276215480338, -34.33438163391393], [-60.952446975657, -34.334307764046365], [-60.95219140170074, -34.33408078602102], [-60.952074037461294, -34.33387181448276], [-60.95185780275124, -34.333733571936136], [-60.951627888401816, -34.33374171953787], [-60.951261848016486, -34.33391628745263], [-60.950865573107414, -34.334129250490776], [-60.95066131024369, -34.33437252160829], [-60.95045676036711, -34.33459035517339], [-60.950120160767156, -34.33465656926595], [-60.94971384722464, -34.334659721416735], [-60.949430982512816, -34.33473187646218], [-60.949279446922944, -34.33489205487426], [-60.94928181129877, -34.33510192163196], [-60.94914539349772, -34.33524290196307], [-60.94875960725469, -34.335390996999564], [-60.947678738611934, -34.3358059081154], [-60.946713780624364, -34.335821420886745], [-60.94636729171998, -34.335690536227176], [-60.945807787942755, -34.33570757955039], [-60.94506535868647, -34.335821434118245], [-60.944865175924406, -34.335746657991976], [-60.944450406574454, -34.335679895646344], [-60.94396820680827, -34.33575357641503], [-60.94350587806577, -34.33590100468399], [-60.94313463247191, -34.3359444439138], [-60.94277740429534, -34.33607749862939], [-60.94233817640594, -34.3360268981292], [-60.94187783478982, -34.33599863922756], [-60.941303776367874, -34.33608573539132], [-60.940897169743884, -34.336063420231746], [-60.94048098194088, -34.33586945350821], [-60.940262986332186, -34.3355722002908], [-60.940099082645695, -34.33531269191335], [-60.93983679355874, -34.33516842196712], [-60.939537450940534, -34.335138918335346], [-60.93926011958094, -34.33523455034918], [-60.9386525451464, -34.33554003544263], [-60.93802432456072, -34.33558301033047], [-60.93689089847112, -34.33569981106567], [-60.93636382393813, -34.33587556679475], [-60.935904685508746, -34.33595539915214], [-60.93514620065896, -34.33600571547052], [-60.93403519997777, -34.33607143690552], [-60.93331617232557, -34.33622320333048], [-60.93295427415977, -34.336347150678165], [-60.93247433748056, -34.33636318067459], [-60.93213194928272, -34.33660111349559], [-60.93187220153837, -34.336685773239324], [-60.931603873207195, -34.33668781512192], [-60.93101350114845, -34.33695717331467], [-60.93081461282381, -34.33700608666939], [-60.9305259138923, -34.336969498485665], [-60.9303008459044, -34.33672316271897], [-60.929905780902565, -34.336357274501104], [-60.92964322586982, -34.33618754424051], [-60.92947259949987, -34.3360107550519], [-60.92919548405133, -34.33591109586571], [-60.92857506182828, -34.33596668333993], [-60.92825435290802, -34.336017588139406], [-60.92790779882283, -34.335946301468276], [-60.92756245860731, -34.335917117117766], [-60.92707383372738, -34.33610526194103], [-60.92675244573089, -34.33619444574389], [-60.92646895104282, -34.33617980275706], [-60.9262225750287, -34.33608626387164], [-60.92603641239124, -34.33589050749857], [-60.92592537787148, -34.335554257806095], [-60.925185909581, -34.33524183968463], [-60.92490057727798, -34.33509135106546], [-60.924255763036854, -34.335019897922315], [-60.92399594207597, -34.335098181000205], [-60.92360614108481, -34.335209245010944], [-60.9231748474528, -34.33516147247256], [-60.92249172771838, -34.33496323918314], [-60.9221691130322, -34.33490842793038], [-60.92150297195726, -34.33498976517856], [-60.920773414041584, -34.33488077076871], [-60.92021050447969, -34.33458607438235], [-60.92000094303753, -34.33435232294178], [-60.91984525632795, -34.33413724628421], [-60.91962133628379, -34.333992644417236], [-60.91920541312584, -34.33381768265897], [-60.918714632474526, -34.3338086457398], [-60.91842896971829, -34.33362634425051], [-60.918312311770215, -34.333474574808626], [-60.917374051456925, -34.33320812000467], [-60.917159812093125, -34.333247886444624], [-60.91682353545976, -34.33334580685349], [-60.91634208300893, -34.33348933497766], [-60.91608895778157, -34.33347850877392], [-60.915827199297084, -34.33337870418094], [-60.91569466112733, -34.33317616918615], [-60.91564583088292, -34.3329157675703], [-60.915459837797464, -34.33273271369326], [-60.915282755521275, -34.33266407491024], [-60.913637639166886, -34.33225658980481], [-60.91337685232487, -34.33224581512177], [-60.91291031873744, -34.332351056909445], [-60.91271065374902, -34.3323207443163], [-60.91256386354094, -34.332258960195546], [-60.9124237004494, -34.33201759382901], [-60.91225428867069, -34.3319488943684], [-60.91147227249257, -34.33179950064837], [-60.9111112564665, -34.33164754343312], [-60.91088325432422, -34.33136124472646], [-60.91055696726108, -34.331248809879945], [-60.91008127760566, -34.33121399892875], [-60.90838998299632, -34.33050206101064], [-60.907872865350974, -34.330181526883585], [-60.90763309737419, -34.32998613837701], [-60.9072797101073, -34.32991879544097], [-60.906856849822624, -34.32980744471178], [-60.90631683979503, -34.32955457695923], [-60.90613556234007, -34.32946969113065], [-60.905947619121974, -34.32938168217201], [-60.905713267751594, -34.32897636441714], [-60.905558582903026, -34.32885030419236], [-60.90524441941005, -34.32886534727393], [-60.90486112654085, -34.328868180145854], [-60.904661267638296, -34.32881877583103], [-60.90447626276985, -34.328724739269745], [-60.90442863017495, -34.328572447255844], [-60.90460871885519, -34.328208586020864], [-60.90466670091506, -34.32789650853354], [-60.90456853425652, -34.32771850124114], [-60.904257071390326, -34.3275878848625], [-60.903843120424355, -34.32759094088191], [-60.90341334526835, -34.32766917351066], [-60.90318454695911, -34.32765940209687], [-60.902822075953175, -34.327458549194446], [-60.902435384578425, -34.3271433896421], [-60.902206748265115, -34.32692183939356], [-60.90194234631995, -34.32682715427564], [-60.90170754319482, -34.32674306884549], [-60.88926989390235, -34.33636021692906], [-60.87096750859572, -34.35036971009246], [-60.84947729835619, -34.36677735852222], [-60.84911594375213, -34.36705638122053], [-60.849052108671664, -34.36720644074166], [-60.83864625856119, -34.37513937051778], [-60.83201486578272, -34.380177375036716], [-60.82776572286484, -34.383367199631124], [-60.82735620408769, -34.38355451929411], [-60.81315305446545, -34.39433482787094], [-60.80392133311023, -34.40137930686164], [-60.77990995565545, -34.41966113104522], [-60.76692156364206, -34.42946796025657], [-60.75335113482148, -34.43976673571795], [-60.75929082063585, -34.44490901847649], [-60.73856601621704, -34.46135611919957], [-60.7257132111374, -34.47151207661133], [-60.721067574398084, -34.475145772658685], [-60.71817636036121, -34.47742064583426], [-60.715009973799575, -34.479868785346994], [-60.70798261398313, -34.485347616721235], [-60.70805238351471, -34.485423534275704], [-60.70261109130702, -34.48962083012178], [-60.695284424651476, -34.495329618180236], [-60.69149352027123, -34.498237908691145], [-60.68448916143343, -34.50381960314045], [-60.67693412978667, -34.50972346975159], [-60.664204152551136, -34.519594713630546], [-60.657467263486424, -34.52474469989419], [-60.64751818938969, -34.53267627442649], [-60.66499621755448, -34.54795282634558], [-60.68732828898488, -34.56739115025758], [-60.69693792524113, -34.57580358942222], [-60.70224786935847, -34.580450937411705], [-60.70381230297562, -34.58027777887331], [-60.70366750112531, -34.58117263082061], [-60.703620810884786, -34.58146116188658], [-60.7048812666035, -34.5826186120344], [-60.70660101856421, -34.584073181235], [-60.75535357515459, -34.626543913251766], [-60.7594193218056, -34.630081836979045], [-60.75924170506754, -34.6303139876855], [-60.75911875496289, -34.63075359094177], [-60.75924813661166, -34.63101990403329], [-60.75927313062271, -34.63122962642497], [-60.75903494420246, -34.63168902610883], [-60.758679349005156, -34.63192973722227], [-60.75855474375931, -34.63218809103216], [-60.75838371390241, -34.63241811272655], [-60.75823671916313, -34.63275292508375], [-60.75809276196654, -34.63342161586098], [-60.75805102300572, -34.633908412066056], [-60.75776082823088, -34.63429259698874], [-60.75735282202528, -34.634551924869264], [-60.75710194801481, -34.634887380825276], [-60.757023671833615, -34.63516452463564], [-60.756818181010544, -34.63541383812995], [-60.75642348989337, -34.63569188188358], [-60.75625793577431, -34.63599924989281], [-60.75612316010108, -34.63641030257014], [-60.755893801201616, -34.63657390322735], [-60.75565264066163, -34.63670895683026], [-60.75561983292801, -34.63690949924317], [-60.7558062294369, -34.63709914284317], [-60.75613060560833, -34.637230691261195], [-60.756224930347564, -34.637449524753286], [-60.75606516506366, -34.6376508535254], [-60.75552694544852, -34.63812164633808], [-60.75496399218456, -34.63841133002933], [-60.754743903186366, -34.63859211149043], [-60.75460044433664, -34.63905275577426], [-60.75440656474021, -34.63931153383102], [-60.75396935249768, -34.639466875966185], [-60.75371715675397, -34.639659233460314], [-60.753811649612864, -34.63989714784502], [-60.75394051114792, -34.64010622993523], [-60.75374585025631, -34.64027915164747], [-60.753586073630444, -34.640480478128886], [-60.75358831735095, -34.64072850227262], [-60.75365946975434, -34.640937941223484], [-60.75351071572817, -34.641081959105954], [-60.75316436398772, -34.64107455904772], [-60.75287641311352, -34.641143116166866], [-60.752682868147964, -34.64144004874408], [-60.75229250031161, -34.64167141626727], [-60.751570754493024, -34.64186298817753], [-60.75062152442536, -34.64220273178054], [-60.750173077732725, -34.64207431729942], [-60.74968209953685, -34.64202963671273], [-60.749266158361074, -34.642306466545165], [-60.74854829721358, -34.64270439690386], [-60.74752377375797, -34.643122291822294], [-60.74740208145677, -34.64360579635035], [-60.747129764180556, -34.643810188340495], [-60.746350960934684, -34.643850732475734], [-60.745861790331894, -34.64400874880858], [-60.74501585612163, -34.6446101659346], [-60.744874666198996, -34.644956850410246], [-60.745025135808106, -34.64564757687328], [-60.74519345280823, -34.64671979006144], [-60.745153580247006, -34.64710163066697], [-60.7448099550967, -34.6474018528843], [-60.74417711132326, -34.647632290210474], [-60.743714429049035, -34.64752778856446], [-60.743353388027074, -34.64749421490701], [-60.743038400408786, -34.647770408115534], [-60.743142488099785, -34.648115595654716], [-60.7432461509964, -34.648413086731125], [-60.74324913084313, -34.64874696653556], [-60.743018797717745, -34.64880799483363], [-60.74274443312305, -34.64878581596564], [-60.74210849032155, -34.6486704387698], [-60.74177502913969, -34.648493593990736], [-60.741584584190164, -34.64817277996234], [-60.741304170833295, -34.64747091556303], [-60.74085167851178, -34.6468893442875], [-60.74040258478888, -34.6466893486218], [-60.73985386980622, -34.64664497918942], [-60.739261022011746, -34.64650547600459], [-60.738927469692186, -34.64631669908653], [-60.73873672346042, -34.64596010708349], [-60.738744239344264, -34.64534645869033], [-60.73861399859796, -34.64513803140336], [-60.738251701405886, -34.64496135139759], [-60.73796397778457, -34.64505849180429], [-60.737822122746984, -34.645333623841104], [-60.737391590091235, -34.645598576030764], [-60.73687268980622, -34.645661337339945], [-60.73616421526543, -34.645498667244766], [-60.73545374175077, -34.6451094321464], [-60.734788244741665, -34.644910720536586], [-60.73416782117233, -34.64491445736914], [-60.73357615001073, -34.64490609243232], [-60.73260545877727, -34.644458781012204], [-60.73232859464394, -34.64415039591535], [-60.732080692382105, -34.64385376105181], [-60.731559284988194, -34.643630317052704], [-60.7310549258582, -34.6437048910917], [-60.73013089056407, -34.64363887761943], [-60.729467505040255, -34.643678621962], [-60.7281993981425, -34.64378591590473], [-60.72756506055701, -34.64392848602269], [-60.72702042876382, -34.64434910707128], [-60.72617036374832, -34.64459133132803], [-60.7253338669611, -34.644538024492626], [-60.724597499530475, -34.644482777490424], [-60.72337440019653, -34.64487163672198], [-60.72180366052838, -34.645107518255365], [-60.72115398833154, -34.64510954205325], [-60.72010266555836, -34.64534232890341], [-60.71917024329446, -34.64576933472584], [-60.71790198142225, -34.64615427534559], [-60.71722691293185, -34.6465159960339], [-60.715848283474784, -34.64659860210428], [-60.74251449036486, -34.67016821226205], [-60.76618984622153, -34.69100939869826], [-60.77595807341508, -34.69967653855102], [-60.78788765465636, -34.710223017054005], [-60.78801911678776, -34.710279405536404], [-60.7954691416583, -34.71673428696128], [-60.76457820207832, -34.74102145987674], [-60.768845170231934, -34.744727029417405], [-60.76669429656613, -34.746469670376825], [-60.78597322250731, -34.763213051193034], [-60.78639189936872, -34.76317457437835], [-60.786471234006115, -34.763628147304004], [-60.80871155524639, -34.78283015034175], [-60.80878210484236, -34.78295051755409], [-60.81567455389436, -34.78891194584457], [-60.83857601983447, -34.771116639860125], [-60.838683720214846, -34.77109681837959], [-60.847404305120634, -34.76431448381427], [-60.84894024238049, -34.76306049648855], [-60.86765717830481, -34.779433621819], [-60.880860093680056, -34.79095803355107], [-60.894322955678014, -34.802650764348606], [-60.904061119947706, -34.81115168157831], [-60.91868598734725, -34.79909864152519], [-60.933018580439885, -34.78736771726558], [-60.93531648623001, -34.78549577190796], [-60.93989946917848, -34.78178456271072], [-60.94857380943354, -34.77461348932501], [-60.950572049503805, -34.77277266819115], [-60.9522654623909, -34.77144111279019], [-60.95275617848631, -34.7710193947868], [-60.9706184343541, -34.75629550082367], [-60.976632419479785, -34.751333096545785], [-60.97694253672973, -34.7510771290043], [-60.9767818725783, -34.750004422329354], [-60.97748986179273, -34.74993493116589], [-60.977895777756835, -34.749869630555196], [-60.978145723361926, -34.74979513550411], [-60.97840829539362, -34.74965567740789], [-60.98041386740318, -34.748007130263574], [-60.982475680119165, -34.74631139912173], [-60.9825456230242, -34.74625425916152], [-60.98230133234463, -34.74427798332546], [-60.982411663614606, -34.744229283524085], [-60.982399289825466, -34.74412511232417], [-60.98235469007853, -34.74374963400868], [-60.982296512937204, -34.74325984735638], [-60.9823205832612, -34.74315283758823], [-60.982377359531704, -34.74306771618093], [-60.982460445803966, -34.74300861611298], [-60.98256929984993, -34.7429816629421], [-60.987256862686856, -34.74257219639189], [-60.98930941626936, -34.74081684917686], [-60.99023594909034, -34.74002444288932], [-60.99110945453515, -34.73927736582467], [-60.99207627057502, -34.7384981771955], [-60.99303811942435, -34.73773189578622], [-61.001227932415446, -34.73095227960506], [-61.01299435881327, -34.72121155345313], [-61.02794953946992, -34.70883299590038], [-61.04880198024807, -34.69154129751064], [-61.05415232527951, -34.69590558780595], [-61.05434649906276, -34.69603746184572], [-61.05452438885096, -34.696099519018276], [-61.054624559052925, -34.696105012218], [-61.05468840175292, -34.69641105043447], [-61.11678459113035, -34.7474712654811], [-61.11805436843214, -34.74850258940957], [-61.13579191900978, -34.763200798371514], [-61.15186746852342, -34.77638747052042], [-61.17626346413148, -34.75593030207396], [-61.189040693239214, -34.74538806109052], [-61.207750146075554, -34.729705717754086], [-61.21667743195656, -34.722309741625864], [-61.2222247974691, -34.717713484158764], [-61.22208985927856, -34.71760479179623], [-61.22357511466089, -34.71631354541341], [-61.21779177541684, -34.71163362091161], [-61.20557757017214, -34.70177934141058], [-61.215900390545556, -34.69315853792597], [-61.22711878474945, -34.68392172239178], [-61.22722767774947, -34.68399694108257], [-61.246103177442244, -34.66845338250644], [-61.24857456084542, -34.66643754326904], [-61.26113368961671, -34.656107488870866], [-61.27232899428134, -34.64687152747845], [-61.28236948863471, -34.63859371645557], [-61.33924928253129, -34.59179091471133], [-61.275840502276296, -34.54065383991509], [-61.29965099617309, -34.5208145014367], [-61.30840099071534, -34.513458716123225], [-61.34254810330353, -34.484515952906996], [-61.35523514406449, -34.47366197091894], [-61.35001627808718, -34.46946324871135], [-61.32952112663124, -34.45296796430029], [-61.32063403317721, -34.445865078891444], [-61.3201280252519, -34.44541900197579], [-61.319580945612486, -34.44480165351107], [-61.2996376610012, -34.428767938466784], [-61.29122980662101, -34.422302654558436], [-61.26924700953136, -34.40492543162388], [-61.266522945737165, -34.40441326882419], [-61.264840514418715, -34.40571065336071], [-61.26239372082056, -34.40499678869954], [-61.26094978500318, -34.40588603244976], [-61.255768097139565, -34.40391628137232], [-61.25397751942871, -34.40347356175249], [-61.25337513273792, -34.40295504895515], [-61.252767775980374, -34.402102691586414], [-61.25186090971209, -34.40174628391145], [-61.2508252391178, -34.40175687840587], [-61.25007630876204, -34.40170093635189], [-61.24913204350701, -34.401408489171885], [-61.24846148648393, -34.40146303378132], [-61.24762280007902, -34.401821381972006], [-61.24691317248904, -34.401828617536836], [-61.24604539804542, -34.401519467896605], [-61.24509620217483, -34.4008931476848], [-61.244635437080476, -34.40086603726477], [-61.2439639394919, -34.40085696795549], [-61.24304076349146, -34.400691456518445], [-61.24208275814159, -34.40076478642584], [-61.24053466125693, -34.40114618712543], [-61.23786434773274, -34.40217491545267], [-61.23570034899476, -34.40372316113913], [-61.23504389591565, -34.40526246675907], [-61.234562123979885, -34.40720077599322], [-61.23198010960682, -34.411233561884586], [-61.23135659897751, -34.41453102092596], [-61.23183142376936, -34.415512016949165], [-61.232565951829265, -34.41588620742466], [-61.23291893636932, -34.416407336580974], [-61.23174505666909, -34.41745555064335], [-61.23135917702515, -34.41863309817829], [-61.23053786406838, -34.42150329533761], [-61.22980971887228, -34.42287798698797], [-61.22972499821868, -34.424349006084846], [-61.230794892977066, -34.426839608095094], [-61.23114530533393, -34.428481122214045], [-61.23026370724352, -34.431419520268854], [-61.23024678277502, -34.43306523225042], [-61.22989644882995, -34.43403863084468], [-61.22964390475045, -34.435138242173366], [-61.22900086226263, -34.43578069061073], [-61.2277807496276, -34.4364472029849], [-61.22615632810926, -34.43695926953154], [-61.224259281508026, -34.43742897514363], [-61.22429313957121, -34.4366705977968], [-61.22443898522525, -34.43614445137063], [-61.224543902719226, -34.435443818402526], [-61.22275206929593, -34.433633297049774], [-61.22217971329965, -34.43386161376645], [-61.22089498354971, -34.43426267116333], [-61.22013067127549, -34.43415237025185], [-61.21874994939836, -34.432894171560775], [-61.21712538067179, -34.43201997550965], [-61.215361396401406, -34.432117018708844], [-61.21472709954409, -34.43204382405692], [-61.21458474495116, -34.4314887508204], [-61.214069352499216, -34.43034909663697], [-61.21361405934166, -34.42938373833818], [-61.212031333005385, -34.4274119823409], [-61.21030093242594, -34.425839157089484], [-61.20930327180781, -34.42451345620042], [-61.208142618725496, -34.42519271376471], [-61.20661332091769, -34.42558940433882], [-61.20588406731147, -34.42558069797145], [-61.20510624027056, -34.42447687751229], [-61.2049328550667, -34.423475419353444], [-61.20454092915664, -34.42424246382144], [-61.2036705163182, -34.42509371627177], [-61.202928004291394, -34.425498513907186], [-61.20201236567271, -34.42587321037678], [-61.20040887819571, -34.42510987682533], [-61.198246117303874, -34.42414530821509], [-61.19659707824808, -34.422873580745986], [-61.195033506175214, -34.42012292331075], [-61.19428211639981, -34.41720471904199], [-61.19398191780867, -34.41498169190317], [-61.194297595536874, -34.41289574798306], [-61.195544106149306, -34.41016471924129], [-61.19671142340126, -34.40457250155335], [-61.19726078110293, -34.40273865735201], [-61.1965524302632, -34.401489509339655], [-61.19630932502566, -34.39923412441118], [-61.19630570127166, -34.39702349643642], [-61.19622373319176, -34.395307124914865], [-61.19661493009136, -34.39449241196378], [-61.196542916255275, -34.39347553221581], [-61.195216916858456, -34.391946216817594], [-61.194181329384584, -34.39060484898947], [-61.1939678883491, -34.38908055492365], [-61.19421107237769, -34.38729740648388], [-61.1950099209646, -34.38682851307254], [-61.1958962758969, -34.38577046774694], [-61.19627657979015, -34.38419267258668], [-61.19621966120864, -34.382956824963614], [-61.19618479892864, -34.38134719915506], [-61.19677382712058, -34.38012124485058], [-61.19773565593144, -34.37898294865257], [-61.19863835098847, -34.377733926132805], [-61.19894640914014, -34.376474824727765], [-61.198211395944426, -34.37468534748089], [-61.19698639488482, -34.372600351253325], [-61.19588123253414, -34.37073299094984], [-61.195133477336526, -34.36871306889693], [-61.19424028104673, -34.36657531177795], [-61.19274619552501, -34.36515889729607], [-61.19002600187542, -34.36403283694188], [-61.18731078866176, -34.36320061560777], [-61.1851001074042, -34.36279274522884], [-61.18316252781834, -34.36271609248116], [-61.18174746834552, -34.36298416074871], [-61.18026062144449, -34.363602702639554], [-61.178812762537866, -34.36426855092989], [-61.1771778370454, -34.36527007941158], [-61.17642465568797, -34.36624966482842], [-61.16871693911497, -34.359659847406746], [-61.15428557237038, -34.34767879753483], [-61.15404347481756, -34.34763815025047], [-61.134359583768955, -34.33119772145527], [-61.12787067179939, -34.32581348459871], [-61.13783052152583, -34.317590517140594], [-61.098081722605535, -34.28442702813496], [-61.07037124507741, -34.30730196056499], [-61.05736413498305, -34.29639605224467], [-61.051684074405905, -34.291665318631814], [-61.04160242194639, -34.28327517283709]]]]}}, {"type": "Feature", "properties": {"PARTIDO": "Leandro N. Alem", "CABECERA": "VEDIA", "FNA": "Partido de LEANDRO N. ALEM", "GNA": "Partido", "NAM": "LEANDRO N. ALEM", "CDE": "0462", "CCA": "059", "ARA": 1603.61447796, "ARL": 1603.49, "SDP": null, "SAG": "Dirección Provincial de Estadística - Ministerio de Economía - PBA", "COD_PART": "462", "partido": "Leandro N. Alem"}, "geometry": {"type": "MultiPolygon", "coordinates": [[[[-61.5106589897197, -34.33625117527506], [-61.50988404069008, -34.336899838730815], [-61.497242947274884, -34.326761670998934], [-61.47323146170585, -34.30631724663919], [-61.44338122279406, -34.331752015843726], [-61.40567177247043, -34.36401908925476], [-61.39490890085788, -34.37330915182689], [-61.416281318089304, -34.39187779850478], [-61.37686480552152, -34.42554909791552], [-61.36919190434094, -34.419549002837734], [-61.35870698138399, -34.42837868701485], [-61.32952112663124, -34.45296796430029], [-61.35001627808718, -34.46946324871135], [-61.35523514406449, -34.47366197091894], [-61.34254810330353, -34.484515952906996], [-61.30840099071534, -34.513458716123225], [-61.29965099617309, -34.5208145014367], [-61.275840502276296, -34.54065383991509], [-61.33924928253129, -34.59179091471133], [-61.35632321584645, -34.605498444594744], [-61.39679828674795, -34.63813371344714], [-61.411064418993675, -34.64947812539294], [-61.43742337090328, -34.67046676329865], [-61.49506526273007, -34.62138752816016], [-61.516541730198924, -34.60308458261365], [-61.535084321587426, -34.61784218581814], [-61.53549102118754, -34.61820590901885], [-61.53586892358384, -34.61855232297], [-61.536462581537, -34.6191666548524], [-61.564915175512795, -34.64185165814889], [-61.57360666506561, -34.64876814320681], [-61.57490699993878, -34.64985848147917], [-61.57564231177978, -34.650447426572384], [-61.57673387418957, -34.65128030171194], [-61.57791882741099, -34.65216015742439], [-61.578503056102676, -34.652661706254385], [-61.57953158424618, -34.65352973846076], [-61.58068834626196, -34.654417961118256], [-61.581480274230465, -34.6550245229457], [-61.58179442921469, -34.65531231080847], [-61.58259698011227, -34.6559632709574], [-61.58768083858783, -34.659962021501066], [-61.59824991003185, -34.668346262818304], [-61.59823146706102, -34.66818752385515], [-61.61241450302883, -34.655968113069456], [-61.645568161721116, -34.68269867534241], [-61.658644025605845, -34.67137816891953], [-61.71076586686697, -34.62686171339924], [-61.72097023722761, -34.61810405072955], [-61.77001223595445, -34.5763223975552], [-61.78573800487076, -34.58917021365787], [-61.81310293811385, -34.611199549765615], [-61.84607688600063, -34.63769001720366], [-61.89208991981732, -34.597947659956866], [-61.89626373126383, -34.59443033770976], [-61.89664888977434, -34.594105738586435], [-61.89857234360031, -34.59248465611388], [-61.902978521164265, -34.58849730143797], [-61.90709280285323, -34.58488353846944], [-61.907110365163476, -34.58474778382386], [-61.9072598722305, -34.584561037728406], [-61.91620750021504, -34.57677103058874], [-61.91624937922639, -34.57658596316539], [-61.91622977735407, -34.57640186218843], [-61.91641655666587, -34.5765006716623], [-61.91654723464593, -34.57657760150733], [-61.916626974988624, -34.576624545029524], [-61.92452822936086, -34.56980739012527], [-61.93534094212841, -34.56043819918235], [-61.93844385456983, -34.55763946393854], [-61.94572874228583, -34.551440134746315], [-61.9595488449975, -34.539311913013655], [-61.96426915596547, -34.5352094674579], [-61.9847292925888, -34.517460342962174], [-61.9293656744034, -34.473785205333215], [-61.929365079170516, -34.47378473525353], [-61.92901711081028, -34.47357195930399], [-61.92875979869365, -34.47346900303662], [-61.91902394519222, -34.4657752546705], [-61.91275410360564, -34.46081419097678], [-61.90620100984479, -34.455622403683705], [-61.9051287126824, -34.454717059806434], [-61.88990961305828, -34.44271197327933], [-61.886965030067614, -34.44040857094863], [-61.87452738181046, -34.43057079832561], [-61.873315734385166, -34.42966729579232], [-61.871829419107605, -34.4284024217589], [-61.86897756194521, -34.42612940738627], [-61.86880264990194, -34.425860289529325], [-61.818046797292, -34.38572477911212], [-61.790431805550014, -34.38574794125202], [-61.76719129834646, -34.38582355746082], [-61.73651076450061, -34.38595875839657], [-61.72058902407669, -34.38619193322619], [-61.70529011599625, -34.37240912519904], [-61.69381103092276, -34.362234514390884], [-61.64835774306463, -34.319871355784144], [-61.634795103317074, -34.33154485019211], [-61.622978207904936, -34.341699256570514], [-61.6109420577168, -34.35225274443185], [-61.569797026063235, -34.31943202999438], [-61.54974390674682, -34.303364262285974], [-61.5375408623422, -34.31340573573042], [-61.527800001926515, -34.321633824287204], [-61.52754991712838, -34.32210914852793], [-61.5106589897197, -34.33625117527506]]]]}}, {"type": "Feature", "properties": {"PARTIDO": "Lincoln", "CABECERA": "LINCOLN", "FNA": "Partido de LINCOLN", "GNA": "Partido", "NAM": "LINCOLN", "CDE": "0469", "CCA": "060", "ARA": 5783.2236386, "ARL": 5781.54, "SDP": null, "SAG": "Dirección Provincial de Estadística - Ministerio de Economía - PBA", "COD_PART": "469", "partido": "Lincoln"}, "geometry": {"type": "MultiPolygon", "coordinates": [[[[-61.246103177442244, -34.66845338250644], [-61.22722767774947, -34.68399694108257], [-61.22711878474945, -34.68392172239178], [-61.215900390545556, -34.69315853792597], [-61.20557757017214, -34.70177934141058], [-61.21779177541684, -34.71163362091161], [-61.22357511466089, -34.71631354541341], [-61.22208985927856, -34.71760479179623], [-61.2222247974691, -34.717713484158764], [-61.21667743195656, -34.722309741625864], [-61.207750146075554, -34.729705717754086], [-61.189040693239214, -34.74538806109052], [-61.17626346413148, -34.75593030207396], [-61.15186746852342, -34.77638747052042], [-61.15539096484684, -34.77926241758825], [-61.158892971873364, -34.782211752748765], [-61.17017476649101, -34.791299695388695], [-61.17673359575861, -34.79662932667254], [-61.18344200714188, -34.80211612376329], [-61.16361755370484, -34.81839051587785], [-61.152833973403574, -34.82702127732053], [-61.146442450539695, -34.83216292610528], [-61.14078852254503, -34.83660729873725], [-61.12810547081396, -34.84683194347505], [-61.13911852949195, -34.856160412845256], [-61.15425712419229, -34.869003690123655], [-61.15442011796294, -34.86907209643305], [-61.16344772883179, -34.87672549379989], [-61.16406668594707, -34.87738731054081], [-61.17970464821411, -34.89070488040666], [-61.18089530750627, -34.88977120331281], [-61.19116657835596, -34.89823074003581], [-61.19639305263982, -34.902548308485834], [-61.19738330791649, -34.90323172953194], [-61.199304804470565, -34.90478355088562], [-61.19962093310678, -34.90528918211969], [-61.20644914432992, -34.91085599671098], [-61.21306026522934, -34.916297392479], [-61.223705232930484, -34.92503651314439], [-61.23328194309833, -34.93293336329015], [-61.23680085428133, -34.93582109088199], [-61.24624639787757, -34.943559231079114], [-61.24639417011526, -34.94362766699821], [-61.25964385183561, -34.95454343743756], [-61.27350914264484, -34.96607445800301], [-61.28214894698441, -34.9732203705315], [-61.292684907492074, -34.981947995995554], [-61.30832785318705, -34.994854967476336], [-61.31399768304561, -34.99954404554612], [-61.329325335423846, -35.01213365260857], [-61.34035860226195, -35.021277442125296], [-61.39026270535112, -35.06225610791475], [-61.40799659350667, -35.07686397783712], [-61.40806838244562, -35.07699032456948], [-61.40797483360481, -35.077398388713085], [-61.408821211130196, -35.077585688208195], [-61.409102254575906, -35.07773503961512], [-61.42011230017169, -35.08680809109743], [-61.421110157896486, -35.08769301937965], [-61.38137721814437, -35.120030354555205], [-61.38131681675447, -35.12012006928442], [-61.37273282974738, -35.126983603522945], [-61.369433056031475, -35.129609059688924], [-61.355998544949166, -35.140513251451964], [-61.35400959521461, -35.14195980421657], [-61.351437469767234, -35.144176136908214], [-61.325642417212016, -35.165210645809616], [-61.31032322943758, -35.17763754581055], [-61.300258952252186, -35.185682085429384], [-61.31745343463179, -35.20000748140991], [-61.326359393983076, -35.20743292142342], [-61.34141024796033, -35.219959572682605], [-61.3538253332611, -35.23034388247639], [-61.357536442241866, -35.23345114542625], [-61.36057049339456, -35.235992122073824], [-61.360610708613535, -35.236081009398966], [-61.36442223108678, -35.23921755451936], [-61.36457870820829, -35.23930481496614], [-61.37642463477325, -35.24909689812885], [-61.39089386030732, -35.2611595543737], [-61.39256947623182, -35.26257738250998], [-61.409480053829284, -35.27652997061728], [-61.40972248218793, -35.27664796346316], [-61.413001325093255, -35.27930429716886], [-61.4173718947161, -35.283000136821116], [-61.420665420122525, -35.28578487301679], [-61.42161266919563, -35.28658573589497], [-61.42256185037243, -35.28738821037573], [-61.424441627430895, -35.288977372201316], [-61.42910178477784, -35.292881042229446], [-61.431557419759244, -35.29493782400826], [-61.4319154692425, -35.295237705537744], [-61.43224862464028, -35.29564968475676], [-61.43813239096962, -35.30051412305734], [-61.4613808983506, -35.31956473386778], [-61.46861302034117, -35.3256450672987], [-61.47861737407266, -35.33391025980079], [-61.49176059089167, -35.34479381924156], [-61.50292049021009, -35.35400916454508], [-61.50637305922207, -35.35689624706705], [-61.513785529506244, -35.36309359683668], [-61.514354710046256, -35.36281304279704], [-61.514848577367886, -35.36348722775543], [-61.515324435393524, -35.36402810469567], [-61.51590154592925, -35.36458678553086], [-61.51726831069905, -35.365860434615655], [-61.52102212633377, -35.36899255701033], [-61.524965976333185, -35.37230655885525], [-61.53202306863969, -35.378175836019885], [-61.5329315993468, -35.37930832977768], [-61.53365377707472, -35.378904928476494], [-61.53537657356585, -35.38091144270691], [-61.54602718342245, -35.38972308058862], [-61.55834552293495, -35.40012369660579], [-61.56415501323278, -35.40497648147427], [-61.564524733569215, -35.40521967587768], [-61.5647825591379, -35.405298997194116], [-61.58788231163695, -35.42432931202275], [-61.59492749322377, -35.43029664761323], [-61.603968488793626, -35.437669880873415], [-61.61081654876043, -35.44326046471495], [-61.61552488927411, -35.44713343346304], [-61.61541841989805, -35.44724931068492], [-61.62171999774103, -35.45247002774852], [-61.63258148982487, -35.461306240762895], [-61.65082164268958, -35.47630097189387], [-61.65301181750076, -35.478108563946655], [-61.660192198571394, -35.484050444748526], [-61.673564113199355, -35.495262497726735], [-61.69682662022022, -35.51447506374459], [-61.71433290266255, -35.5288441705105], [-61.71470201611668, -35.52901059625756], [-61.71507032035002, -35.529138882131], [-61.71949648714409, -35.532801793637034], [-61.72424192874267, -35.536616969358754], [-61.747705254663714, -35.5561668858036], [-61.7827886005808, -35.585011147820886], [-61.804401356936495, -35.56760394848187], [-61.805504296070396, -35.56681809442458], [-61.811036622164785, -35.56230346199165], [-61.82636955411901, -35.54978817725273], [-61.83672680645675, -35.54135251996348], [-61.84844951534729, -35.53183961750765], [-61.86466674041321, -35.518714707156576], [-61.88485359810096, -35.502327562209686], [-61.90582416454432, -35.48521101583732], [-61.94891261383216, -35.45007633083238], [-61.99905945094488, -35.40923754623201], [-62.02975527518539, -35.383992679289676], [-62.02923197853089, -35.38355799923819], [-62.0746505275377, -35.34585266979386], [-62.074719600592665, -35.34589939979506], [-62.08960117079723, -35.33356809087525], [-62.096854839334036, -35.327504046885544], [-62.10500098074992, -35.320773954679716], [-62.105083452447694, -35.32055081988086], [-62.11349733342194, -35.31356894516951], [-62.150003076096745, -35.28317335068446], [-62.14601814374329, -35.279963423742366], [-62.20600940541993, -35.23002188447855], [-62.22618994888679, -35.213003339975614], [-62.21107779240094, -35.20077067814028], [-62.2387515872991, -35.17797695256108], [-62.23880283528357, -35.17772985299231], [-62.25803450864697, -35.16173633732323], [-62.267148477789426, -35.15426205282083], [-62.270403273079, -35.15160983032824], [-62.2660195884882, -35.148015320847946], [-62.252377020797134, -35.136980472438935], [-62.24890406632194, -35.13404958587354], [-62.247038432652396, -35.1325520095913], [-62.24515276094981, -35.131034742223335], [-62.24140776000777, -35.12797746184576], [-62.23953631201591, -35.12645527275257], [-62.23486535545338, -35.12272439978844], [-62.166163461090015, -35.06684583115197], [-62.186089191261566, -35.05021485007786], [-62.14546807794886, -35.01735385242193], [-62.14546130282169, -35.01721098555022], [-62.138722693643096, -35.01165843599889], [-62.10509538559958, -34.984311582896], [-62.10486948875055, -34.984239201932986], [-62.06436173366384, -34.95115771025927], [-62.05120565249732, -34.940499778829185], [-62.051066228336346, -34.940327277310935], [-62.05099374505514, -34.9401298012998], [-62.050872430609594, -34.939909305281276], [-62.05067452620215, -34.939713946245284], [-62.0378391078705, -34.929247825423], [-62.0377113002927, -34.92934920951803], [-62.0242102199498, -34.918294188843845], [-62.00380587937488, -34.901798324486606], [-61.98357108237714, -34.8853914584507], [-61.94384697123043, -34.91892079985734], [-61.939886597473375, -34.9221380142987], [-61.903434387656304, -34.95204383432477], [-61.88766733328866, -34.939509116252445], [-61.86283820947408, -34.919207512947764], [-61.79189865689256, -34.86186445408102], [-61.791535597544915, -34.8617982681925], [-61.7857669050256, -34.85724516265202], [-61.741009183067206, -34.82123448765602], [-61.74503011053727, -34.817930550919954], [-61.734638126214264, -34.8097926872633], [-61.67338121885664, -34.76097941878871], [-61.67930018623496, -34.75596104152563], [-61.76460595012967, -34.68321646649835], [-61.772595283109496, -34.67624789176866], [-61.71076586686697, -34.62686171339924], [-61.658644025605845, -34.67137816891953], [-61.645568161721116, -34.68269867534241], [-61.61241450302883, -34.655968113069456], [-61.59823146706102, -34.66818752385515], [-61.59824991003185, -34.668346262818304], [-61.58768083858783, -34.659962021501066], [-61.58259698011227, -34.6559632709574], [-61.58179442921469, -34.65531231080847], [-61.581480274230465, -34.6550245229457], [-61.58068834626196, -34.654417961118256], [-61.57953158424618, -34.65352973846076], [-61.578503056102676, -34.652661706254385], [-61.57791882741099, -34.65216015742439], [-61.57673387418957, -34.65128030171194], [-61.57564231177978, -34.650447426572384], [-61.57490699993878, -34.64985848147917], [-61.57360666506561, -34.64876814320681], [-61.564915175512795, -34.64185165814889], [-61.536462581537, -34.6191666548524], [-61.53586892358384, -34.61855232297], [-61.53549102118754, -34.61820590901885], [-61.535084321587426, -34.61784218581814], [-61.516541730198924, -34.60308458261365], [-61.49506526273007, -34.62138752816016], [-61.43742337090328, -34.67046676329865], [-61.411064418993675, -34.64947812539294], [-61.39679828674795, -34.63813371344714], [-61.35632321584645, -34.605498444594744], [-61.33924928253129, -34.59179091471133], [-61.28236948863471, -34.63859371645557], [-61.27232899428134, -34.64687152747845], [-61.26113368961671, -34.656107488870866], [-61.24857456084542, -34.66643754326904], [-61.246103177442244, -34.66845338250644]]]]}}]}