{"type": "FeatureCollection", "features": [{"type": "Feature", "properties": {"CCA": "034", "ARA": 3371.25400871, "ARL": 3384.08, "partido": "General Alvear"}, "geometry": {"type": "MultiPolygon", "coordinates": [[[[-60.150473, -35.806901], [-60.118506, -35.833179], [-60.056087, -35.779968], [-59.885544, -35.91195], [-59.880238, -35.908667], [-59.883732, -35.90686], [-59.880309, -35.902136], [-59.870583, -35.89885], [-59.871968, -35.896204], [-59.868427, -35.884197], [-59.872737, -35.876723], [-59.862658, -35.870052], [-59.855856, -35.870001], [-59.854387, -35.865736], [-59.849205, -35.864106], [-59.847934, -35.857515], [-59.843354, -35.858375], [-59.842071, -35.854124], [-59.839484, -35.851309], [-59.8359, -35.850818], [-59.834763, -35.848284], [-59.829987, -35.846653], [-59.819661, -35.847837], [-59.819127, -35.852731], [-59.814724, -35.852989], [-59.811677, -35.852032], [-59.811253, -35.849399], [-59.808231, -35.849087], [-59.80809, -35.845467], [-59.800513, -35.843265], [-59.7987, -35.841195], [-59.795296, -35.842699], [-59.791815, -35.840125], [-59.788179, -35.842922], [-59.782755, -35.84385], [-59.778798, -35.848063], [-59.77641, -35.847687], [-59.772706, -35.84293], [-59.770026, -35.843054], [-59.767732, -35.840545], [-59.763847, -35.843087], [-59.761874, -35.839574], [-59.754999, -35.839407], [-59.755497, -35.837396], [-59.752179, -35.834423], [-59.74895, -35.836934], [-59.739974, -35.834292], [-59.737042, -35.831939], [-59.735153, -35.832879], [-59.735262, -35.835388], [-59.73135, -35.835341], [-59.728066, -35.832987], [-59.722353, -35.835626], [-59.706823, -35.831745], [-59.700206, -35.831974], [-59.515731, -35.976184], [-59.592151, -36.040318], [-59.613073, -36.023819], [-59.663835, -36.067081], [-59.668326, -36.063496], [-59.718216, -36.105418], [-59.797281, -36.043908], [-59.858339, -36.095744], [-59.838692, -36.111471], [-59.891224, -36.156168], [-59.947937, -36.200978], [-59.947103, -36.205284], [-59.951188, -36.206753], [-59.952113, -36.210437], [-59.957636, -36.215375], [-59.957103, -36.221498], [-59.962946, -36.223867], [-59.960322, -36.227579], [-59.961893, -36.229482], [-59.960521, -36.235949], [-59.961357, -36.240835], [-59.964385, -36.243876], [-59.963933, -36.247123], [-59.96561, -36.248068], [-60.063348, -36.178697], [-60.065275, -36.178904], [-60.089531, -36.161741], [-60.244768, -36.302582], [-60.296997, -36.267198], [-60.359176, -36.326034], [-60.439836, -36.272021], [-60.439022, -36.27126], [-60.523254, -36.213564], [-60.565142, -36.235546], [-60.697972, -36.136759], [-60.68893, -36.138493], [-60.681415, -36.133061], [-60.683741, -36.12991], [-60.682095, -36.125562], [-60.668279, -36.120736], [-60.666334, -36.116613], [-60.651011, -36.115143], [-60.635309, -36.109041], [-60.632384, -36.102229], [-60.627381, -36.099202], [-60.627307, -36.094323], [-60.618395, -36.087573], [-60.616685, -36.080556], [-60.60805, -36.074425], [-60.600858, -36.073054], [-60.598338, -36.070539], [-60.595103, -36.069967], [-60.593107, -36.064826], [-60.586256, -36.058414], [-60.584348, -36.052286], [-60.580531, -36.049818], [-60.572838, -36.040205], [-60.571383, -36.034331], [-60.573478, -36.028637], [-60.570177, -36.025837], [-60.562967, -36.025358], [-60.556784, -36.022704], [-60.5575, -36.019056], [-60.545923, -36.011929], [-60.543502, -36.006577], [-60.531754, -36.002282], [-60.531152, -35.998493], [-60.526648, -35.994841], [-60.525054, -35.990477], [-60.519212, -35.985911], [-60.515638, -35.984906], [-60.506841, -35.988608], [-60.505737, -35.990385], [-60.501292, -35.98968], [-60.495881, -35.992421], [-60.493612, -35.995335], [-60.49076, -35.991637], [-60.483973, -35.989958], [-60.482497, -35.985776], [-60.477379, -35.984723], [-60.470636, -35.980592], [-60.469483, -35.977402], [-60.459414, -35.967775], [-60.465416, -35.955997], [-60.461554, -35.949176], [-60.453907, -35.946876], [-60.45266, -35.944995], [-60.447434, -35.944906], [-60.444808, -35.939992], [-60.432137, -35.934279], [-60.423257, -35.928122], [-60.418315, -35.927343], [-60.397479, -35.909796], [-60.398933, -35.908656], [-60.38766, -35.898682], [-60.38568, -35.893465], [-60.387921, -35.891735], [-60.380404, -35.888905], [-60.375528, -35.892603], [-60.214976, -35.755693], [-60.150473, -35.806901]]]]}}, {"type": "Feature", "properties": {"CCA": "041", "ARA": 753.028128436, "ARL": 720.1, "partido": "General Las Heras"}, "geometry": {"type": "MultiPolygon", "coordinates": [[[[-59.089788, -34.717119], [-59.031794, -34.763842], [-59.0339, -34.766814], [-58.951426, -34.831261], [-58.936564, -34.817644], [-58.926437, -34.825348], [-58.921332, -34.831821], [-58.846809, -34.890619], [-58.846513, -34.891962], [-58.859669, -34.903659], [-58.777055, -34.965122], [-58.838634, -35.017074], [-58.837825, -35.017681], [-58.863465, -35.04325], [-58.896275, -35.069618], [-58.933883, -35.103565], [-59.015213, -35.040566], [-58.992733, -35.021208], [-59.115691, -34.926938], [-59.155273, -34.902007], [-59.21922, -34.852544], [-59.155057, -34.794738], [-59.145913, -34.784231], [-59.139067, -34.771535], [-59.131652, -34.762042], [-59.120759, -34.754199], [-59.107792, -34.740573], [-59.089788, -34.717119]]]]}}, {"type": "Feature", "properties": {"CCA": "058", "ARA": 3340.52091656, "ARL": 3340.27, "partido": "Las Flores"}, "geometry": {"type": "MultiPolygon", "coordinates": [[[[-59.144108, -35.657422], [-59.095583, -35.696193], [-59.103677, -35.70299], [-59.01554, -35.773843], [-59.01846, -35.776704], [-58.985628, -35.803269], [-58.988423, -35.805593], [-58.974427, -35.816859], [-58.957592, -35.803021], [-58.901058, -35.847924], [-58.891779, -35.840197], [-58.777026, -35.930618], [-58.776885, -35.932078], [-58.775198, -35.931997], [-58.730262, -35.967447], [-58.750243, -35.984292], [-58.708469, -36.016987], [-58.809781, -36.099994], [-58.806446, -36.102446], [-58.809188, -36.105614], [-58.820312, -36.110454], [-58.824548, -36.109053], [-58.828691, -36.110766], [-58.830842, -36.114471], [-58.829231, -36.118971], [-58.835564, -36.122926], [-58.838476, -36.127709], [-58.835683, -36.132442], [-58.836126, -36.134259], [-58.840955, -36.136372], [-58.840216, -36.140488], [-58.843655, -36.144368], [-58.848815, -36.145887], [-58.85056, -36.150126], [-58.862931, -36.147128], [-58.866759, -36.151316], [-58.8843, -36.152168], [-58.893396, -36.159322], [-58.897705, -36.157874], [-58.902119, -36.159053], [-58.90424, -36.164362], [-58.910067, -36.165452], [-58.916678, -36.171622], [-58.926448, -36.173414], [-58.931522, -36.176868], [-58.938065, -36.17725], [-58.955784, -36.188329], [-59.000931, -36.204835], [-59.005945, -36.20906], [-59.013116, -36.209126], [-59.02212, -36.214999], [-59.025111, -36.213605], [-59.029008, -36.216968], [-59.036291, -36.216188], [-59.036837, -36.219054], [-59.042234, -36.217902], [-59.048275, -36.218586], [-59.050662, -36.22041], [-59.053526, -36.216561], [-59.055688, -36.218759], [-59.059039, -36.219415], [-59.061152, -36.217937], [-59.070369, -36.221487], [-59.079087, -36.233476], [-59.080859, -36.2394], [-59.084627, -36.237601], [-59.09432, -36.239664], [-59.098652, -36.24451], [-59.103092, -36.246763], [-59.098864, -36.252708], [-59.102849, -36.25907], [-59.099233, -36.267778], [-59.101703, -36.270742], [-59.106259, -36.272683], [-59.105659, -36.274592], [-59.122703, -36.280957], [-59.130375, -36.28601], [-59.138349, -36.285278], [-59.149042, -36.288923], [-59.156748, -36.289531], [-59.164229, -36.294346], [-59.171348, -36.296252], [-59.17188, -36.297921], [-59.169751, -36.299458], [-59.174125, -36.303341], [-59.185221, -36.307436], [-59.194051, -36.31428], [-59.201221, -36.313819], [-59.203964, -36.31516], [-59.206489, -36.319589], [-59.211004, -36.31906], [-59.214987, -36.321451], [-59.217931, -36.320892], [-59.222022, -36.325058], [-59.223701, -36.329265], [-59.233121, -36.335888], [-59.233211, -36.338434], [-59.238508, -36.342783], [-59.26529, -36.356357], [-59.269015, -36.358999], [-59.269067, -36.360964], [-59.274664, -36.360979], [-59.276765, -36.367516], [-59.279747, -36.370726], [-59.291097, -36.374962], [-59.487309, -36.22602], [-59.382033, -36.135614], [-59.552303, -36.007075], [-59.515731, -35.976184], [-59.700206, -35.831974], [-59.692822, -35.827257], [-59.690594, -35.827872], [-59.690154, -35.830573], [-59.68751, -35.830216], [-59.684438, -35.834516], [-59.67597, -35.833413], [-59.675519, -35.843427], [-59.671113, -35.844401], [-59.667597, -35.849327], [-59.663216, -35.850778], [-59.660435, -35.85534], [-59.651823, -35.857461], [-59.647335, -35.861168], [-59.644959, -35.859818], [-59.642403, -35.8614], [-59.637633, -35.858294], [-59.634584, -35.85873], [-59.628262, -35.855555], [-59.61953, -35.854168], [-59.617889, -35.85239], [-59.615194, -35.854393], [-59.609092, -35.854238], [-59.605916, -35.856954], [-59.600218, -35.856116], [-59.599266, -35.853188], [-59.588493, -35.855783], [-59.57336, -35.85197], [-59.569084, -35.853767], [-59.559679, -35.850737], [-59.56028, -35.84686], [-59.556807, -35.844499], [-59.552706, -35.844145], [-59.550558, -35.840648], [-59.541029, -35.839308], [-59.537785, -35.834694], [-59.534612, -35.834904], [-59.532099, -35.832951], [-59.532127, -35.827447], [-59.527691, -35.830991], [-59.522511, -35.830812], [-59.521321, -35.82769], [-59.51547, -35.826864], [-59.504075, -35.816699], [-59.496269, -35.817938], [-59.494404, -35.819655], [-59.481246, -35.820158], [-59.479357, -35.81792], [-59.483404, -35.812502], [-59.479053, -35.810822], [-59.475351, -35.812769], [-59.471256, -35.812306], [-59.470265, -35.810211], [-59.463536, -35.809513], [-59.462249, -35.813744], [-59.459173, -35.814048], [-59.458535, -35.811653], [-59.454009, -35.811458], [-59.451527, -35.807615], [-59.438554, -35.804257], [-59.435661, -35.806222], [-59.427098, -35.804354], [-59.42373, -35.805951], [-59.41716, -35.802359], [-59.407711, -35.806819], [-59.397302, -35.80397], [-59.395044, -35.806963], [-59.387411, -35.808221], [-59.386919, -35.811643], [-59.384329, -35.810954], [-59.382282, -35.817024], [-59.379391, -35.817264], [-59.375564, -35.816612], [-59.367317, -35.81098], [-59.362074, -35.813082], [-59.357225, -35.810271], [-59.354878, -35.806529], [-59.347428, -35.803516], [-59.342612, -35.804197], [-59.338847, -35.807555], [-59.338418, -35.804], [-59.330305, -35.802246], [-59.327193, -35.803349], [-59.326836, -35.806336], [-59.318253, -35.809368], [-59.316135, -35.808318], [-59.316355, -35.806507], [-59.313082, -35.802435], [-59.309963, -35.802043], [-59.309491, -35.800212], [-59.305169, -35.797994], [-59.305401, -35.795968], [-59.294827, -35.794667], [-59.287148, -35.796998], [-59.285299, -35.795342], [-59.287132, -35.792197], [-59.279482, -35.790244], [-59.277546, -35.790677], [-59.276598, -35.792985], [-59.270927, -35.792275], [-59.26488, -35.795219], [-59.252264, -35.79119], [-59.241693, -35.792881], [-59.233011, -35.7887], [-59.232377, -35.783649], [-59.226651, -35.778621], [-59.216428, -35.775701], [-59.211724, -35.776958], [-59.208873, -35.771336], [-59.1957, -35.767044], [-59.190763, -35.767312], [-59.183294, -35.762695], [-59.181373, -35.757493], [-59.181987, -35.752423], [-59.177535, -35.747706], [-59.1757, -35.741372], [-59.179671, -35.731599], [-59.178049, -35.729108], [-59.179727, -35.725177], [-59.177096, -35.716543], [-59.172793, -35.714129], [-59.174552, -35.711788], [-59.166365, -35.706199], [-59.158089, -35.706937], [-59.157295, -35.710587], [-59.15531, -35.711241], [-59.148424, -35.704444], [-59.140729, -35.701322], [-59.140239, -35.698886], [-59.137451, -35.699923], [-59.13068, -35.698014], [-59.130953, -35.693454], [-59.132884, -35.691528], [-59.131712, -35.686219], [-59.133918, -35.686886], [-59.136726, -35.683968], [-59.138424, -35.669233], [-59.139356, -35.666469], [-59.14211, -35.665452], [-59.144108, -35.657422]]]]}}, {"type": "Feature", "properties": {"CCA": "062", "ARA": 1725.33256483, "ARL": 1724.35, "partido": "Lobos"}, "geometry": {"type": "MultiPolygon", "coordinates": [[[[-59.003498, -35.012984], [-58.992733, -35.021208], [-59.015213, -35.040566], [-58.869233, -35.153705], [-58.895013, -35.176106], [-58.808352, -35.238735], [-58.883285, -35.306623], [-58.925241, -35.341349], [-58.93641, -35.333097], [-58.945643, -35.333865], [-58.951015, -35.34029], [-58.962649, -35.339602], [-58.965437, -35.337044], [-58.971814, -35.338459], [-58.979135, -35.341287], [-59.006631, -35.366049], [-59.025541, -35.351989], [-59.053897, -35.377636], [-59.05833, -35.374351], [-59.123268, -35.431098], [-59.125063, -35.435466], [-59.128047, -35.435975], [-59.128379, -35.43343], [-59.150991, -35.424396], [-59.154263, -35.419014], [-59.156958, -35.421322], [-59.164018, -35.420748], [-59.162444, -35.416686], [-59.165603, -35.41473], [-59.167447, -35.405376], [-59.171913, -35.406106], [-59.177756, -35.402833], [-59.177235, -35.406034], [-59.182615, -35.408635], [-59.187474, -35.405048], [-59.185638, -35.400673], [-59.191371, -35.400553], [-59.199392, -35.396047], [-59.203524, -35.396863], [-59.205514, -35.394249], [-59.216222, -35.392749], [-59.217776, -35.395092], [-59.227891, -35.393087], [-59.235651, -35.38754], [-59.243476, -35.391596], [-59.251436, -35.389436], [-59.262684, -35.390454], [-59.275814, -35.380241], [-59.2779, -35.373905], [-59.287293, -35.371863], [-59.293113, -35.365506], [-59.298585, -35.363503], [-59.301904, -35.365684], [-59.306855, -35.36541], [-59.308687, -35.369109], [-59.323684, -35.37401], [-59.32467, -35.372137], [-59.323607, -35.369222], [-59.317682, -35.365198], [-59.322016, -35.358728], [-59.335677, -35.355362], [-59.343235, -35.355467], [-59.351347, -35.348062], [-59.34872, -35.344185], [-59.353408, -35.346324], [-59.353412, -35.349496], [-59.360633, -35.350425], [-59.366858, -35.338414], [-59.379972, -35.333753], [-59.382879, -35.327663], [-59.381817, -35.321586], [-59.377822, -35.31809], [-59.378802, -35.313451], [-59.382242, -35.311984], [-59.38174, -35.309112], [-59.386784, -35.304705], [-59.386566, -35.301887], [-59.384347, -35.300373], [-59.385195, -35.297285], [-59.391566, -35.295831], [-59.391771, -35.293074], [-59.393846, -35.291796], [-59.397496, -35.291131], [-59.408324, -35.299388], [-59.416009, -35.300988], [-59.42845, -35.297931], [-59.430253, -35.302881], [-59.435384, -35.302435], [-59.442749, -35.307696], [-59.444768, -35.302764], [-59.455437, -35.301236], [-59.463286, -35.2979], [-59.465868, -35.299279], [-59.467851, -35.306569], [-59.46927, -35.306995], [-59.477852, -35.299382], [-59.47661, -35.293583], [-59.480826, -35.286848], [-59.483222, -35.286909], [-59.485347, -35.28936], [-59.491604, -35.28973], [-59.494602, -35.286614], [-59.500774, -35.289348], [-59.506734, -35.288807], [-59.51105, -35.286433], [-59.522702, -35.286072], [-59.52854, -35.282286], [-59.536536, -35.281013], [-59.537563, -35.279058], [-59.536346, -35.274926], [-59.545443, -35.273377], [-59.546815, -35.269211], [-59.550099, -35.267163], [-59.549786, -35.263473], [-59.552477, -35.260596], [-59.551148, -35.256575], [-59.553209, -35.254334], [-59.359807, -35.157615], [-59.322766, -35.136239], [-59.325943, -35.132123], [-59.301979, -35.120038], [-59.298584, -35.124381], [-59.251732, -35.098937], [-59.247083, -35.065249], [-59.221495, -35.084712], [-59.141413, -35.013281], [-59.13655, -35.017119], [-59.070779, -34.961801], [-59.003498, -35.012984]]]]}}, {"type": "Feature", "properties": {"CCA": "075", "ARA": 1618.94989467, "ARL": 1617.56, "partido": "Navarro"}, "geometry": {"type": "MultiPolygon", "coordinates": [[[[-59.205839, -34.795834], [-59.194054, -34.811395], [-59.169904, -34.798965], [-59.165744, -34.804385], [-59.21922, -34.852544], [-59.155273, -34.902007], [-59.115691, -34.926938], [-59.070779, -34.961801], [-59.13655, -35.017119], [-59.141413, -35.013281], [-59.221495, -35.084712], [-59.247083, -35.065249], [-59.251732, -35.098937], [-59.298584, -35.124381], [-59.301979, -35.120038], [-59.325943, -35.132123], [-59.322766, -35.136239], [-59.359807, -35.157615], [-59.553209, -35.254334], [-59.554074, -35.250332], [-59.551887, -35.247225], [-59.555528, -35.242754], [-59.549295, -35.238185], [-59.547062, -35.231029], [-59.541238, -35.221849], [-59.541738, -35.219624], [-59.548528, -35.214003], [-59.54301, -35.204444], [-59.561997, -35.189238], [-59.572325, -35.184505], [-59.572647, -35.179133], [-59.575097, -35.176685], [-59.582348, -35.176728], [-59.586147, -35.18663], [-59.598609, -35.187142], [-59.600471, -35.184961], [-59.60321, -35.185574], [-59.611217, -35.19278], [-59.612083, -35.195943], [-59.620192, -35.199902], [-59.625578, -35.19998], [-59.632659, -35.196504], [-59.638261, -35.198206], [-59.638745, -35.200815], [-59.641829, -35.202598], [-59.644497, -35.207318], [-59.662001, -35.208997], [-59.665061, -35.211161], [-59.66401, -35.216068], [-59.665832, -35.221485], [-59.669792, -35.223365], [-59.686442, -35.216554], [-59.694963, -35.215133], [-59.698266, -35.210631], [-59.701053, -35.211522], [-59.706606, -35.218569], [-59.721914, -35.222472], [-59.725119, -35.216635], [-59.736805, -35.209979], [-59.738989, -35.204186], [-59.743252, -35.201321], [-59.747252, -35.195395], [-59.755889, -35.19851], [-59.761371, -35.19702], [-59.762491, -35.195414], [-59.759877, -35.191453], [-59.759793, -35.188349], [-59.764916, -35.181955], [-59.772423, -35.17879], [-59.773441, -35.174868], [-59.77549, -35.173333], [-59.777497, -35.172993], [-59.78221, -35.177434], [-59.785068, -35.177535], [-59.793195, -35.182744], [-59.798775, -35.181616], [-59.801495, -35.17802], [-59.804721, -35.176665], [-59.81047, -35.179116], [-59.815659, -35.179321], [-59.822737, -35.176638], [-59.703475, -35.073357], [-59.700202, -35.075966], [-59.605758, -34.997306], [-59.632337, -34.960755], [-59.635908, -34.957976], [-59.408552, -34.842576], [-59.373462, -34.891597], [-59.316795, -34.842943], [-59.320882, -34.837154], [-59.289493, -34.821662], [-59.279307, -34.834615], [-59.228931, -34.809675], [-59.22986, -34.808441], [-59.205839, -34.795834]]]]}}, {"type": "Feature", "properties": {"CCA": "091", "ARA": 1555.63242807, "ARL": 1572.22, "partido": "Roque Pérez"}, "geometry": {"type": "MultiPolygon", "coordinates": [[[[-59.492468, -35.289288], [-59.485347, -35.28936], [-59.483222, -35.286909], [-59.480826, -35.286848], [-59.47661, -35.293583], [-59.477852, -35.299382], [-59.468625, -35.307081], [-59.465868, -35.299279], [-59.463286, -35.2979], [-59.455437, -35.301236], [-59.444768, -35.302764], [-59.442749, -35.307696], [-59.435384, -35.302435], [-59.430253, -35.302881], [-59.42845, -35.297931], [-59.416009, -35.300988], [-59.408324, -35.299388], [-59.397496, -35.291131], [-59.393846, -35.291796], [-59.391771, -35.293074], [-59.391566, -35.295831], [-59.385195, -35.297285], [-59.384347, -35.300373], [-59.386566, -35.301887], [-59.386784, -35.304705], [-59.38174, -35.309112], [-59.382242, -35.311984], [-59.378802, -35.313451], [-59.377822, -35.31809], [-59.381817, -35.321586], [-59.382879, -35.327663], [-59.379972, -35.333753], [-59.366858, -35.338414], [-59.360633, -35.350425], [-59.353412, -35.349496], [-59.353408, -35.346324], [-59.34872, -35.344185], [-59.351347, -35.348062], [-59.343235, -35.355467], [-59.335677, -35.355362], [-59.322016, -35.358728], [-59.317682, -35.365198], [-59.323607, -35.369222], [-59.32467, -35.372137], [-59.323684, -35.37401], [-59.308687, -35.369109], [-59.306855, -35.36541], [-59.301904, -35.365684], [-59.298585, -35.363503], [-59.293113, -35.365506], [-59.287293, -35.371863], [-59.2779, -35.373905], [-59.275814, -35.380241], [-59.262684, -35.390454], [-59.251436, -35.389436], [-59.243476, -35.391596], [-59.235651, -35.38754], [-59.227891, -35.393087], [-59.217776, -35.395092], [-59.216222, -35.392749], [-59.205514, -35.394249], [-59.203524, -35.396863], [-59.199392, -35.396047], [-59.191371, -35.400553], [-59.185638, -35.400673], [-59.187474, -35.405048], [-59.182615, -35.408635], [-59.177235, -35.406034], [-59.177756, -35.402833], [-59.171913, -35.406106], [-59.167954, -35.405189], [-59.165976, -35.40826], [-59.165603, -35.41473], [-59.162444, -35.416686], [-59.164457, -35.419593], [-59.163635, -35.42098], [-59.156485, -35.421223], [-59.154263, -35.419014], [-59.151952, -35.423837], [-59.128379, -35.43343], [-59.127628, -35.436108], [-59.124654, -35.435146], [-59.122203, -35.430493], [-59.116883, -35.429596], [-59.114327, -35.430777], [-59.104836, -35.426949], [-59.106166, -35.431709], [-59.100796, -35.434181], [-59.095641, -35.433599], [-59.095349, -35.43622], [-59.091938, -35.437675], [-59.088948, -35.442269], [-59.085291, -35.444659], [-59.084619, -35.447188], [-59.065874, -35.449769], [-59.064769, -35.451063], [-59.067285, -35.452756], [-59.055586, -35.458141], [-59.049211, -35.456488], [-59.039899, -35.459911], [-59.037867, -35.46214], [-59.033662, -35.460192], [-59.034266, -35.463351], [-59.032745, -35.465342], [-59.034235, -35.468171], [-59.029684, -35.472325], [-59.023762, -35.47233], [-59.017782, -35.468566], [-59.017831, -35.476083], [-59.008057, -35.479594], [-59.013126, -35.483118], [-59.0153, -35.488111], [-59.015204, -35.496129], [-59.017949, -35.500278], [-59.01282, -35.511765], [-59.017535, -35.511301], [-59.023616, -35.515271], [-59.029569, -35.515558], [-59.029114, -35.518454], [-59.023784, -35.52271], [-59.026303, -35.527575], [-59.03333, -35.528633], [-59.044763, -35.52723], [-59.047107, -35.528472], [-59.047314, -35.530738], [-59.044034, -35.533777], [-59.048131, -35.534844], [-59.047346, -35.539202], [-59.050278, -35.541304], [-59.048399, -35.543629], [-59.04959, -35.546182], [-59.048629, -35.552413], [-59.044484, -35.554081], [-59.04233, -35.551965], [-59.03593, -35.551946], [-59.034872, -35.558302], [-59.03247, -35.561425], [-59.033518, -35.567605], [-59.027863, -35.573458], [-59.026481, -35.586387], [-59.03047, -35.591284], [-59.028242, -35.596418], [-59.031141, -35.60177], [-59.031249, -35.606123], [-59.037008, -35.61281], [-59.04261, -35.611985], [-59.046214, -35.613456], [-59.049423, -35.610024], [-59.053666, -35.60921], [-59.056202, -35.605868], [-59.060206, -35.604349], [-59.068266, -35.608025], [-59.074631, -35.606358], [-59.079886, -35.606898], [-59.081114, -35.608039], [-59.079133, -35.613986], [-59.08188, -35.616368], [-59.087662, -35.616364], [-59.088953, -35.618401], [-59.092756, -35.619133], [-59.097701, -35.618216], [-59.101349, -35.619746], [-59.10213, -35.621778], [-59.105483, -35.622221], [-59.112302, -35.619636], [-59.116945, -35.621029], [-59.123712, -35.619076], [-59.126277, -35.620895], [-59.12871, -35.62009], [-59.13332, -35.62184], [-59.134953, -35.624761], [-59.143372, -35.625453], [-59.146209, -35.634545], [-59.149301, -35.63554], [-59.146343, -35.6418], [-59.143238, -35.643695], [-59.146147, -35.646978], [-59.141598, -35.654371], [-59.144298, -35.657681], [-59.142004, -35.665662], [-59.139356, -35.666469], [-59.138424, -35.669233], [-59.136726, -35.683968], [-59.133918, -35.686886], [-59.131712, -35.686219], [-59.132884, -35.691528], [-59.130953, -35.693454], [-59.131714, -35.696933], [-59.130604, -35.697807], [-59.137451, -35.699923], [-59.140239, -35.698886], [-59.140729, -35.701322], [-59.148424, -35.704444], [-59.15531, -35.711241], [-59.157295, -35.710587], [-59.158089, -35.706937], [-59.166619, -35.706209], [-59.174794, -35.712028], [-59.172793, -35.714129], [-59.177096, -35.716543], [-59.179727, -35.725177], [-59.178049, -35.729108], [-59.179671, -35.731599], [-59.1757, -35.741372], [-59.177535, -35.747706], [-59.181987, -35.752423], [-59.18138, -35.75605], [-59.325697, -35.642822], [-59.329966, -35.646541], [-59.413066, -35.586061], [-59.34997, -35.529242], [-59.352366, -35.52825], [-59.355832, -35.53151], [-59.363268, -35.528662], [-59.365755, -35.529966], [-59.375304, -35.528992], [-59.381411, -35.521692], [-59.387371, -35.518537], [-59.391799, -35.520761], [-59.389331, -35.527565], [-59.395674, -35.531087], [-59.400867, -35.52841], [-59.406265, -35.52164], [-59.411687, -35.519505], [-59.416535, -35.520723], [-59.424371, -35.514815], [-59.436169, -35.513986], [-59.439154, -35.509668], [-59.455511, -35.503113], [-59.457188, -35.499271], [-59.462473, -35.497994], [-59.471026, -35.492694], [-59.479885, -35.493132], [-59.487704, -35.491252], [-59.494975, -35.492351], [-59.49976, -35.487606], [-59.50129, -35.480561], [-59.504495, -35.476115], [-59.508435, -35.47492], [-59.510661, -35.472086], [-59.515703, -35.472265], [-59.516816, -35.466586], [-59.515412, -35.464085], [-59.518479, -35.463095], [-59.523311, -35.455992], [-59.527659, -35.459204], [-59.538301, -35.456019], [-59.542695, -35.457363], [-59.543877, -35.459601], [-59.552076, -35.462048], [-59.558512, -35.458948], [-59.574475, -35.460852], [-59.575881, -35.459266], [-59.574493, -35.457156], [-59.576367, -35.455592], [-59.580735, -35.455953], [-59.581417, -35.457863], [-59.589282, -35.456427], [-59.591123, -35.458142], [-59.596894, -35.458908], [-59.597293, -35.461561], [-59.599675, -35.462446], [-59.606486, -35.458723], [-59.610496, -35.458399], [-59.610651, -35.456579], [-59.614937, -35.458199], [-59.615982, -35.455094], [-59.620528, -35.451181], [-59.626762, -35.457902], [-59.628565, -35.463194], [-59.639125, -35.463369], [-59.645554, -35.466424], [-59.646334, -35.469209], [-59.651407, -35.465615], [-59.67044, -35.4698], [-59.68952, -35.468905], [-59.694299, -35.474617], [-59.699334, -35.476767], [-59.702519, -35.474765], [-59.712889, -35.475915], [-59.715619, -35.473202], [-59.731687, -35.476549], [-59.740997, -35.476741], [-59.747611, -35.479306], [-59.754184, -35.477659], [-59.757126, -35.475074], [-59.760632, -35.47923], [-59.774518, -35.478365], [-59.770401, -35.451412], [-59.779897, -35.441421], [-59.825083, -35.406599], [-59.755677, -35.345785], [-59.713647, -35.3779], [-59.642749, -35.316413], [-59.585135, -35.359785], [-59.504704, -35.288481], [-59.500193, -35.289289], [-59.494602, -35.286614], [-59.492468, -35.289288]]]]}}, {"type": "Feature", "properties": {"CCA": "093", "ARA": 2712.31321366, "ARL": 2685.18, "partido": "Saladillo"}, "geometry": {"type": "MultiPolygon", "coordinates": [[[[-59.614937, -35.458199], [-59.610651, -35.456579], [-59.610496, -35.458399], [-59.606486, -35.458723], [-59.598975, -35.462476], [-59.596894, -35.458908], [-59.593752, -35.457683], [-59.591495, -35.458247], [-59.588971, -35.45642], [-59.581417, -35.457863], [-59.580735, -35.455953], [-59.576367, -35.455592], [-59.574493, -35.457156], [-59.575881, -35.459266], [-59.574475, -35.460852], [-59.558512, -35.458948], [-59.552076, -35.462048], [-59.543877, -35.459601], [-59.542695, -35.457363], [-59.538301, -35.456019], [-59.527659, -35.459204], [-59.522863, -35.456062], [-59.518479, -35.463095], [-59.515412, -35.464085], [-59.516816, -35.466586], [-59.515703, -35.472265], [-59.510661, -35.472086], [-59.508435, -35.47492], [-59.504495, -35.476115], [-59.50129, -35.480561], [-59.49976, -35.487606], [-59.494975, -35.492351], [-59.487704, -35.491252], [-59.479885, -35.493132], [-59.471026, -35.492694], [-59.462473, -35.497994], [-59.457188, -35.499271], [-59.455511, -35.503113], [-59.439154, -35.509668], [-59.436169, -35.513986], [-59.424371, -35.514815], [-59.416535, -35.520723], [-59.411687, -35.519505], [-59.406265, -35.52164], [-59.400867, -35.52841], [-59.395674, -35.531087], [-59.389331, -35.527565], [-59.391799, -35.520761], [-59.387371, -35.518537], [-59.381411, -35.521692], [-59.375304, -35.528992], [-59.365755, -35.529966], [-59.363268, -35.528662], [-59.355832, -35.53151], [-59.352366, -35.52825], [-59.34997, -35.529242], [-59.413066, -35.586061], [-59.329966, -35.646541], [-59.325697, -35.642822], [-59.18138, -35.75605], [-59.183294, -35.762695], [-59.190763, -35.767312], [-59.1957, -35.767044], [-59.208873, -35.771336], [-59.211724, -35.776958], [-59.216428, -35.775701], [-59.226651, -35.778621], [-59.232377, -35.783649], [-59.233011, -35.7887], [-59.241693, -35.792881], [-59.252264, -35.79119], [-59.26488, -35.795219], [-59.270927, -35.792275], [-59.276598, -35.792985], [-59.277546, -35.790677], [-59.279482, -35.790244], [-59.287132, -35.792197], [-59.285299, -35.795342], [-59.287148, -35.796998], [-59.294827, -35.794667], [-59.303077, -35.795088], [-59.305566, -35.796128], [-59.305169, -35.797994], [-59.309491, -35.800212], [-59.309963, -35.802043], [-59.313082, -35.802435], [-59.316355, -35.806507], [-59.316135, -35.808318], [-59.318253, -35.809368], [-59.326836, -35.806336], [-59.327193, -35.803349], [-59.330305, -35.802246], [-59.338418, -35.804], [-59.338847, -35.807555], [-59.342612, -35.804197], [-59.347428, -35.803516], [-59.354878, -35.806529], [-59.357225, -35.810271], [-59.362074, -35.813082], [-59.367317, -35.81098], [-59.375564, -35.816612], [-59.381226, -35.817281], [-59.384329, -35.810954], [-59.386722, -35.811904], [-59.38709, -35.808544], [-59.390381, -35.806804], [-59.395044, -35.806963], [-59.398171, -35.803799], [-59.410543, -35.806523], [-59.412413, -35.803777], [-59.41716, -35.802359], [-59.42373, -35.805951], [-59.427098, -35.804354], [-59.435661, -35.806222], [-59.438554, -35.804257], [-59.451527, -35.807615], [-59.454009, -35.811458], [-59.458535, -35.811653], [-59.459173, -35.814048], [-59.462249, -35.813744], [-59.461823, -35.811827], [-59.463937, -35.809468], [-59.470265, -35.810211], [-59.471558, -35.812442], [-59.475753, -35.812685], [-59.478077, -35.810817], [-59.482687, -35.811744], [-59.483258, -35.814011], [-59.479357, -35.81792], [-59.481587, -35.82022], [-59.494404, -35.819655], [-59.496269, -35.817938], [-59.505449, -35.816919], [-59.514728, -35.826379], [-59.521321, -35.82769], [-59.522511, -35.830812], [-59.527691, -35.830991], [-59.532127, -35.827447], [-59.532099, -35.832951], [-59.534612, -35.834904], [-59.537785, -35.834694], [-59.541029, -35.839308], [-59.550558, -35.840648], [-59.552706, -35.844145], [-59.556807, -35.844499], [-59.56028, -35.84686], [-59.559679, -35.850737], [-59.569084, -35.853767], [-59.57336, -35.85197], [-59.588493, -35.855783], [-59.599266, -35.853188], [-59.600218, -35.856116], [-59.605916, -35.856954], [-59.609092, -35.854238], [-59.615194, -35.854393], [-59.617889, -35.85239], [-59.61953, -35.854168], [-59.628262, -35.855555], [-59.634584, -35.85873], [-59.637633, -35.858294], [-59.642403, -35.8614], [-59.644959, -35.859818], [-59.646934, -35.86127], [-59.651823, -35.857461], [-59.660435, -35.85534], [-59.663216, -35.850778], [-59.667597, -35.849327], [-59.671113, -35.844401], [-59.675823, -35.843165], [-59.675694, -35.833598], [-59.684438, -35.834516], [-59.68751, -35.830216], [-59.690154, -35.830573], [-59.690594, -35.827872], [-59.692822, -35.827257], [-59.700206, -35.831974], [-59.706823, -35.831745], [-59.721966, -35.835625], [-59.728066, -35.832987], [-59.73135, -35.835341], [-59.735262, -35.835388], [-59.735153, -35.832879], [-59.737042, -35.831939], [-59.739974, -35.834292], [-59.748552, -35.836895], [-59.752179, -35.834423], [-59.755497, -35.837396], [-59.754999, -35.839407], [-59.761874, -35.839574], [-59.763847, -35.843087], [-59.767732, -35.840545], [-59.770026, -35.843054], [-59.772706, -35.84293], [-59.776726, -35.847788], [-59.779511, -35.847922], [-59.782755, -35.84385], [-59.788179, -35.842922], [-59.792289, -35.840097], [-59.795296, -35.842699], [-59.7987, -35.841195], [-59.800513, -35.843265], [-59.80809, -35.845467], [-59.808231, -35.849087], [-59.811253, -35.849399], [-59.811677, -35.852032], [-59.814724, -35.852989], [-59.819127, -35.852731], [-59.819661, -35.847837], [-59.830522, -35.846704], [-59.835272, -35.848571], [-59.8359, -35.850818], [-59.839484, -35.851309], [-59.843661, -35.858576], [-59.847934, -35.857515], [-59.849205, -35.864106], [-59.854387, -35.865736], [-59.855856, -35.870001], [-59.862658, -35.870052], [-59.872737, -35.876723], [-59.868427, -35.884197], [-59.871968, -35.896204], [-59.870583, -35.89885], [-59.880309, -35.902136], [-59.883732, -35.90686], [-59.880238, -35.908667], [-59.885544, -35.91195], [-60.056087, -35.779968], [-60.118506, -35.833179], [-60.219836, -35.7519], [-60.117179, -35.663873], [-60.059393, -35.708664], [-60.045726, -35.696893], [-60.037376, -35.69495], [-60.03471, -35.696583], [-60.031649, -35.695002], [-60.030598, -35.692172], [-60.027128, -35.689722], [-60.027767, -35.685905], [-60.033014, -35.684984], [-60.032527, -35.681199], [-60.037249, -35.680341], [-60.03696, -35.677579], [-60.02954, -35.670456], [-60.024901, -35.669633], [-60.023973, -35.667069], [-60.011616, -35.658458], [-60.017611, -35.653496], [-60.020284, -35.653657], [-60.021399, -35.655353], [-60.023422, -35.654507], [-60.02662, -35.657507], [-60.030692, -35.658309], [-60.034742, -35.655343], [-60.034692, -35.652291], [-60.03136, -35.649677], [-60.030294, -35.638], [-60.03509, -35.626878], [-60.039469, -35.623507], [-60.037259, -35.622291], [-60.030834, -35.623748], [-60.029966, -35.618454], [-60.025847, -35.615076], [-60.02681, -35.612938], [-60.017064, -35.605786], [-60.00969, -35.595557], [-60.010499, -35.585085], [-60.008409, -35.579737], [-60.009846, -35.575792], [-60.014389, -35.574894], [-60.019038, -35.567509], [-60.024308, -35.565006], [-60.025505, -35.558827], [-60.02863, -35.555434], [-60.028181, -35.553057], [-60.021571, -35.549997], [-60.01957, -35.546195], [-60.016639, -35.546571], [-60.01148, -35.543159], [-60.00898, -35.538096], [-60.009193, -35.531363], [-60.004039, -35.529749], [-59.998224, -35.531928], [-59.99134, -35.523096], [-59.972178, -35.515064], [-59.970015, -35.51368], [-59.968541, -35.509559], [-59.959847, -35.506091], [-59.952934, -35.505376], [-59.949375, -35.500542], [-59.944648, -35.498695], [-59.940162, -35.494435], [-59.934486, -35.493303], [-59.930152, -35.488252], [-59.915457, -35.487098], [-59.908981, -35.482384], [-59.905831, -35.483844], [-59.901495, -35.480637], [-59.889153, -35.480754], [-59.88354, -35.481456], [-59.881369, -35.483759], [-59.861372, -35.486846], [-59.860065, -35.489714], [-59.858055, -35.488758], [-59.85175, -35.492582], [-59.842632, -35.492952], [-59.830717, -35.497005], [-59.82318, -35.496704], [-59.80592, -35.492032], [-59.800189, -35.488761], [-59.792807, -35.480996], [-59.784395, -35.478649], [-59.781238, -35.476042], [-59.773905, -35.478509], [-59.760632, -35.47923], [-59.756251, -35.475151], [-59.754184, -35.477659], [-59.748309, -35.479364], [-59.740997, -35.476741], [-59.731687, -35.476549], [-59.715619, -35.473202], [-59.712889, -35.475915], [-59.702519, -35.474765], [-59.699334, -35.476767], [-59.694299, -35.474617], [-59.68952, -35.468905], [-59.67044, -35.4698], [-59.651407, -35.465615], [-59.646334, -35.469209], [-59.645554, -35.466424], [-59.639125, -35.463369], [-59.628565, -35.463194], [-59.626762, -35.457902], [-59.620528, -35.451181], [-59.615982, -35.455094], [-59.614937, -35.458199]]]]}}, {"type": "Feature", "properties": {"CCA": "109", "ARA": 4779.39888561, "ARL": 4769.45, "partido": "Veinticinco de Mayo"}, "geometry": {"type": "MultiPolygon", "coordinates": [[[[-59.99738, -35.125641], [-59.991703, -35.129278], [-59.987116, -35.128482], [-59.977033, -35.13077], [-59.974633, -35.132757], [-59.966409, -35.127461], [-59.955012, -35.124643], [-59.953021, -35.121081], [-59.948765, -35.11906], [-59.942341, -35.119566], [-59.937776, -35.117035], [-59.935357, -35.117797], [-59.928573, -35.11577], [-59.92307, -35.117217], [-59.916836, -35.113003], [-59.911626, -35.115494], [-59.906006, -35.114795], [-59.901616, -35.117426], [-59.899412, -35.116209], [-59.898471, -35.119986], [-59.890187, -35.127191], [-59.884222, -35.130358], [-59.881754, -35.129262], [-59.879259, -35.130792], [-59.875379, -35.138117], [-59.8716, -35.141182], [-59.871642, -35.151731], [-59.864548, -35.156795], [-59.855278, -35.155051], [-59.835425, -35.1579], [-59.833512, -35.160799], [-59.833817, -35.163295], [-59.828457, -35.166587], [-59.828556, -35.170029], [-59.825924, -35.174119], [-59.816109, -35.179246], [-59.81047, -35.179116], [-59.804721, -35.176665], [-59.801495, -35.17802], [-59.798775, -35.181616], [-59.793195, -35.182744], [-59.785068, -35.177535], [-59.78221, -35.177434], [-59.777497, -35.172993], [-59.775025, -35.173529], [-59.772423, -35.17879], [-59.764916, -35.181955], [-59.759793, -35.188349], [-59.759877, -35.191453], [-59.762491, -35.195414], [-59.761371, -35.19702], [-59.755889, -35.19851], [-59.747252, -35.195395], [-59.743252, -35.201321], [-59.738989, -35.204186], [-59.736805, -35.209979], [-59.725119, -35.216635], [-59.721433, -35.22256], [-59.706606, -35.218569], [-59.698995, -35.21062], [-59.694963, -35.215133], [-59.686442, -35.216554], [-59.668543, -35.223222], [-59.665832, -35.221485], [-59.6641, -35.216825], [-59.665061, -35.211161], [-59.662001, -35.208997], [-59.644497, -35.207318], [-59.641829, -35.202598], [-59.638745, -35.200815], [-59.638261, -35.198206], [-59.632659, -35.196504], [-59.625578, -35.19998], [-59.620192, -35.199902], [-59.612083, -35.195943], [-59.611217, -35.19278], [-59.60321, -35.185574], [-59.600471, -35.184961], [-59.598609, -35.187142], [-59.586147, -35.18663], [-59.582348, -35.176728], [-59.575097, -35.176685], [-59.572647, -35.179133], [-59.572325, -35.184505], [-59.561997, -35.189238], [-59.54301, -35.204444], [-59.548528, -35.214003], [-59.541738, -35.219624], [-59.541406, -35.222384], [-59.547062, -35.231029], [-59.549295, -35.238185], [-59.555618, -35.243111], [-59.551887, -35.247225], [-59.554157, -35.252164], [-59.551148, -35.256575], [-59.552477, -35.260596], [-59.549786, -35.263473], [-59.549903, -35.267486], [-59.546815, -35.269211], [-59.545443, -35.273377], [-59.536346, -35.274926], [-59.537563, -35.279058], [-59.534878, -35.282069], [-59.52854, -35.282286], [-59.522702, -35.286072], [-59.51105, -35.286433], [-59.505067, -35.288781], [-59.585135, -35.359785], [-59.642749, -35.316413], [-59.713647, -35.3779], [-59.755677, -35.345785], [-59.825083, -35.406599], [-59.779897, -35.441421], [-59.770401, -35.451412], [-59.77532, -35.477928], [-59.781238, -35.476042], [-59.784395, -35.478649], [-59.792807, -35.480996], [-59.800189, -35.488761], [-59.80592, -35.492032], [-59.822597, -35.496623], [-59.829786, -35.497048], [-59.842632, -35.492952], [-59.85175, -35.492582], [-59.858055, -35.488758], [-59.860065, -35.489714], [-59.861372, -35.486846], [-59.881369, -35.483759], [-59.88354, -35.481456], [-59.901495, -35.480637], [-59.906317, -35.483924], [-59.908039, -35.482049], [-59.915457, -35.487098], [-59.930152, -35.488252], [-59.934486, -35.493303], [-59.940162, -35.494435], [-59.944648, -35.498695], [-59.949375, -35.500542], [-59.952934, -35.505376], [-59.959847, -35.506091], [-59.968541, -35.509559], [-59.970015, -35.51368], [-59.972178, -35.515064], [-59.99134, -35.523096], [-59.998224, -35.531928], [-60.004039, -35.529749], [-60.009193, -35.531363], [-60.00898, -35.538096], [-60.01148, -35.543159], [-60.016639, -35.546571], [-60.01957, -35.546195], [-60.021571, -35.549997], [-60.02768, -35.552279], [-60.028698, -35.555161], [-60.025505, -35.558827], [-60.024308, -35.565006], [-60.019038, -35.567509], [-60.014389, -35.574894], [-60.009846, -35.575792], [-60.008409, -35.579737], [-60.010499, -35.585085], [-60.00969, -35.595557], [-60.017064, -35.605786], [-60.02681, -35.612938], [-60.025847, -35.615076], [-60.029966, -35.618454], [-60.030834, -35.623748], [-60.037619, -35.622283], [-60.03954, -35.623916], [-60.03509, -35.626878], [-60.030294, -35.638], [-60.03136, -35.649677], [-60.034692, -35.652291], [-60.034742, -35.655343], [-60.030692, -35.658309], [-60.02662, -35.657507], [-60.023422, -35.654507], [-60.021399, -35.655353], [-60.020284, -35.653657], [-60.017611, -35.653496], [-60.011616, -35.658458], [-60.023973, -35.667069], [-60.024901, -35.669633], [-60.02954, -35.670456], [-60.03696, -35.677579], [-60.037249, -35.680341], [-60.032527, -35.681199], [-60.033014, -35.684984], [-60.027767, -35.685905], [-60.027128, -35.689722], [-60.030598, -35.692172], [-60.031649, -35.695002], [-60.03471, -35.696583], [-60.037376, -35.69495], [-60.045726, -35.696893], [-60.059393, -35.708664], [-60.117179, -35.663873], [-60.219836, -35.7519], [-60.214976, -35.755693], [-60.375528, -35.892603], [-60.380404, -35.888905], [-60.385619, -35.890073], [-60.38815, -35.892247], [-60.38568, -35.893465], [-60.38766, -35.898682], [-60.398933, -35.908656], [-60.397479, -35.909796], [-60.418315, -35.927343], [-60.423257, -35.928122], [-60.432137, -35.934279], [-60.444808, -35.939992], [-60.447434, -35.944906], [-60.45266, -35.944995], [-60.453907, -35.946876], [-60.461554, -35.949176], [-60.465416, -35.955997], [-60.459503, -35.967966], [-60.469483, -35.977402], [-60.470636, -35.980592], [-60.477379, -35.984723], [-60.482497, -35.985776], [-60.483973, -35.989958], [-60.49076, -35.991637], [-60.493111, -35.99523], [-60.501292, -35.98968], [-60.505737, -35.990385], [-60.506841, -35.988608], [-60.515638, -35.984906], [-60.524591, -35.989978], [-60.526648, -35.994841], [-60.531152, -35.998493], [-60.531107, -36.000793], [-60.638298, -35.920453], [-60.69596, -35.96847], [-60.780112, -35.902364], [-60.785894, -35.906746], [-60.868316, -35.839584], [-60.646456, -35.651947], [-60.647524, -35.651057], [-60.44475, -35.474549], [-60.528048, -35.410265], [-60.322618, -35.22954], [-60.260204, -35.277288], [-60.257417, -35.276352], [-60.258644, -35.278242], [-60.236782, -35.295021], [-60.190727, -35.254048], [-60.086941, -35.166138], [-60.083796, -35.163345], [-60.085277, -35.162231], [-60.078089, -35.155864], [-60.076751, -35.156638], [-60.057488, -35.139456], [-60.047831, -35.134537], [-60.019724, -35.108764], [-60.014765, -35.112976], [-60.007609, -35.115366], [-60.004107, -35.121408], [-59.99738, -35.125641]]]]}}]}