{
"type": "FeatureCollection",
"name": "Caminos_Secundarios_Provincia_de_Buenos_Aires_final",
"crs": { "type": "name", "properties": { "name": "urn:ogc:def:crs:OGC:1.3:CRS84" } },
"features": [
{ "type": "Feature", "properties": { "NOMEMCLATURA": "034-01", "PARTIDO": 34, "PARTIDO_NOMBRE": "General Alvear", "DENOMINACION": "Yerbas - Saladillo", "CLASE": "DE TIERRA", "TRANSITABIlIDAD": "TEMPORARIO", "TIPO": "CAMINO", "LONGITUD_KM_ORIG": 17.67, "LONGITUD_KM_WGS84": 17.6697, "N_VERTICES": 8, "N_LINEAS": 1, "DIFF_PCT": -0.0, "ALERTA": "" }, "geometry": { "type": "MultiLineString", "coordinates": [ [ [ -60.02335244, -36.02641953 ], [ -60.03032502, -36.08459377 ], [ -60.03759076, -36.10128339 ], [ -60.04243533, -36.11060946 ], [ -60.05849865, -36.15159524 ], [ -60.06409204, -36.16631049 ], [ -60.06438928, -36.1687311 ], [ -60.06239751, -36.1807562 ] ] ] } },
{ "type": "Feature", "properties": { "NOMEMCLATURA": "034-01", "PARTIDO": 34, "PARTIDO_NOMBRE": "General Alvear", "DENOMINACION": "Yerbas - Saladillo", "CLASE": "DE TIERRA", "TRANSITABIlIDAD": "TEMPORARIO", "TIPO": "CAMINO", "LONGITUD_KM_ORIG": 19.405, "LONGITUD_KM_WGS84": 19.4055, "N_VERTICES": 13, "N_LINEAS": 1, "DIFF_PCT": 0.0, "ALERTA": "" }, "geometry": { "type": "MultiLineString", "coordinates": [ [ [ -59.9387569, -35.87159938 ], [ -59.94312085, -35.87908837 ], [ -59.99371108, -35.96052053 ], [ -60.01765934, -35.98428975 ], [ -60.01875892, -35.98786158 ], [ -60.01771786, -35.98781224 ], [ -60.0162358, -35.98725908 ], [ -60.01381275, -35.98791041 ], [ -60.01251097, -35.98742228 ], [ -60.01185042, -35.98953818 ], [ -60.01459838, -36.01289329 ], [ -60.0218901, -36.01235509 ], [ -60.02227413, -36.01629459 ] ] ] } },
{ "type": "Feature", "properties": { "NOMEMCLATURA": "034-02", "PARTIDO": 34, "PARTIDO_NOMBRE": "General Alvear", "DENOMINACION": "Gral Alvear - Mamaguita", "CLASE": "DE TIERRA", "TRANSITABIlIDAD": "TEMPORARIO", "TIPO": "CAMINO", "LONGITUD_KM_ORIG": 22.315, "LONGITUD_KM_WGS84": 22.3146, "N_VERTICES": 27, "N_LINEAS": 1, "DIFF_PCT": -0.0, "ALERTA": "" }, "geometry": { "type": "MultiLineString", "coordinates": [ [ [ -60.01924895, -35.98777687 ], [ -60.02199823, -35.98712767 ], [ -60.02707259, -35.98677314 ], [ -60.03258197, -35.98671285 ], [ -60.03489967, -35.98205783 ], [ -60.03598496, -35.97757988 ], [ -60.03867724, -35.97237525 ], [ -60.04158218, -35.96998964 ], [ -60.04559863, -35.97001047 ], [ -60.05409634, -35.96355101 ], [ -60.05481982, -35.96178319 ], [ -60.0877135, -35.93703101 ], [ -60.09037058, -35.93395312 ], [ -60.09847136, -35.92351851 ], [ -60.0981433, -35.91742664 ], [ -60.10859332, -35.90972326 ], [ -60.11192381, -35.90907211 ], [ -60.11575826, -35.90641722 ], [ -60.12364622, -35.90275651 ], [ -60.14331674, -35.88806433 ], [ -60.14345942, -35.88688582 ], [ -60.14678757, -35.88564454 ], [ -60.1616082, -35.87513828 ], [ -60.16471866, -35.87401463 ], [ -60.1735846, -35.85662157 ], [ -60.17654119, -35.85178604 ], [ -60.18000944, -35.84936529 ] ] ] } },
{ "type": "Feature", "properties": { "NOMEMCLATURA": "034-03", "PARTIDO": 34, "PARTIDO_NOMBRE": "General Alvear", "DENOMINACION": "J. M. Micheo - RP 51", "CLASE": "DE TIERRA", "TRANSITABIlIDAD": "TEMPORARIO", "TIPO": "CAMINO", "LONGITUD_KM_ORIG": 10.525, "LONGITUD_KM_WGS84": 10.5252, "N_VERTICES": 10, "N_LINEAS": 1, "DIFF_PCT": 0.0, "ALERTA": "" }, "geometry": { "type": "MultiLineString", "coordinates": [ [ [ -59.86588684, -35.91174728 ], [ -59.87805164, -35.90209236 ], [ -59.8796131, -35.90019179 ], [ -59.88066307, -35.90009066 ], [ -59.89156933, -35.90758773 ], [ -59.90201376, -35.89948117 ], [ -59.91755328, -35.91291393 ], [ -59.92785546, -35.89971563 ], [ -59.93532625, -35.88987511 ], [ -59.94107916, -35.88233237 ] ] ] } },
{ "type": "Feature", "properties": { "NOMEMCLATURA": "034-04", "PARTIDO": 34, "PARTIDO_NOMBRE": "General Alvear", "DENOMINACION": "Gral. Alvear - Bolivar", "CLASE": "DE TIERRA", "TRANSITABIlIDAD": "TEMPORARIO", "TIPO": "CAMINO", "LONGITUD_KM_ORIG": 35.362, "LONGITUD_KM_WGS84": 35.3615, "N_VERTICES": 18, "N_LINEAS": 1, "DIFF_PCT": -0.0, "ALERTA": "" }, "geometry": { "type": "MultiLineString", "coordinates": [ [ [ -60.08631991, -36.01570409 ], [ -60.16580353, -36.01674355 ], [ -60.17064722, -36.01935709 ], [ -60.18123619, -36.01541106 ], [ -60.19414522, -36.01857268 ], [ -60.21185805, -36.00843571 ], [ -60.2176237, -36.01085856 ], [ -60.229613, -36.01439237 ], [ -60.25032547, -36.00761294 ], [ -60.25850905, -36.01057567 ], [ -60.26163391, -36.01395246 ], [ -60.28630822, -36.02063407 ], [ -60.29000205, -36.02268402 ], [ -60.3130389, -36.02187744 ], [ -60.36700337, -36.03295436 ], [ -60.37645086, -36.03292507 ], [ -60.41775396, -36.00261906 ], [ -60.43956243, -35.98572804 ] ] ] } },
{ "type": "Feature", "properties": { "NOMEMCLATURA": "034-05", "PARTIDO": 34, "PARTIDO_NOMBRE": "General Alvear", "DENOMINACION": "Gral Alvear - Tapalque", "CLASE": "DE TIERRA", "TRANSITABIlIDAD": "TEMPORARIO", "TIPO": "CAMINO", "LONGITUD_KM_ORIG": 48.399, "LONGITUD_KM_WGS84": 47.4733, "N_VERTICES": 39, "N_LINEAS": 1, "DIFF_PCT": -1.9, "ALERTA": "" }, "geometry": { "type": "MultiLineString", "coordinates": [ [ [ -60.17064722, -36.01935709 ], [ -60.1743446, -36.02440526 ], [ -60.19765293, -36.03934238 ], [ -60.22380548, -36.05679718 ], [ -60.22729199, -36.05780996 ], [ -60.23386263, -36.06164533 ], [ -60.23424477, -36.06350487 ], [ -60.23628892, -36.06485148 ], [ -60.24037331, -36.06619398 ], [ -60.24524633, -36.06875794 ], [ -60.24660263, -36.07087028 ], [ -60.24745165, -36.07135271 ], [ -60.24911296, -36.07061025 ], [ -60.26510955, -36.07641163 ], [ -60.27316203, -36.08110797 ], [ -60.28912672, -36.08570848 ], [ -60.30457945, -36.0986367 ], [ -60.31476703, -36.10871719 ], [ -60.3302487, -36.1191275 ], [ -60.33153979, -36.11882857 ], [ -60.33263133, -36.11869263 ], [ -60.33334201, -36.11888264 ], [ -60.3887487, -36.1438736 ], [ -60.39847048, -36.14983081 ], [ -60.41522343, -36.16169178 ], [ -60.42546853, -36.16074853 ], [ -60.44297891, -36.16820671 ], [ -60.44486343, -36.16954601 ], [ -60.44635394, -36.17141356 ], [ -60.45839765, -36.16305618 ], [ -60.46583789, -36.17002232 ], [ -60.48845693, -36.16208858 ], [ -60.4963155, -36.1663 ], [ -60.50350776, -36.16214331 ], [ -60.52695405, -36.17088108 ], [ -60.52801495, -36.17298363 ], [ -60.54405076, -36.18467717 ], [ -60.54745998, -36.18691519 ], [ -60.59973939, -36.21078054 ] ] ] } },
{ "type": "Feature", "properties": { "NOMEMCLATURA": "034-06", "PARTIDO": 34, "PARTIDO_NOMBRE": "General Alvear", "DENOMINACION": "Yerbas - Emma", "CLASE": "DE TIERRA", "TRANSITABIlIDAD": "TEMPORARIO", "TIPO": "CAMINO", "LONGITUD_KM_ORIG": 18.117, "LONGITUD_KM_WGS84": 18.1166, "N_VERTICES": 10, "N_LINEAS": 1, "DIFF_PCT": -0.0, "ALERTA": "" }, "geometry": { "type": "MultiLineString", "coordinates": [ [ [ -60.0582766, -36.15102898 ], [ -60.07260041, -36.14472469 ], [ -60.1309488, -36.18799476 ], [ -60.14423635, -36.19717867 ], [ -60.15546422, -36.20870128 ], [ -60.15941216, -36.21385077 ], [ -60.1639593, -36.21556285 ], [ -60.17142034, -36.21682512 ], [ -60.18912563, -36.22583506 ], [ -60.21150222, -36.2103336 ] ] ] } },
{ "type": "Feature", "properties": { "NOMEMCLATURA": "034-07", "PARTIDO": 34, "PARTIDO_NOMBRE": "General Alvear", "DENOMINACION": "RN 205 - 25 de Mayo", "CLASE": "DE TIERRA", "TRANSITABIlIDAD": "TEMPORARIO", "TIPO": "CAMINO", "LONGITUD_KM_ORIG": 11.72, "LONGITUD_KM_WGS84": 11.7195, "N_VERTICES": 9, "N_LINEAS": 1, "DIFF_PCT": -0.0, "ALERTA": "" }, "geometry": { "type": "MultiLineString", "coordinates": [ [ [ -60.18657285, -35.7249704 ], [ -60.18008411, -35.75419043 ], [ -60.17748916, -35.76663209 ], [ -60.16481642, -35.78151014 ], [ -60.16173018, -35.78433375 ], [ -60.15952768, -35.78739606 ], [ -60.1449078, -35.804571 ], [ -60.14226461, -35.80895324 ], [ -60.14832387, -35.81998359 ] ] ] } },
{ "type": "Feature", "properties": { "NOMEMCLATURA": "034-08", "PARTIDO": 34, "PARTIDO_NOMBRE": "General Alvear", "DENOMINACION": "Las Flores - Estrugamou", "CLASE": "DE TIERRA", "TRANSITABIlIDAD": "TEMPORARIO", "TIPO": "CAMINO", "LONGITUD_KM_ORIG": 5.388, "LONGITUD_KM_WGS84": 5.3877, "N_VERTICES": 6, "N_LINEAS": 1, "DIFF_PCT": -0.0, "ALERTA": "" }, "geometry": { "type": "MultiLineString", "coordinates": [ [ [ -59.71113841, -35.83388114 ], [ -59.71098153, -35.84111508 ], [ -59.69642784, -35.85437755 ], [ -59.69511983, -35.8546934 ], [ -59.68777756, -35.86084496 ], [ -59.67540063, -35.85134376 ] ] ] } },
{ "type": "Feature", "properties": { "NOMEMCLATURA": "034-09", "PARTIDO": 34, "PARTIDO_NOMBRE": "General Alvear", "DENOMINACION": "RN 205 - Del Valle", "CLASE": "DE TIERRA", "TRANSITABIlIDAD": "TEMPORARIO", "TIPO": "CAMINO", "LONGITUD_KM_ORIG": 4.543, "LONGITUD_KM_WGS84": 4.5424, "N_VERTICES": 7, "N_LINEAS": 1, "DIFF_PCT": -0.0, "ALERTA": "" }, "geometry": { "type": "MultiLineString", "coordinates": [ [ [ -60.57976587, -36.04835761 ], [ -60.57982903, -36.05007774 ], [ -60.5796712, -36.05045794 ], [ -60.56610547, -36.05990044 ], [ -60.56964302, -36.06311769 ], [ -60.55275508, -36.07497856 ], [ -60.55425457, -36.07639118 ] ] ] } },
{ "type": "Feature", "properties": { "NOMEMCLATURA": "041-01", "PARTIDO": 41, "PARTIDO_NOMBRE": "General Las Heras", "DENOMINACION": "", "CLASE": "DE TIERRA", "TRANSITABIlIDAD": "TEMPORARIO", "TIPO": "CAMINO", "LONGITUD_KM_ORIG": 11.081, "LONGITUD_KM_WGS84": 11.0797, "N_VERTICES": 10, "N_LINEAS": 1, "DIFF_PCT": -0.0, "ALERTA": "" }, "geometry": { "type": "MultiLineString", "coordinates": [ [ [ -58.82575855, -35.00728337 ], [ -58.82436433, -35.00614057 ], [ -58.83382473, -34.99925956 ], [ -58.87424651, -34.97248325 ], [ -58.87585029, -34.97215681 ], [ -58.87639797, -34.97108921 ], [ -58.88936971, -34.96233464 ], [ -58.90809303, -34.94836463 ], [ -58.91452771, -34.95437078 ], [ -58.91454443, -34.95435828 ] ] ] } },
{ "type": "Feature", "properties": { "NOMEMCLATURA": "041-01", "PARTIDO": 41, "PARTIDO_NOMBRE": "General Las Heras", "DENOMINACION": "", "CLASE": "PAVIMENTADO", "TRANSITABIlIDAD": "PERMANENTE", "TIPO": "CAMINO", "LONGITUD_KM_ORIG": 3.85, "LONGITUD_KM_WGS84": 3.8497, "N_VERTICES": 4, "N_LINEAS": 1, "DIFF_PCT": -0.0, "ALERTA": "" }, "geometry": { "type": "MultiLineString", "coordinates": [ [ [ -58.91454443, -34.95435828 ], [ -58.94254226, -34.93342413 ], [ -58.94337478, -34.93331729 ], [ -58.94637171, -34.93186028 ] ] ] } },
{ "type": "Feature", "properties": { "NOMEMCLATURA": "041-02", "PARTIDO": 41, "PARTIDO_NOMBRE": "General Las Heras", "DENOMINACION": "RP 48 - RN 205", "CLASE": "DE TIERRA", "TRANSITABIlIDAD": "TEMPORARIO", "TIPO": "CAMINO", "LONGITUD_KM_ORIG": 15.119, "LONGITUD_KM_WGS84": 15.1177, "N_VERTICES": 17, "N_LINEAS": 1, "DIFF_PCT": -0.0, "ALERTA": "" }, "geometry": { "type": "MultiLineString", "coordinates": [ [ [ -58.99732636, -35.00043427 ], [ -58.98944378, -35.00642564 ], [ -58.98997775, -35.00728129 ], [ -58.98211737, -35.01326361 ], [ -58.98580832, -35.01677764 ], [ -58.97438903, -35.0248437 ], [ -58.9736645, -35.02690682 ], [ -58.96830825, -35.03054005 ], [ -58.97646858, -35.03739168 ], [ -58.97990818, -35.04178905 ], [ -58.98316991, -35.04928869 ], [ -58.9651046, -35.0629308 ], [ -58.96399928, -35.06188675 ], [ -58.93251346, -35.08552471 ], [ -58.93333901, -35.08656658 ], [ -58.92858568, -35.09264681 ], [ -58.92413577, -35.09593723 ] ] ] } },
{ "type": "Feature", "properties": { "NOMEMCLATURA": "041-03", "PARTIDO": 41, "PARTIDO_NOMBRE": "General Las Heras", "DENOMINACION": "RP 24 - SEC 041-07", "CLASE": "DE TIERRA", "TRANSITABIlIDAD": "TEMPORARIO", "TIPO": "CAMINO", "LONGITUD_KM_ORIG": 16.876, "LONGITUD_KM_WGS84": 16.8752, "N_VERTICES": 12, "N_LINEAS": 1, "DIFF_PCT": -0.0, "ALERTA": "" }, "geometry": { "type": "MultiLineString", "coordinates": [ [ [ -58.95100612, -34.831619 ], [ -58.99564232, -34.79614245 ], [ -59.00422954, -34.80368758 ], [ -59.00916059, -34.79989855 ], [ -59.01949142, -34.79541718 ], [ -59.02692218, -34.79614569 ], [ -59.04825355, -34.7867662 ], [ -59.05031123, -34.78584584 ], [ -59.05224973, -34.78543847 ], [ -59.08966978, -34.78294646 ], [ -59.10163258, -34.77334858 ], [ -59.10267634, -34.77280791 ] ] ] } },
{ "type": "Feature", "properties": { "NOMEMCLATURA": "041-04", "PARTIDO": 41, "PARTIDO_NOMBRE": "General Las Heras", "DENOMINACION": "RP 42 - Plomer", "CLASE": "DE TIERRA", "TRANSITABIlIDAD": "TEMPORARIO", "TIPO": "CAMINO", "LONGITUD_KM_ORIG": 5.887, "LONGITUD_KM_WGS84": 5.8864, "N_VERTICES": 6, "N_LINEAS": 1, "DIFF_PCT": -0.0, "ALERTA": "" }, "geometry": { "type": "MultiLineString", "coordinates": [ [ [ -59.06764674, -34.83446276 ], [ -59.04845829, -34.81719801 ], [ -59.04741152, -34.8179845 ], [ -59.02729872, -34.8001036 ], [ -59.02748596, -34.79697645 ], [ -59.02692218, -34.79614569 ] ] ] } },
{ "type": "Feature", "properties": { "NOMEMCLATURA": "041-05", "PARTIDO": 41, "PARTIDO_NOMBRE": "General Las Heras", "DENOMINACION": "RP 42 - E. Fyn", "CLASE": "DE TIERRA", "TRANSITABIlIDAD": "TEMPORARIO", "TIPO": "CAMINO", "LONGITUD_KM_ORIG": 5.766, "LONGITUD_KM_WGS84": 5.7651, "N_VERTICES": 5, "N_LINEAS": 1, "DIFF_PCT": -0.0, "ALERTA": "" }, "geometry": { "type": "MultiLineString", "coordinates": [ [ [ -59.1325361, -34.82174115 ], [ -59.11529765, -34.83372776 ], [ -59.10519615, -34.82605611 ], [ -59.09717022, -34.8314809 ], [ -59.08556701, -34.82196845 ] ] ] } },
{ "type": "Feature", "properties": { "NOMEMCLATURA": "041-06", "PARTIDO": 41, "PARTIDO_NOMBRE": "General Las Heras", "DENOMINACION": "RP 42 - RP 24", "CLASE": "DE TIERRA", "TRANSITABIlIDAD": "TEMPORARIO", "TIPO": "CAMINO", "LONGITUD_KM_ORIG": 1.474, "LONGITUD_KM_WGS84": 1.4738, "N_VERTICES": 2, "N_LINEAS": 1, "DIFF_PCT": -0.0, "ALERTA": "" }, "geometry": { "type": "MultiLineString", "coordinates": [ [ [ -59.11113952, -34.78018937 ], [ -59.12226494, -34.78979405 ] ] ] } },
{ "type": "Feature", "properties": { "NOMEMCLATURA": "041-07", "PARTIDO": 41, "PARTIDO_NOMBRE": "General Las Heras", "DENOMINACION": "RP 42 - SEC 041-03", "CLASE": "DE TIERRA", "TRANSITABIlIDAD": "TEMPORARIO", "TIPO": "CAMINO", "LONGITUD_KM_ORIG": 7.57, "LONGITUD_KM_WGS84": 7.5695, "N_VERTICES": 6, "N_LINEAS": 1, "DIFF_PCT": -0.0, "ALERTA": "" }, "geometry": { "type": "MultiLineString", "coordinates": [ [ [ -59.00910774, -34.87962054 ], [ -58.97765325, -34.85296865 ], [ -58.96100105, -34.83651301 ], [ -58.95459636, -34.83330538 ], [ -58.95178782, -34.83223122 ], [ -58.95100612, -34.831619 ] ] ] } },
{ "type": "Feature", "properties": { "NOMEMCLATURA": "041-08", "PARTIDO": 41, "PARTIDO_NOMBRE": "General Las Heras", "DENOMINACION": "RP 24 - SEC 064-07", "CLASE": "DE TIERRA", "TRANSITABIlIDAD": "TEMPORARIO", "TIPO": "CAMINO", "LONGITUD_KM_ORIG": 2.021, "LONGITUD_KM_WGS84": 2.021, "N_VERTICES": 2, "N_LINEAS": 1, "DIFF_PCT": 0.0, "ALERTA": "" }, "geometry": { "type": "MultiLineString", "coordinates": [ [ [ -59.09172039, -34.75357718 ], [ -59.10736288, -34.74072507 ] ] ] } },
{ "type": "Feature", "properties": { "NOMEMCLATURA": "058-00", "PARTIDO": 58, "PARTIDO_NOMBRE": "Las Flores", "DENOMINACION": "", "CLASE": "PAVIMENTADO", "TRANSITABIlIDAD": "PERMANENTE", "TIPO": "CAMINO", "LONGITUD_KM_ORIG": 2.781, "LONGITUD_KM_WGS84": 2.7806, "N_VERTICES": 2, "N_LINEAS": 1, "DIFF_PCT": -0.0, "ALERTA": "" }, "geometry": { "type": "MultiLineString", "coordinates": [ [ [ -59.13017174, -36.0403938 ], [ -59.10905737, -36.02212253 ] ] ] } },
{ "type": "Feature", "properties": { "NOMEMCLATURA": "058-01", "PARTIDO": 58, "PARTIDO_NOMBRE": "Las Flores", "DENOMINACION": "Las Flores - Monte", "CLASE": "DE TIERRA", "TRANSITABIlIDAD": "TEMPORARIO", "TIPO": "CAMINO", "LONGITUD_KM_ORIG": 28.62, "LONGITUD_KM_WGS84": 28.6172, "N_VERTICES": 24, "N_LINEAS": 1, "DIFF_PCT": -0.0, "ALERTA": "" }, "geometry": { "type": "MultiLineString", "coordinates": [ [ [ -59.09850612, -36.00207426 ], [ -59.0808752, -35.98667133 ], [ -59.07577773, -35.99096222 ], [ -59.06984941, -35.98237024 ], [ -59.07083078, -35.95844854 ], [ -59.0654204, -35.92991915 ], [ -59.05582852, -35.92357686 ], [ -59.0466605, -35.90538638 ], [ -59.04452245, -35.89682313 ], [ -59.04315228, -35.89430531 ], [ -59.04293668, -35.88894793 ], [ -59.03708964, -35.87454345 ], [ -59.03701233, -35.87262085 ], [ -59.04287114, -35.86814946 ], [ -59.02421484, -35.85259383 ], [ -59.02445404, -35.85202848 ], [ -59.03476199, -35.85116623 ], [ -59.03577299, -35.85079615 ], [ -59.03088281, -35.83909565 ], [ -59.0293983, -35.84021827 ], [ -59.00805554, -35.82257359 ], [ -59.00130061, -35.81068857 ], [ -58.99666061, -35.80487352 ], [ -58.98945192, -35.80008419 ] ] ] } },
{ "type": "Feature", "properties": { "NOMEMCLATURA": "058-02", "PARTIDO": 58, "PARTIDO_NOMBRE": "Las Flores", "DENOMINACION": "Cnel. Boerr - RN 3", "CLASE": "DE TIERRA", "TRANSITABIlIDAD": "TEMPORARIO", "TIPO": "CAMINO", "LONGITUD_KM_ORIG": 6.734, "LONGITUD_KM_WGS84": 6.7332, "N_VERTICES": 4, "N_LINEAS": 1, "DIFF_PCT": -0.0, "ALERTA": "" }, "geometry": { "type": "MultiLineString", "coordinates": [ [ [ -59.0466605, -35.90538638 ], [ -59.02468854, -35.91535144 ], [ -59.02829261, -35.91845731 ], [ -58.99590395, -35.94291773 ] ] ] } },
{ "type": "Feature", "properties": { "NOMEMCLATURA": "058-03", "PARTIDO": 58, "PARTIDO_NOMBRE": "Las Flores", "DENOMINACION": "Rosas - Real Audiencia", "CLASE": "DE TIERRA", "TRANSITABIlIDAD": "TEMPORARIO", "TIPO": "CAMINO", "LONGITUD_KM_ORIG": 24.994, "LONGITUD_KM_WGS84": 24.991, "N_VERTICES": 18, "N_LINEAS": 1, "DIFF_PCT": -0.0, "ALERTA": "" }, "geometry": { "type": "MultiLineString", "coordinates": [ [ [ -58.74770077, -36.05089505 ], [ -58.75328997, -36.05567272 ], [ -58.75500541, -36.0565269 ], [ -58.75536144, -36.05727734 ], [ -58.75649551, -36.05767742 ], [ -58.77166558, -36.06622722 ], [ -58.7972129, -36.07249015 ], [ -58.80218611, -36.07451136 ], [ -58.80987718, -36.06880192 ], [ -58.83854098, -36.04633446 ], [ -58.88116302, -36.01235284 ], [ -58.90141567, -35.99619164 ], [ -58.91318375, -35.98710179 ], [ -58.9265535, -35.99862678 ], [ -58.92704998, -35.99889722 ], [ -58.92732802, -35.99852844 ], [ -58.93610984, -35.96915487 ], [ -58.93742056, -35.96816631 ] ] ] } },
{ "type": "Feature", "properties": { "NOMEMCLATURA": "058-04", "PARTIDO": 58, "PARTIDO_NOMBRE": "Las Flores", "DENOMINACION": "Newton - Real Audiencia", "CLASE": "DE TIERRA", "TRANSITABIlIDAD": "TEMPORARIO", "TIPO": "CAMINO", "LONGITUD_KM_ORIG": 13.894, "LONGITUD_KM_WGS84": 13.8922, "N_VERTICES": 16, "N_LINEAS": 1, "DIFF_PCT": -0.0, "ALERTA": "" }, "geometry": { "type": "MultiLineString", "coordinates": [ [ [ -58.74770077, -36.05089505 ], [ -58.74462266, -36.04836082 ], [ -58.74587148, -36.04331889 ], [ -58.74795695, -36.04229534 ], [ -58.75492778, -36.02928203 ], [ -58.75372529, -36.02592725 ], [ -58.75501735, -36.01472415 ], [ -58.7585689, -35.99278106 ], [ -58.75944429, -35.99029754 ], [ -58.75723053, -35.98477964 ], [ -58.76090481, -35.96821933 ], [ -58.764533, -35.94699873 ], [ -58.76413106, -35.94377025 ], [ -58.76456778, -35.94045939 ], [ -58.76728268, -35.93825291 ], [ -58.7665887, -35.9311611 ] ] ] } },
{ "type": "Feature", "properties": { "NOMEMCLATURA": "058-05", "PARTIDO": 58, "PARTIDO_NOMBRE": "Las Flores", "DENOMINACION": "Las Flores - Real Audiencia", "CLASE": "DE TIERRA", "TRANSITABIlIDAD": "TEMPORARIO", "TIPO": "CAMINO", "LONGITUD_KM_ORIG": 31.038, "LONGITUD_KM_WGS84": 31.0342, "N_VERTICES": 15, "N_LINEAS": 1, "DIFF_PCT": -0.0, "ALERTA": "" }, "geometry": { "type": "MultiLineString", "coordinates": [ [ [ -59.06531159, -36.01370845 ], [ -59.06097888, -36.01434393 ], [ -59.05542441, -36.01379832 ], [ -59.05064361, -36.01744185 ], [ -59.04167295, -36.00984061 ], [ -58.97908036, -36.05717007 ], [ -58.97913821, -36.05884998 ], [ -58.94714325, -36.08324601 ], [ -58.89980957, -36.12280421 ], [ -58.88077428, -36.10718867 ], [ -58.85788165, -36.09792669 ], [ -58.84942435, -36.09618722 ], [ -58.84030709, -36.0904819 ], [ -58.82774118, -36.08689115 ], [ -58.80239482, -36.07486201 ] ] ] } },
{ "type": "Feature", "properties": { "NOMEMCLATURA": "058-06", "PARTIDO": 58, "PARTIDO_NOMBRE": "Las Flores", "DENOMINACION": "RP 30 - RN 3", "CLASE": "DE TIERRA", "TRANSITABIlIDAD": "TEMPORARIO", "TIPO": "CAMINO", "LONGITUD_KM_ORIG": 29.879, "LONGITUD_KM_WGS84": 29.8782, "N_VERTICES": 17, "N_LINEAS": 1, "DIFF_PCT": -0.0, "ALERTA": "" }, "geometry": { "type": "MultiLineString", "coordinates": [ [ [ -59.14320194, -36.03157278 ], [ -59.16155169, -36.04742741 ], [ -59.18908307, -36.05821401 ], [ -59.19284856, -36.0605184 ], [ -59.22332529, -36.08670001 ], [ -59.23266264, -36.10818242 ], [ -59.25326717, -36.12700009 ], [ -59.25508978, -36.12735328 ], [ -59.27013492, -36.14077779 ], [ -59.27089447, -36.14978427 ], [ -59.27045928, -36.15126294 ], [ -59.31530678, -36.19653698 ], [ -59.31998876, -36.20784441 ], [ -59.32424141, -36.22017475 ], [ -59.32450795, -36.22188545 ], [ -59.32647559, -36.23841877 ], [ -59.32280198, -36.24033512 ] ] ] } },
{ "type": "Feature", "properties": { "NOMEMCLATURA": "058-07", "PARTIDO": 58, "PARTIDO_NOMBRE": "Las Flores", "DENOMINACION": "Prado - RN 3", "CLASE": "PAVIMENTADO", "TRANSITABIlIDAD": "PERMANENTE", "TIPO": "CAMINO", "LONGITUD_KM_ORIG": 2.272, "LONGITUD_KM_WGS84": 2.2721, "N_VERTICES": 2, "N_LINEAS": 1, "DIFF_PCT": 0.0, "ALERTA": "" }, "geometry": { "type": "MultiLineString", "coordinates": [ [ [ -59.34470266, -36.25880131 ], [ -59.36274323, -36.24445711 ] ] ] } },
{ "type": "Feature", "properties": { "NOMEMCLATURA": "058-08", "PARTIDO": 58, "PARTIDO_NOMBRE": "Las Flores", "DENOMINACION": "RP 91 - RP 61", "CLASE": "DE TIERRA", "TRANSITABIlIDAD": "TEMPORARIO", "TIPO": "CAMINO", "LONGITUD_KM_ORIG": 12.098, "LONGITUD_KM_WGS84": 12.0981, "N_VERTICES": 4, "N_LINEAS": 1, "DIFF_PCT": 0.0, "ALERTA": "" }, "geometry": { "type": "MultiLineString", "coordinates": [ [ [ -59.53462066, -35.99258563 ], [ -59.50765769, -36.01300999 ], [ -59.45422426, -36.03922891 ], [ -59.43293417, -36.06172222 ] ] ] } },
{ "type": "Feature", "properties": { "NOMEMCLATURA": "058-08", "PARTIDO": 58, "PARTIDO_NOMBRE": "Las Flores", "DENOMINACION": "RP 91 - Saladillo", "CLASE": "DE TIERRA", "TRANSITABIlIDAD": "TEMPORARIO", "TIPO": "CAMINO", "LONGITUD_KM_ORIG": 20.94, "LONGITUD_KM_WGS84": 20.9398, "N_VERTICES": 12, "N_LINEAS": 1, "DIFF_PCT": -0.0, "ALERTA": "" }, "geometry": { "type": "MultiLineString", "coordinates": [ [ [ -59.28830335, -35.95797314 ], [ -59.30180321, -35.97028645 ], [ -59.30480372, -35.9713677 ], [ -59.31038369, -35.97682541 ], [ -59.34156975, -35.98817079 ], [ -59.3635497, -36.00584253 ], [ -59.37866813, -36.03134717 ], [ -59.38465365, -36.03637799 ], [ -59.43266908, -36.06214649 ], [ -59.44324334, -36.06678827 ], [ -59.46183709, -36.07333318 ], [ -59.46259228, -36.07448697 ] ] ] } },
{ "type": "Feature", "properties": { "NOMEMCLATURA": "058-09", "PARTIDO": 58, "PARTIDO_NOMBRE": "Las Flores", "DENOMINACION": "Estrugamou - J. Blaquier", "CLASE": "DE TIERRA", "TRANSITABIlIDAD": "TEMPORARIO", "TIPO": "CAMINO", "LONGITUD_KM_ORIG": 23.803, "LONGITUD_KM_WGS84": 23.8033, "N_VERTICES": 7, "N_LINEAS": 1, "DIFF_PCT": 0.0, "ALERTA": "" }, "geometry": { "type": "MultiLineString", "coordinates": [ [ [ -59.50273004, -35.9636277 ], [ -59.4757849, -35.94202344 ], [ -59.40857687, -35.88458272 ], [ -59.40194724, -35.87846171 ], [ -59.4006402, -35.87774513 ], [ -59.35210987, -35.83546073 ], [ -59.32925575, -35.80331332 ] ] ] } },
{ "type": "Feature", "properties": { "NOMEMCLATURA": "058-10", "PARTIDO": 58, "PARTIDO_NOMBRE": "Las Flores", "DENOMINACION": "RP 30 - Saladillo", "CLASE": "DE TIERRA", "TRANSITABIlIDAD": "TEMPORARIO", "TIPO": "CAMINO", "LONGITUD_KM_ORIG": 7.873, "LONGITUD_KM_WGS84": 7.8726, "N_VERTICES": 14, "N_LINEAS": 1, "DIFF_PCT": -0.0, "ALERTA": "" }, "geometry": { "type": "MultiLineString", "coordinates": [ [ [ -59.1141743, -35.7887111 ], [ -59.10773105, -35.77695567 ], [ -59.105997, -35.77445764 ], [ -59.09869071, -35.76733424 ], [ -59.09830225, -35.76572979 ], [ -59.0982613, -35.76335479 ], [ -59.09800961, -35.76164091 ], [ -59.09721157, -35.76030951 ], [ -59.09440989, -35.75642265 ], [ -59.09349714, -35.75326792 ], [ -59.09278768, -35.75011471 ], [ -59.09105584, -35.74918449 ], [ -59.08778555, -35.74913804 ], [ -59.06731425, -35.73274473 ] ] ] } },
{ "type": "Feature", "properties": { "NOMEMCLATURA": "058-11", "PARTIDO": 58, "PARTIDO_NOMBRE": "Las Flores", "DENOMINACION": "Estruganou - Saladillo", "CLASE": "DE TIERRA", "TRANSITABIlIDAD": "TEMPORARIO", "TIPO": "CAMINO", "LONGITUD_KM_ORIG": 19.902, "LONGITUD_KM_WGS84": 19.9013, "N_VERTICES": 3, "N_LINEAS": 1, "DIFF_PCT": -0.0, "ALERTA": "" }, "geometry": { "type": "MultiLineString", "coordinates": [ [ [ -59.67540063, -35.85134376 ], [ -59.59668279, -35.91302189 ], [ -59.51639728, -35.97559855 ] ] ] } },
{ "type": "Feature", "properties": { "NOMEMCLATURA": "058-12", "PARTIDO": 58, "PARTIDO_NOMBRE": "Las Flores", "DENOMINACION": "RN 3 - Dr. D. Harosteguy", "CLASE": "DE TIERRA", "TRANSITABIlIDAD": "TEMPORARIO", "TIPO": "CAMINO", "LONGITUD_KM_ORIG": 3.603, "LONGITUD_KM_WGS84": 3.6029, "N_VERTICES": 4, "N_LINEAS": 1, "DIFF_PCT": -0.0, "ALERTA": "" }, "geometry": { "type": "MultiLineString", "coordinates": [ [ [ -59.27015965, -36.15150995 ], [ -59.26883121, -36.15250487 ], [ -59.27030286, -36.1538512 ], [ -59.24396955, -36.1737741 ] ] ] } },
{ "type": "Feature", "properties": { "NOMEMCLATURA": "062-01", "PARTIDO": 62, "PARTIDO_NOMBRE": "Lobos", "DENOMINACION": "Lobos - C. Beguerie", "CLASE": "DE TIERRA", "TRANSITABIlIDAD": "TEMPORARIO", "TIPO": "CAMINO", "LONGITUD_KM_ORIG": 23.135, "LONGITUD_KM_WGS84": 23.1331, "N_VERTICES": 25, "N_LINEAS": 3, "DIFF_PCT": -0.0, "ALERTA": "" }, "geometry": { "type": "MultiLineString", "coordinates": [ [ [ -59.08868001, -35.21037949 ], [ -59.08545002, -35.21731445 ], [ -59.08488359, -35.21999509 ], [ -59.08395701, -35.22130853 ], [ -59.08281261, -35.22461577 ], [ -59.07915723, -35.24623732 ], [ -59.07376372, -35.25516431 ], [ -59.06811691, -35.26785913 ], [ -59.06789424, -35.26905697 ], [ -59.06809075, -35.2701438 ], [ -59.07157945, -35.27571144 ], [ -59.07102276, -35.28176207 ], [ -59.06941452, -35.28837582 ], [ -59.07373295, -35.30680211 ], [ -59.07476575, -35.30789532 ], [ -59.07432633, -35.34033687 ], [ -59.07894315, -35.35122516 ], [ -59.08715508, -35.35877033 ], [ -59.07713287, -35.36326389 ], [ -59.07602767, -35.36234151 ], [ -59.07244231, -35.36488448 ] ], [ [ -59.07244231, -35.36488448 ], [ -59.05887793, -35.3748527 ] ], [ [ -59.07244231, -35.36488448 ], [ -59.07284978, -35.38791312 ] ] ] } },
{ "type": "Feature", "properties": { "NOMEMCLATURA": "062-02", "PARTIDO": 62, "PARTIDO_NOMBRE": "Lobos", "DENOMINACION": "RN 205 - Salvador Maria", "CLASE": "DE TIERRA", "TRANSITABIlIDAD": "TEMPORARIO", "TIPO": "CAMINO", "LONGITUD_KM_ORIG": 13.824, "LONGITUD_KM_WGS84": 13.8233, "N_VERTICES": 5, "N_LINEAS": 1, "DIFF_PCT": -0.0, "ALERTA": "" }, "geometry": { "type": "MultiLineString", "coordinates": [ [ [ -59.28020321, -35.37290139 ], [ -59.27713422, -35.37005234 ], [ -59.17060617, -35.30550606 ], [ -59.16603733, -35.30256142 ], [ -59.15882656, -35.29799802 ] ] ] } },
{ "type": "Feature", "properties": { "NOMEMCLATURA": "062-02", "PARTIDO": 62, "PARTIDO_NOMBRE": "Lobos", "DENOMINACION": "Salvador Maria", "CLASE": "PAVIMENTADO", "TRANSITABIlIDAD": "PERMANENTE", "TIPO": "CAMINO", "LONGITUD_KM_ORIG": 7.221, "LONGITUD_KM_WGS84": 7.2206, "N_VERTICES": 12, "N_LINEAS": 1, "DIFF_PCT": -0.0, "ALERTA": "" }, "geometry": { "type": "MultiLineString", "coordinates": [ [ [ -59.15882656, -35.29799802 ], [ -59.15696402, -35.29669649 ], [ -59.15569505, -35.29542625 ], [ -59.1536664, -35.29323968 ], [ -59.14447507, -35.28133196 ], [ -59.1404567, -35.27696303 ], [ -59.15098212, -35.26961147 ], [ -59.15331493, -35.26631473 ], [ -59.16615284, -35.25732143 ], [ -59.16685621, -35.25664081 ], [ -59.16860294, -35.2560816 ], [ -59.17575665, -35.25110376 ] ] ] } },
{ "type": "Feature", "properties": { "NOMEMCLATURA": "062-03", "PARTIDO": 62, "PARTIDO_NOMBRE": "Lobos", "DENOMINACION": "RN 205 - SEC 062-02", "CLASE": "DE TIERRA", "TRANSITABIlIDAD": "TEMPORARIO", "TIPO": "CAMINO", "LONGITUD_KM_ORIG": 6.064, "LONGITUD_KM_WGS84": 6.0638, "N_VERTICES": 6, "N_LINEAS": 1, "DIFF_PCT": -0.0, "ALERTA": "" }, "geometry": { "type": "MultiLineString", "coordinates": [ [ [ -59.22347251, -35.27872397 ], [ -59.20508319, -35.29288511 ], [ -59.18364544, -35.29771194 ], [ -59.17639153, -35.29846247 ], [ -59.17325572, -35.2984982 ], [ -59.16603733, -35.30256142 ] ] ] } },
{ "type": "Feature", "properties": { "NOMEMCLATURA": "062-04", "PARTIDO": 62, "PARTIDO_NOMBRE": "Lobos", "DENOMINACION": "RN 205 - J. S. Arevalo", "CLASE": "DE TIERRA", "TRANSITABIlIDAD": "TEMPORARIO", "TIPO": "CAMINO", "LONGITUD_KM_ORIG": 12.289, "LONGITUD_KM_WGS84": 12.2777, "N_VERTICES": 11, "N_LINEAS": 1, "DIFF_PCT": -0.1, "ALERTA": "" }, "geometry": { "type": "MultiLineString", "coordinates": [ [ [ -59.24036627, -35.16913876 ], [ -59.24088541, -35.17033764 ], [ -59.21615622, -35.19933319 ], [ -59.21190685, -35.19898227 ], [ -59.19884182, -35.19790604 ], [ -59.19763397, -35.21457797 ], [ -59.18220732, -35.22589931 ], [ -59.17017338, -35.23181529 ], [ -59.16417715, -35.232688 ], [ -59.15881324, -35.23299357 ], [ -59.15267758, -35.23386474 ] ] ] } },
{ "type": "Feature", "properties": { "NOMEMCLATURA": "062-05", "PARTIDO": 62, "PARTIDO_NOMBRE": "Lobos", "DENOMINACION": "RP 41 - SEC 109-07", "CLASE": "DE TIERRA", "TRANSITABIlIDAD": "TEMPORARIO", "TIPO": "CAMINO", "LONGITUD_KM_ORIG": 39.728, "LONGITUD_KM_WGS84": 39.7971, "N_VERTICES": 15, "N_LINEAS": 1, "DIFF_PCT": 0.2, "ALERTA": "" }, "geometry": { "type": "MultiLineString", "coordinates": [ [ [ -59.54969159, -35.26780297 ], [ -59.53725715, -35.26479235 ], [ -59.53188934, -35.26256522 ], [ -59.51105201, -35.25195958 ], [ -59.47991638, -35.24239671 ], [ -59.42050981, -35.22453275 ], [ -59.33002672, -35.19721771 ], [ -59.33059232, -35.19613548 ], [ -59.24279681, -35.16881365 ], [ -59.23688548, -35.1678042 ], [ -59.23647787, -35.16707237 ], [ -59.22629225, -35.16729944 ], [ -59.21663614, -35.16786941 ], [ -59.14537456, -35.16913484 ], [ -59.13923532, -35.1661682 ] ] ] } },
{ "type": "Feature", "properties": { "NOMEMCLATURA": "062-06", "PARTIDO": 62, "PARTIDO_NOMBRE": "Lobos", "DENOMINACION": "Elvira - SEC 075-03", "CLASE": "DE TIERRA", "TRANSITABIlIDAD": "TEMPORARIO", "TIPO": "CAMINO", "LONGITUD_KM_ORIG": 2.402, "LONGITUD_KM_WGS84": 2.4024, "N_VERTICES": 4, "N_LINEAS": 1, "DIFF_PCT": 0.0, "ALERTA": "" }, "geometry": { "type": "MultiLineString", "coordinates": [ [ [ -59.48517429, -35.22128959 ], [ -59.48513243, -35.22134028 ], [ -59.479651, -35.24033911 ], [ -59.47991638, -35.24239671 ] ] ] } },
{ "type": "Feature", "properties": { "NOMEMCLATURA": "062-07", "PARTIDO": 62, "PARTIDO_NOMBRE": "Lobos", "DENOMINACION": "A. Carboni - SEC 075-01", "CLASE": "DE TIERRA", "TRANSITABIlIDAD": "TEMPORARIO", "TIPO": "CAMINO", "LONGITUD_KM_ORIG": 4.991, "LONGITUD_KM_WGS84": 4.9904, "N_VERTICES": 3, "N_LINEAS": 1, "DIFF_PCT": -0.0, "ALERTA": "" }, "geometry": { "type": "MultiLineString", "coordinates": [ [ [ -59.35931281, -35.15783767 ], [ -59.35054533, -35.17018256 ], [ -59.33059232, -35.19613548 ] ] ] } },
{ "type": "Feature", "properties": { "NOMEMCLATURA": "062-08", "PARTIDO": 62, "PARTIDO_NOMBRE": "Lobos", "DENOMINACION": "A. Carboni - RN 205", "CLASE": "DE TIERRA", "TRANSITABIlIDAD": "TEMPORARIO", "TIPO": "CAMINO", "LONGITUD_KM_ORIG": 16.872, "LONGITUD_KM_WGS84": 16.8709, "N_VERTICES": 16, "N_LINEAS": 1, "DIFF_PCT": -0.0, "ALERTA": "" }, "geometry": { "type": "MultiLineString", "coordinates": [ [ [ -59.29987963, -35.33638589 ], [ -59.32146797, -35.31901693 ], [ -59.33087333, -35.31439951 ], [ -59.34565509, -35.30149981 ], [ -59.34491144, -35.29793403 ], [ -59.34795056, -35.29217249 ], [ -59.3481652, -35.28948254 ], [ -59.34934891, -35.2863229 ], [ -59.34820707, -35.28425885 ], [ -59.34674848, -35.27356568 ], [ -59.34625906, -35.26240281 ], [ -59.34111879, -35.2417166 ], [ -59.34867198, -35.22616475 ], [ -59.35301406, -35.21384045 ], [ -59.35190267, -35.20805647 ], [ -59.35203055, -35.20409958 ] ] ] } },
{ "type": "Feature", "properties": { "NOMEMCLATURA": "062-09", "PARTIDO": 62, "PARTIDO_NOMBRE": "Lobos", "DENOMINACION": "", "CLASE": "DE TIERRA", "TRANSITABIlIDAD": "TEMPORARIO", "TIPO": "CAMINO", "LONGITUD_KM_ORIG": 9.169, "LONGITUD_KM_WGS84": 9.1683, "N_VERTICES": 9, "N_LINEAS": 1, "DIFF_PCT": -0.0, "ALERTA": "" }, "geometry": { "type": "MultiLineString", "coordinates": [ [ [ -59.03955945, -35.06041035 ], [ -59.03840642, -35.06215417 ], [ -59.04770075, -35.07039081 ], [ -59.01907247, -35.09228121 ], [ -59.01846223, -35.09317226 ], [ -59.01598398, -35.0998273 ], [ -59.01986281, -35.10366668 ], [ -59.02012356, -35.10465437 ], [ -58.99930344, -35.12046644 ] ] ] } },
{ "type": "Feature", "properties": { "NOMEMCLATURA": "062-10", "PARTIDO": 62, "PARTIDO_NOMBRE": "Lobos", "DENOMINACION": "", "CLASE": "PAVIMENTADO", "TRANSITABIlIDAD": "PERMANENTE", "TIPO": "CAMINO", "LONGITUD_KM_ORIG": 2.752, "LONGITUD_KM_WGS84": 2.752, "N_VERTICES": 2, "N_LINEAS": 1, "DIFF_PCT": 0.0, "ALERTA": "" }, "geometry": { "type": "MultiLineString", "coordinates": [ [ [ -59.06274221, -35.17688749 ], [ -59.0929474, -35.1774158 ] ] ] } },
{ "type": "Feature", "properties": { "NOMEMCLATURA": "062-10", "PARTIDO": 62, "PARTIDO_NOMBRE": "Lobos", "DENOMINACION": "", "CLASE": "DE TIERRA", "TRANSITABIlIDAD": "TEMPORARIO", "TIPO": "CAMINO", "LONGITUD_KM_ORIG": 3.542, "LONGITUD_KM_WGS84": 3.5416, "N_VERTICES": 4, "N_LINEAS": 1, "DIFF_PCT": -0.0, "ALERTA": "" }, "geometry": { "type": "MultiLineString", "coordinates": [ [ [ -59.0929474, -35.1774158 ], [ -59.1084108, -35.17766273 ], [ -59.10811985, -35.19229612 ], [ -59.11162041, -35.19587311 ] ] ] } },
{ "type": "Feature", "properties": { "NOMEMCLATURA": "062-11", "PARTIDO": 62, "PARTIDO_NOMBRE": "Lobos", "DENOMINACION": "", "CLASE": "PAVIMENTADO", "TRANSITABIlIDAD": "PERMANENTE", "TIPO": "CAMINO", "LONGITUD_KM_ORIG": 0.748, "LONGITUD_KM_WGS84": 0.7479, "N_VERTICES": 3, "N_LINEAS": 1, "DIFF_PCT": -0.0, "ALERTA": "" }, "geometry": { "type": "MultiLineString", "coordinates": [ [ [ -59.09290415, -35.17358373 ], [ -59.09647564, -35.17366441 ], [ -59.09638841, -35.17747092 ] ] ] } },
{ "type": "Feature", "properties": { "NOMEMCLATURA": "075-01", "PARTIDO": 75, "PARTIDO_NOMBRE": "Navarro", "DENOMINACION": "RP 40 - SEC 062-07", "CLASE": "DE TIERRA", "TRANSITABIlIDAD": "TEMPORARIO", "TIPO": "CAMINO", "LONGITUD_KM_ORIG": 17.709, "LONGITUD_KM_WGS84": 16.8574, "N_VERTICES": 24, "N_LINEAS": 1, "DIFF_PCT": -4.8, "ALERTA": "" }, "geometry": { "type": "MultiLineString", "coordinates": [ [ [ -59.33514644, -35.05546322 ], [ -59.33176547, -35.06115715 ], [ -59.32619034, -35.07169441 ], [ -59.32596546, -35.07369253 ], [ -59.32440906, -35.07705423 ], [ -59.332989, -35.08155746 ], [ -59.33374642, -35.0824185 ], [ -59.33589228, -35.08345851 ], [ -59.3346215, -35.08590791 ], [ -59.33462362, -35.08671082 ], [ -59.34303496, -35.09838698 ], [ -59.36362476, -35.1186818 ], [ -59.36461003, -35.1171446 ], [ -59.37451298, -35.12222307 ], [ -59.37205557, -35.12574163 ], [ -59.37869888, -35.13261122 ], [ -59.38104469, -35.13385913 ], [ -59.3842373, -35.13772399 ], [ -59.38540597, -35.14030021 ], [ -59.38770683, -35.14192356 ], [ -59.3833815, -35.14816217 ], [ -59.37605028, -35.15778226 ], [ -59.36378375, -35.15187191 ], [ -59.35931281, -35.15783767 ] ] ] } },
{ "type": "Feature", "properties": { "NOMEMCLATURA": "075-02", "PARTIDO": 75, "PARTIDO_NOMBRE": "Navarro", "DENOMINACION": "SEC 075-01 - SEC 075-03", "CLASE": "DE TIERRA", "TRANSITABIlIDAD": "TEMPORARIO", "TIPO": "CAMINO", "LONGITUD_KM_ORIG": 13.9, "LONGITUD_KM_WGS84": 14.0021, "N_VERTICES": 9, "N_LINEAS": 1, "DIFF_PCT": 0.7, "ALERTA": "" }, "geometry": { "type": "MultiLineString", "coordinates": [ [ [ -59.3833815, -35.14816217 ], [ -59.39083819, -35.15206808 ], [ -59.42673984, -35.17012319 ], [ -59.42005645, -35.18060224 ], [ -59.4647893, -35.20262962 ], [ -59.46668477, -35.20012452 ], [ -59.47945179, -35.20612099 ], [ -59.48099492, -35.20424252 ], [ -59.49411025, -35.21046743 ] ] ] } },
{ "type": "Feature", "properties": { "NOMEMCLATURA": "075-03", "PARTIDO": 75, "PARTIDO_NOMBRE": "Navarro", "DENOMINACION": "RP 40 - SEC 062-06", "CLASE": "DE TIERRA", "TRANSITABIlIDAD": "TEMPORARIO", "TIPO": "CAMINO", "LONGITUD_KM_ORIG": 8.395, "LONGITUD_KM_WGS84": 8.3952, "N_VERTICES": 7, "N_LINEAS": 1, "DIFF_PCT": 0.0, "ALERTA": "" }, "geometry": { "type": "MultiLineString", "coordinates": [ [ [ -59.5388815, -35.16183979 ], [ -59.51487678, -35.18075887 ], [ -59.51606627, -35.18211552 ], [ -59.50104999, -35.20202574 ], [ -59.49764782, -35.20590097 ], [ -59.49411025, -35.21046743 ], [ -59.48517429, -35.22128959 ] ] ] } },
{ "type": "Feature", "properties": { "NOMEMCLATURA": "075-04", "PARTIDO": 75, "PARTIDO_NOMBRE": "Navarro", "DENOMINACION": "", "CLASE": "DE TIERRA", "TRANSITABIlIDAD": "TEMPORARIO", "TIPO": "CAMINO", "LONGITUD_KM_ORIG": 12.443, "LONGITUD_KM_WGS84": 12.4429, "N_VERTICES": 8, "N_LINEAS": 1, "DIFF_PCT": -0.0, "ALERTA": "" }, "geometry": { "type": "MultiLineString", "coordinates": [ [ [ -59.66164528, -35.1847636 ], [ -59.63335692, -35.1604349 ], [ -59.61252628, -35.17435836 ], [ -59.60024952, -35.16326106 ], [ -59.59487623, -35.16723987 ], [ -59.59067684, -35.16349554 ], [ -59.58220563, -35.17039415 ], [ -59.55912299, -35.17857206 ] ] ] } },
{ "type": "Feature", "properties": { "NOMEMCLATURA": "075-05", "PARTIDO": 75, "PARTIDO_NOMBRE": "Navarro", "DENOMINACION": "", "CLASE": "DE TIERRA", "TRANSITABIlIDAD": "TEMPORARIO", "TIPO": "CAMINO", "LONGITUD_KM_ORIG": 21.376, "LONGITUD_KM_WGS84": 21.3769, "N_VERTICES": 21, "N_LINEAS": 1, "DIFF_PCT": 0.0, "ALERTA": "" }, "geometry": { "type": "MultiLineString", "coordinates": [ [ [ -59.73861659, -35.204906 ], [ -59.73555215, -35.2016935 ], [ -59.73506507, -35.19814554 ], [ -59.72787276, -35.19176867 ], [ -59.72828159, -35.18899043 ], [ -59.73343506, -35.1849165 ], [ -59.73509928, -35.18475945 ], [ -59.73910582, -35.18185222 ], [ -59.69513788, -35.14225604 ], [ -59.6946427, -35.14143627 ], [ -59.67833993, -35.12720639 ], [ -59.65914829, -35.11037422 ], [ -59.66414493, -35.10643197 ], [ -59.66327481, -35.09599335 ], [ -59.65045644, -35.08531624 ], [ -59.65295541, -35.08307246 ], [ -59.64378033, -35.07486058 ], [ -59.63922205, -35.07368753 ], [ -59.63940689, -35.0693908 ], [ -59.63562082, -35.06255841 ], [ -59.63895025, -35.06004456 ] ] ] } },
{ "type": "Feature", "properties": { "NOMEMCLATURA": "075-06", "PARTIDO": 75, "PARTIDO_NOMBRE": "Navarro", "DENOMINACION": "RP40 - SEC 102-01", "CLASE": "DE TIERRA", "TRANSITABIlIDAD": "TEMPORARIO", "TIPO": "CAMINO", "LONGITUD_KM_ORIG": 24.879, "LONGITUD_KM_WGS84": 24.8787, "N_VERTICES": 14, "N_LINEAS": 1, "DIFF_PCT": -0.0, "ALERTA": "" }, "geometry": { "type": "MultiLineString", "coordinates": [ [ [ -59.45982204, -35.11122037 ], [ -59.47060648, -35.09692688 ], [ -59.46809019, -35.09553219 ], [ -59.49777327, -35.05540989 ], [ -59.49613487, -35.05451789 ], [ -59.50026097, -35.04919357 ], [ -59.53376563, -35.00339691 ], [ -59.53097337, -35.00194594 ], [ -59.54250013, -34.98680888 ], [ -59.55321102, -34.97225879 ], [ -59.55000661, -34.97055802 ], [ -59.57925768, -34.93051476 ], [ -59.57444283, -34.92806309 ], [ -59.57845218, -34.92503917 ] ] ] } },
{ "type": "Feature", "properties": { "NOMEMCLATURA": "075-07", "PARTIDO": 75, "PARTIDO_NOMBRE": "Navarro", "DENOMINACION": "RP 41 - SEC 109-01", "CLASE": "DE TIERRA", "TRANSITABIlIDAD": "TEMPORARIO", "TIPO": "CAMINO", "LONGITUD_KM_ORIG": 24.87, "LONGITUD_KM_WGS84": 24.8691, "N_VERTICES": 12, "N_LINEAS": 1, "DIFF_PCT": -0.0, "ALERTA": "" }, "geometry": { "type": "MultiLineString", "coordinates": [ [ [ -59.34386771, -34.86651791 ], [ -59.37555503, -34.89427286 ], [ -59.37401575, -34.89635698 ], [ -59.39931103, -34.90942797 ], [ -59.42063249, -34.91970792 ], [ -59.42204119, -34.91963323 ], [ -59.42910599, -34.9100173 ], [ -59.45093895, -34.92068293 ], [ -59.4510356, -34.92100895 ], [ -59.51567902, -34.92280995 ], [ -59.54607857, -34.92411392 ], [ -59.57845218, -34.92503917 ] ] ] } },
{ "type": "Feature", "properties": { "NOMEMCLATURA": "075-08", "PARTIDO": 75, "PARTIDO_NOMBRE": "Navarro", "DENOMINACION": "SEC 075-07 - SEC 071-03", "CLASE": "DE TIERRA", "TRANSITABIlIDAD": "TEMPORARIO", "TIPO": "CAMINO", "LONGITUD_KM_ORIG": 5.61, "LONGITUD_KM_WGS84": 5.6099, "N_VERTICES": 4, "N_LINEAS": 1, "DIFF_PCT": -0.0, "ALERTA": "" }, "geometry": { "type": "MultiLineString", "coordinates": [ [ [ -59.42910599, -34.9100173 ], [ -59.42676082, -34.90883006 ], [ -59.44256982, -34.88690654 ], [ -59.4571685, -34.86753942 ] ] ] } },
{ "type": "Feature", "properties": { "NOMEMCLATURA": "075-09", "PARTIDO": 75, "PARTIDO_NOMBRE": "Navarro", "DENOMINACION": "", "CLASE": "DE TIERRA", "TRANSITABIlIDAD": "TEMPORARIO", "TIPO": "CAMINO", "LONGITUD_KM_ORIG": 2.883, "LONGITUD_KM_WGS84": 2.8826, "N_VERTICES": 4, "N_LINEAS": 1, "DIFF_PCT": -0.0, "ALERTA": "" }, "geometry": { "type": "MultiLineString", "coordinates": [ [ [ -59.27719038, -34.99200702 ], [ -59.2738676, -34.99834905 ], [ -59.28486011, -35.00218606 ], [ -59.2803234, -35.01065064 ] ] ] } },
{ "type": "Feature", "properties": { "NOMEMCLATURA": "091-01", "PARTIDO": 91, "PARTIDO_NOMBRE": "Roque Pérez", "DENOMINACION": "Roque Perez - SEC 093-01", "CLASE": "DE TIERRA", "TRANSITABIlIDAD": "TEMPORARIO", "TIPO": "CAMINO", "LONGITUD_KM_ORIG": 16.244, "LONGITUD_KM_WGS84": 16.2834, "N_VERTICES": 9, "N_LINEAS": 1, "DIFF_PCT": 0.2, "ALERTA": "" }, "geometry": { "type": "MultiLineString", "coordinates": [ [ [ -59.48329827, -35.49346313 ], [ -59.48294943, -35.49194661 ], [ -59.48202698, -35.49135619 ], [ -59.47740289, -35.49026107 ], [ -59.44980029, -35.47383863 ], [ -59.43901921, -35.46773412 ], [ -59.4223204, -35.45741996 ], [ -59.41329985, -35.4518463 ], [ -59.33924807, -35.40713736 ] ] ] } },
{ "type": "Feature", "properties": { "NOMEMCLATURA": "091-01", "PARTIDO": 91, "PARTIDO_NOMBRE": "Roque Pérez", "DENOMINACION": "SEC 062-02 - Roque Perez", "CLASE": "DE TIERRA", "TRANSITABIlIDAD": "TEMPORARIO", "TIPO": "CAMINO", "LONGITUD_KM_ORIG": 5.335, "LONGITUD_KM_WGS84": 5.3346, "N_VERTICES": 6, "N_LINEAS": 1, "DIFF_PCT": -0.0, "ALERTA": "" }, "geometry": { "type": "MultiLineString", "coordinates": [ [ [ -59.32804019, -35.40034365 ], [ -59.31246922, -35.39124734 ], [ -59.29718615, -35.38188062 ], [ -59.28946695, -35.37926499 ], [ -59.28246033, -35.37499657 ], [ -59.28020321, -35.37290139 ] ] ] } },
{ "type": "Feature", "properties": { "NOMEMCLATURA": "091-02", "PARTIDO": 91, "PARTIDO_NOMBRE": "Roque Pérez", "DENOMINACION": "SEC 091-01 - RP 30", "CLASE": "DE TIERRA", "TRANSITABIlIDAD": "TEMPORARIO", "TIPO": "CAMINO", "LONGITUD_KM_ORIG": 11.14, "LONGITUD_KM_WGS84": 11.1398, "N_VERTICES": 8, "N_LINEAS": 1, "DIFF_PCT": -0.0, "ALERTA": "" }, "geometry": { "type": "MultiLineString", "coordinates": [ [ [ -59.4223204, -35.45741996 ], [ -59.40635521, -35.46932339 ], [ -59.41288783, -35.47551854 ], [ -59.40913277, -35.47839556 ], [ -59.40873006, -35.48027079 ], [ -59.38787699, -35.49613892 ], [ -59.3824741, -35.50056574 ], [ -59.34778652, -35.52717288 ] ] ] } },
{ "type": "Feature", "properties": { "NOMEMCLATURA": "091-03", "PARTIDO": 91, "PARTIDO_NOMBRE": "Roque Pérez", "DENOMINACION": "RP 30 - SEC 091-04", "CLASE": "DE TIERRA", "TRANSITABIlIDAD": "TEMPORARIO", "TIPO": "CAMINO", "LONGITUD_KM_ORIG": 16.373, "LONGITUD_KM_WGS84": 16.3491, "N_VERTICES": 11, "N_LINEAS": 1, "DIFF_PCT": -0.1, "ALERTA": "" }, "geometry": { "type": "MultiLineString", "coordinates": [ [ [ -59.22253492, -35.56682681 ], [ -59.24546577, -35.55024653 ], [ -59.24628099, -35.53530266 ], [ -59.23265695, -35.52280516 ], [ -59.24838501, -35.51015195 ], [ -59.25631313, -35.51239106 ], [ -59.25746862, -35.51123254 ], [ -59.29877991, -35.48773575 ], [ -59.30710423, -35.48618445 ], [ -59.3122998, -35.48295828 ], [ -59.32234488, -35.47598922 ] ] ] } },
{ "type": "Feature", "properties": { "NOMEMCLATURA": "091-03", "PARTIDO": 91, "PARTIDO_NOMBRE": "Roque Pérez", "DENOMINACION": "SEC 091-04 - SEC 036-05", "CLASE": "DE TIERRA", "TRANSITABIlIDAD": "TEMPORARIO", "TIPO": "CAMINO", "LONGITUD_KM_ORIG": 7.496, "LONGITUD_KM_WGS84": 7.5064, "N_VERTICES": 4, "N_LINEAS": 1, "DIFF_PCT": 0.1, "ALERTA": "" }, "geometry": { "type": "MultiLineString", "coordinates": [ [ [ -59.21985656, -35.5648025 ], [ -59.19958482, -35.58142365 ], [ -59.17968949, -35.56455386 ], [ -59.16176252, -35.57927234 ] ] ] } },
{ "type": "Feature", "properties": { "NOMEMCLATURA": "091-04", "PARTIDO": 91, "PARTIDO_NOMBRE": "Roque Pérez", "DENOMINACION": "RP 20 - RP 30", "CLASE": "DE TIERRA", "TRANSITABIlIDAD": "TEMPORARIO", "TIPO": "CAMINO", "LONGITUD_KM_ORIG": 19.574, "LONGITUD_KM_WGS84": 19.4387, "N_VERTICES": 12, "N_LINEAS": 1, "DIFF_PCT": -0.7, "ALERTA": "" }, "geometry": { "type": "MultiLineString", "coordinates": [ [ [ -59.12538538, -35.48608945 ], [ -59.12780966, -35.48808327 ], [ -59.17625599, -35.5285179 ], [ -59.18037291, -35.53134261 ], [ -59.18173364, -35.53210859 ], [ -59.18288236, -35.53235998 ], [ -59.18189079, -35.53366702 ], [ -59.21985656, -35.5648025 ], [ -59.22253492, -35.56682681 ], [ -59.25055452, -35.58923403 ], [ -59.2633916, -35.6001088 ], [ -59.27526685, -35.60943419 ] ] ] } },
{ "type": "Feature", "properties": { "NOMEMCLATURA": "091-04", "PARTIDO": 91, "PARTIDO_NOMBRE": "Roque Pérez", "DENOMINACION": "SEC 073-07 - RP 20", "CLASE": "DE TIERRA", "TRANSITABIlIDAD": "TEMPORARIO", "TIPO": "CAMINO", "LONGITUD_KM_ORIG": 4.518, "LONGITUD_KM_WGS84": 4.5173, "N_VERTICES": 3, "N_LINEAS": 1, "DIFF_PCT": -0.0, "ALERTA": "" }, "geometry": { "type": "MultiLineString", "coordinates": [ [ [ -59.11576627, -35.47802253 ], [ -59.08325326, -35.45093348 ], [ -59.08270321, -35.44822019 ] ] ] } },
{ "type": "Feature", "properties": { "NOMEMCLATURA": "091-05", "PARTIDO": 91, "PARTIDO_NOMBRE": "Roque Pérez", "DENOMINACION": "SEC 091-04 - SEC 091-03", "CLASE": "DE TIERRA", "TRANSITABIlIDAD": "TEMPORARIO", "TIPO": "CAMINO", "LONGITUD_KM_ORIG": 11.215, "LONGITUD_KM_WGS84": 11.2146, "N_VERTICES": 4, "N_LINEAS": 1, "DIFF_PCT": -0.0, "ALERTA": "" }, "geometry": { "type": "MultiLineString", "coordinates": [ [ [ -59.12780966, -35.48808327 ], [ -59.20129883, -35.50026758 ], [ -59.20276165, -35.50067709 ], [ -59.24838501, -35.51015195 ] ] ] } },
{ "type": "Feature", "properties": { "NOMEMCLATURA": "091-06", "PARTIDO": 91, "PARTIDO_NOMBRE": "Roque Pérez", "DENOMINACION": "RP 30 - SEC 093-14", "CLASE": "DE TIERRA", "TRANSITABIlIDAD": "TEMPORARIO", "TIPO": "CAMINO", "LONGITUD_KM_ORIG": 4.746, "LONGITUD_KM_WGS84": 4.7462, "N_VERTICES": 2, "N_LINEAS": 1, "DIFF_PCT": 0.0, "ALERTA": "" }, "geometry": { "type": "MultiLineString", "coordinates": [ [ [ -59.2545894, -35.69858741 ], [ -59.22823483, -35.66160833 ] ] ] } },
{ "type": "Feature", "properties": { "NOMEMCLATURA": "091-07", "PARTIDO": 91, "PARTIDO_NOMBRE": "Roque Pérez", "DENOMINACION": "RP 30 - SEC 093-03", "CLASE": "DE TIERRA", "TRANSITABIlIDAD": "TEMPORARIO", "TIPO": "CAMINO", "LONGITUD_KM_ORIG": 10.811, "LONGITUD_KM_WGS84": 11.1434, "N_VERTICES": 5, "N_LINEAS": 1, "DIFF_PCT": 3.1, "ALERTA": "" }, "geometry": { "type": "MultiLineString", "coordinates": [ [ [ -59.41271521, -35.58632978 ], [ -59.36786719, -35.6194551 ], [ -59.3478893, -35.60213592 ], [ -59.35061354, -35.60023408 ], [ -59.33082394, -35.58204991 ] ] ] } },
{ "type": "Feature", "properties": { "NOMEMCLATURA": "091-08", "PARTIDO": 91, "PARTIDO_NOMBRE": "Roque Pérez", "DENOMINACION": "RN 205 - SEC 091-01", "CLASE": "DE TIERRA", "TRANSITABIlIDAD": "TEMPORARIO", "TIPO": "CAMINO", "LONGITUD_KM_ORIG": 6.736, "LONGITUD_KM_WGS84": 6.7354, "N_VERTICES": 5, "N_LINEAS": 1, "DIFF_PCT": -0.0, "ALERTA": "" }, "geometry": { "type": "MultiLineString", "coordinates": [ [ [ -59.50631661, -35.43552578 ], [ -59.46950045, -35.46193129 ], [ -59.46614773, -35.46214499 ], [ -59.46467931, -35.46248122 ], [ -59.44980029, -35.47383863 ] ] ] } },
{ "type": "Feature", "properties": { "NOMEMCLATURA": "091-09", "PARTIDO": 91, "PARTIDO_NOMBRE": "Roque Pérez", "DENOMINACION": "RN 205 - SEC 091-10", "CLASE": "DE TIERRA", "TRANSITABIlIDAD": "TEMPORARIO", "TIPO": "CAMINO", "LONGITUD_KM_ORIG": 14.859, "LONGITUD_KM_WGS84": 14.8585, "N_VERTICES": 11, "N_LINEAS": 1, "DIFF_PCT": -0.0, "ALERTA": "" }, "geometry": { "type": "MultiLineString", "coordinates": [ [ [ -59.57412665, -35.45977808 ], [ -59.57389492, -35.45752152 ], [ -59.57464932, -35.4565091 ], [ -59.57825561, -35.44896076 ], [ -59.58015893, -35.43964786 ], [ -59.58168912, -35.43690867 ], [ -59.61183983, -35.41460214 ], [ -59.59889728, -35.40361939 ], [ -59.6173773, -35.38943653 ], [ -59.60972565, -35.38280274 ], [ -59.63788311, -35.36131427 ] ] ] } },
{ "type": "Feature", "properties": { "NOMEMCLATURA": "091-10", "PARTIDO": 91, "PARTIDO_NOMBRE": "Roque Pérez", "DENOMINACION": "RP 30 - SEC 109-06", "CLASE": "DE TIERRA", "TRANSITABIlIDAD": "TEMPORARIO", "TIPO": "CAMINO", "LONGITUD_KM_ORIG": 11.282, "LONGITUD_KM_WGS84": 11.2828, "N_VERTICES": 7, "N_LINEAS": 1, "DIFF_PCT": 0.0, "ALERTA": "" }, "geometry": { "type": "MultiLineString", "coordinates": [ [ [ -59.60712826, -35.33116384 ], [ -59.6144296, -35.33829339 ], [ -59.61365188, -35.33898688 ], [ -59.64521947, -35.36749876 ], [ -59.6469928, -35.36626975 ], [ -59.65946472, -35.38035583 ], [ -59.68940266, -35.35731378 ] ] ] } },
{ "type": "Feature", "properties": { "NOMEMCLATURA": "091-11", "PARTIDO": 91, "PARTIDO_NOMBRE": "Roque Pérez", "DENOMINACION": "RN 205 - RP 30", "CLASE": "DE TIERRA", "TRANSITABIlIDAD": "TEMPORARIO", "TIPO": "CAMINO", "LONGITUD_KM_ORIG": 12.335, "LONGITUD_KM_WGS84": 12.3346, "N_VERTICES": 16, "N_LINEAS": 1, "DIFF_PCT": -0.0, "ALERTA": "" }, "geometry": { "type": "MultiLineString", "coordinates": [ [ [ -59.49830209, -35.33630952 ], [ -59.49990252, -35.33692381 ], [ -59.50181949, -35.33775021 ], [ -59.52392579, -35.34557255 ], [ -59.53405156, -35.35423176 ], [ -59.53474034, -35.35683561 ], [ -59.53052882, -35.36735352 ], [ -59.52888877, -35.36944255 ], [ -59.52496448, -35.3723798 ], [ -59.52190116, -35.37716811 ], [ -59.51958333, -35.37989298 ], [ -59.50498769, -35.39664952 ], [ -59.50088069, -35.39895145 ], [ -59.49591829, -35.40194059 ], [ -59.48784717, -35.40712607 ], [ -59.47967822, -35.41289157 ] ] ] } },
{ "type": "Feature", "properties": { "NOMEMCLATURA": "091-14", "PARTIDO": 91, "PARTIDO_NOMBRE": "Roque Pérez", "DENOMINACION": "", "CLASE": "DE TIERRA", "TRANSITABIlIDAD": "TEMPORARIO", "TIPO": "CAMINO", "LONGITUD_KM_ORIG": 5.727, "LONGITUD_KM_WGS84": 5.7266, "N_VERTICES": 13, "N_LINEAS": 1, "DIFF_PCT": -0.0, "ALERTA": "" }, "geometry": { "type": "MultiLineString", "coordinates": [ [ [ -59.33392186, -35.39634338 ], [ -59.33852993, -35.40043639 ], [ -59.34532494, -35.40646938 ], [ -59.34757576, -35.40475908 ], [ -59.35003662, -35.40293121 ], [ -59.35656334, -35.39810269 ], [ -59.36058411, -35.39504684 ], [ -59.36679201, -35.39425808 ], [ -59.36899044, -35.39302493 ], [ -59.36994553, -35.39184951 ], [ -59.37267626, -35.38814022 ], [ -59.3763318, -35.38318055 ], [ -59.37767493, -35.38144929 ] ] ] } },
{ "type": "Feature", "properties": { "NOMEMCLATURA": "091-??", "PARTIDO": 91, "PARTIDO_NOMBRE": "Roque Pérez", "DENOMINACION": "SEC 091-04 - SEC 036-05", "CLASE": "DE TIERRA", "TRANSITABIlIDAD": "TEMPORARIO", "TIPO": "CAMINO", "LONGITUD_KM_ORIG": 7.625, "LONGITUD_KM_WGS84": 7.6245, "N_VERTICES": 8, "N_LINEAS": 1, "DIFF_PCT": -0.0, "ALERTA": "" }, "geometry": { "type": "MultiLineString", "coordinates": [ [ [ -59.16176252, -35.57927234 ], [ -59.16044021, -35.58035767 ], [ -59.17681505, -35.59269417 ], [ -59.17470086, -35.59427905 ], [ -59.17657076, -35.59606254 ], [ -59.15293825, -35.6154906 ], [ -59.15161894, -35.61456742 ], [ -59.13815294, -35.62548629 ] ] ] } },
{ "type": "Feature", "properties": { "NOMEMCLATURA": "093-01", "PARTIDO": 93, "PARTIDO_NOMBRE": "Saladillo", "DENOMINACION": "", "CLASE": "DE TIERRA", "TRANSITABIlIDAD": "TEMPORARIO", "TIPO": "CAMINO", "LONGITUD_KM_ORIG": 2.813, "LONGITUD_KM_WGS84": 2.8827, "N_VERTICES": 4, "N_LINEAS": 1, "DIFF_PCT": 2.5, "ALERTA": "" }, "geometry": { "type": "MultiLineString", "coordinates": [ [ [ -59.50838332, -35.50882138 ], [ -59.48355982, -35.49461273 ], [ -59.48332283, -35.49429405 ], [ -59.48329827, -35.49346313 ] ] ] } },
{ "type": "Feature", "properties": { "NOMEMCLATURA": "093-01", "PARTIDO": 93, "PARTIDO_NOMBRE": "Saladillo", "DENOMINACION": "", "CLASE": "DE TIERRA", "TRANSITABIlIDAD": "TEMPORARIO", "TIPO": "CAMINO", "LONGITUD_KM_ORIG": 17.268, "LONGITUD_KM_WGS84": 17.2687, "N_VERTICES": 8, "N_LINEAS": 1, "DIFF_PCT": 0.0, "ALERTA": "" }, "geometry": { "type": "MultiLineString", "coordinates": [ [ [ -59.67080906, -35.58066248 ], [ -59.65707719, -35.57561145 ], [ -59.64419255, -35.57073422 ], [ -59.63769528, -35.56392103 ], [ -59.62907518, -35.55885015 ], [ -59.60310998, -35.53493139 ], [ -59.58730853, -35.54736392 ], [ -59.5343813, -35.49950225 ] ] ] } },
{ "type": "Feature", "properties": { "NOMEMCLATURA": "093-01", "PARTIDO": 93, "PARTIDO_NOMBRE": "Saladillo", "DENOMINACION": "", "CLASE": "DE TIERRA", "TRANSITABIlIDAD": "TEMPORARIO", "TIPO": "CAMINO", "LONGITUD_KM_ORIG": 11.284, "LONGITUD_KM_WGS84": 11.2842, "N_VERTICES": 6, "N_LINEAS": 1, "DIFF_PCT": 0.0, "ALERTA": "" }, "geometry": { "type": "MultiLineString", "coordinates": [ [ [ -59.76359727, -35.61475941 ], [ -59.74598687, -35.6276875 ], [ -59.71434174, -35.59615745 ], [ -59.71582865, -35.59460529 ], [ -59.71371916, -35.59269891 ], [ -59.67080906, -35.58066248 ] ] ] } },
{ "type": "Feature", "properties": { "NOMEMCLATURA": "093-02", "PARTIDO": 93, "PARTIDO_NOMBRE": "Saladillo", "DENOMINACION": "RN 205 - Cazon", "CLASE": "PAVIMENTADO", "TRANSITABIlIDAD": "PERMANENTE", "TIPO": "CAMINO", "LONGITUD_KM_ORIG": 4.678, "LONGITUD_KM_WGS84": 5.6362, "N_VERTICES": 3, "N_LINEAS": 1, "DIFF_PCT": 20.5, "ALERTA": "REVISAR" }, "geometry": { "type": "MultiLineString", "coordinates": [ [ [ -59.65697441, -35.57449269 ], [ -59.65399619, -35.57066749 ], [ -59.69806471, -35.54162234 ] ] ] } },
{ "type": "Feature", "properties": { "NOMEMCLATURA": "093-02", "PARTIDO": 93, "PARTIDO_NOMBRE": "Saladillo", "DENOMINACION": "RP 91 - SEC 093-07", "CLASE": "DE TIERRA", "TRANSITABIlIDAD": "TEMPORARIO", "TIPO": "CAMINO", "LONGITUD_KM_ORIG": 12.278, "LONGITUD_KM_WGS84": 12.278, "N_VERTICES": 11, "N_LINEAS": 1, "DIFF_PCT": 0.0, "ALERTA": "" }, "geometry": { "type": "MultiLineString", "coordinates": [ [ [ -59.73804987, -35.82117915 ], [ -59.73223355, -35.81573775 ], [ -59.71960565, -35.80379356 ], [ -59.70672193, -35.79142184 ], [ -59.70242085, -35.78928352 ], [ -59.69812699, -35.78565486 ], [ -59.6894182, -35.77520742 ], [ -59.68329587, -35.77178704 ], [ -59.66660491, -35.76727363 ], [ -59.66231159, -35.76385723 ], [ -59.64870127, -35.74211503 ] ] ] } },
{ "type": "Feature", "properties": { "NOMEMCLATURA": "093-02", "PARTIDO": 93, "PARTIDO_NOMBRE": "Saladillo", "DENOMINACION": "Toledo - RP 91", "CLASE": "DE TIERRA", "TRANSITABIlIDAD": "TEMPORARIO", "TIPO": "CAMINO", "LONGITUD_KM_ORIG": 12.315, "LONGITUD_KM_WGS84": 12.3146, "N_VERTICES": 10, "N_LINEAS": 1, "DIFF_PCT": -0.0, "ALERTA": "" }, "geometry": { "type": "MultiLineString", "coordinates": [ [ [ -59.6282993, -35.64448079 ], [ -59.62740552, -35.64601597 ], [ -59.61961881, -35.65200771 ], [ -59.61567376, -35.66570096 ], [ -59.61718583, -35.67407397 ], [ -59.61454224, -35.68147514 ], [ -59.61527252, -35.69232919 ], [ -59.61129203, -35.70056183 ], [ -59.63249304, -35.71951222 ], [ -59.65276371, -35.73819045 ] ] ] } },
{ "type": "Feature", "properties": { "NOMEMCLATURA": "093-02", "PARTIDO": 93, "PARTIDO_NOMBRE": "Saladillo", "DENOMINACION": "SEC 093-07 - SEC 034-08", "CLASE": "DE TIERRA", "TRANSITABIlIDAD": "TEMPORARIO", "TIPO": "CAMINO", "LONGITUD_KM_ORIG": 2.857, "LONGITUD_KM_WGS84": 2.8568, "N_VERTICES": 3, "N_LINEAS": 1, "DIFF_PCT": -0.0, "ALERTA": "" }, "geometry": { "type": "MultiLineString", "coordinates": [ [ [ -59.73223355, -35.81573775 ], [ -59.71114766, -35.83132787 ], [ -59.71113841, -35.83388114 ] ] ] } },
{ "type": "Feature", "properties": { "NOMEMCLATURA": "093-02", "PARTIDO": 93, "PARTIDO_NOMBRE": "Saladillo", "DENOMINACION": "Cazon - Toledo", "CLASE": "DE TIERRA", "TRANSITABIlIDAD": "TEMPORARIO", "TIPO": "CAMINO", "LONGITUD_KM_ORIG": 9.022, "LONGITUD_KM_WGS84": 8.8385, "N_VERTICES": 15, "N_LINEAS": 1, "DIFF_PCT": -2.0, "ALERTA": "" }, "geometry": { "type": "MultiLineString", "coordinates": [ [ [ -59.65965544, -35.57769685 ], [ -59.65620209, -35.58235024 ], [ -59.65382451, -35.58507308 ], [ -59.65200183, -35.58652557 ], [ -59.64954548, -35.58711717 ], [ -59.64906668, -35.587298 ], [ -59.64890303, -35.5882867 ], [ -59.64864684, -35.5885723 ], [ -59.63668945, -35.59715312 ], [ -59.63668804, -35.59746549 ], [ -59.64945163, -35.60864457 ], [ -59.63071684, -35.62071903 ], [ -59.62534469, -35.62419058 ], [ -59.62880439, -35.62753325 ], [ -59.62459246, -35.63347223 ] ] ] } },
{ "type": "Feature", "properties": { "NOMEMCLATURA": "093-03", "PARTIDO": 93, "PARTIDO_NOMBRE": "Saladillo", "DENOMINACION": "RN 205 - Del Carril", "CLASE": "PAVIMENTADO", "TRANSITABIlIDAD": "PERMANENTE", "TIPO": "CAMINO", "LONGITUD_KM_ORIG": 8.183, "LONGITUD_KM_WGS84": 8.1827, "N_VERTICES": 8, "N_LINEAS": 1, "DIFF_PCT": -0.0, "ALERTA": "" }, "geometry": { "type": "MultiLineString", "coordinates": [ [ [ -59.51592811, -35.51324341 ], [ -59.53419134, -35.49962434 ], [ -59.5343813, -35.49950225 ], [ -59.54528277, -35.49036053 ], [ -59.54909397, -35.48731369 ], [ -59.55311111, -35.48405783 ], [ -59.55625111, -35.48176307 ], [ -59.58187942, -35.46298448 ] ] ] } },
{ "type": "Feature", "properties": { "NOMEMCLATURA": "093-03", "PARTIDO": 93, "PARTIDO_NOMBRE": "Saladillo", "DENOMINACION": "Del Carril - SEC 091-07", "CLASE": "DE TIERRA", "TRANSITABIlIDAD": "TEMPORARIO", "TIPO": "CAMINO", "LONGITUD_KM_ORIG": 12.364, "LONGITUD_KM_WGS84": 12.3639, "N_VERTICES": 10, "N_LINEAS": 1, "DIFF_PCT": -0.0, "ALERTA": "" }, "geometry": { "type": "MultiLineString", "coordinates": [ [ [ -59.51517902, -35.51374432 ], [ -59.48987709, -35.5322355 ], [ -59.47981976, -35.53876482 ], [ -59.44652969, -35.56269123 ], [ -59.44199128, -35.56584346 ], [ -59.43804783, -35.56837745 ], [ -59.42973218, -35.5742708 ], [ -59.4253932, -35.57887194 ], [ -59.42324059, -35.57879268 ], [ -59.41271521, -35.58632978 ] ] ] } },
{ "type": "Feature", "properties": { "NOMEMCLATURA": "093-04", "PARTIDO": 93, "PARTIDO_NOMBRE": "Saladillo", "DENOMINACION": "Polvaderas - SEC 093-14", "CLASE": "DE TIERRA", "TRANSITABIlIDAD": "TEMPORARIO", "TIPO": "CAMINO", "LONGITUD_KM_ORIG": 30.327, "LONGITUD_KM_WGS84": 30.327, "N_VERTICES": 28, "N_LINEAS": 1, "DIFF_PCT": 0.0, "ALERTA": "" }, "geometry": { "type": "MultiLineString", "coordinates": [ [ [ -59.306629, -35.77149002 ], [ -59.34356321, -35.74244843 ], [ -59.35248399, -35.74980115 ], [ -59.36431666, -35.74344911 ], [ -59.36676339, -35.74170191 ], [ -59.36847456, -35.74127744 ], [ -59.38536125, -35.72845304 ], [ -59.38531646, -35.72799308 ], [ -59.37587465, -35.71999771 ], [ -59.37484034, -35.71837671 ], [ -59.37322018, -35.71341632 ], [ -59.40737835, -35.687621 ], [ -59.42706678, -35.66842251 ], [ -59.43322806, -35.66370784 ], [ -59.43826188, -35.65971201 ], [ -59.43891081, -35.65897946 ], [ -59.47538677, -35.64348649 ], [ -59.47663977, -35.64135087 ], [ -59.47715758, -35.63843705 ], [ -59.47957567, -35.63526875 ], [ -59.49093475, -35.62521613 ], [ -59.49264994, -35.62366024 ], [ -59.49549041, -35.61966585 ], [ -59.49820109, -35.61322764 ], [ -59.49924055, -35.61162944 ], [ -59.50028096, -35.60771734 ], [ -59.50030444, -35.59990956 ], [ -59.50460779, -35.59249232 ] ] ] } },
{ "type": "Feature", "properties": { "NOMEMCLATURA": "093-04", "PARTIDO": 93, "PARTIDO_NOMBRE": "Saladillo", "DENOMINACION": "SEC 093-03 - Polvaderas", "CLASE": "DE TIERRA", "TRANSITABIlIDAD": "TEMPORARIO", "TIPO": "CAMINO", "LONGITUD_KM_ORIG": 6.458, "LONGITUD_KM_WGS84": 6.4575, "N_VERTICES": 2, "N_LINEAS": 1, "DIFF_PCT": -0.0, "ALERTA": "" }, "geometry": { "type": "MultiLineString", "coordinates": [ [ [ -59.50321844, -35.5918916 ], [ -59.43804783, -35.56837745 ] ] ] } },
{ "type": "Feature", "properties": { "NOMEMCLATURA": "093-05", "PARTIDO": 93, "PARTIDO_NOMBRE": "Saladillo", "DENOMINACION": "SEC 093-13 - Polvaderas", "CLASE": "PAVIMENTADO", "TRANSITABIlIDAD": "PERMANENTE", "TIPO": "CAMINO", "LONGITUD_KM_ORIG": 22.416, "LONGITUD_KM_WGS84": 22.2073, "N_VERTICES": 19, "N_LINEAS": 1, "DIFF_PCT": -0.9, "ALERTA": "" }, "geometry": { "type": "MultiLineString", "coordinates": [ [ [ -59.72225809, -35.67943124 ], [ -59.71264908, -35.67170189 ], [ -59.71165147, -35.67114485 ], [ -59.70406693, -35.66776589 ], [ -59.69859942, -35.66507693 ], [ -59.6935327, -35.66222561 ], [ -59.6842324, -35.65841687 ], [ -59.6760473, -35.65585024 ], [ -59.64741277, -35.64382835 ], [ -59.64497375, -35.64301208 ], [ -59.63628113, -35.63951857 ], [ -59.63578739, -35.63911252 ], [ -59.63285808, -35.63719646 ], [ -59.63172856, -35.6364995 ], [ -59.62459246, -35.63347223 ], [ -59.61978579, -35.63195454 ], [ -59.61561806, -35.6310518 ], [ -59.50460779, -35.59249232 ], [ -59.50321844, -35.5918916 ] ] ] } },
{ "type": "Feature", "properties": { "NOMEMCLATURA": "093-06", "PARTIDO": 93, "PARTIDO_NOMBRE": "Saladillo", "DENOMINACION": "RP 91 - SEC 034-08", "CLASE": "DE TIERRA", "TRANSITABIlIDAD": "TEMPORARIO", "TIPO": "CAMINO", "LONGITUD_KM_ORIG": 12.702, "LONGITUD_KM_WGS84": 12.6352, "N_VERTICES": 15, "N_LINEAS": 1, "DIFF_PCT": -0.5, "ALERTA": "" }, "geometry": { "type": "MultiLineString", "coordinates": [ [ [ -59.75148779, -35.69574846 ], [ -59.75109549, -35.70316491 ], [ -59.74942827, -35.70576911 ], [ -59.74940862, -35.71204604 ], [ -59.74678522, -35.71715012 ], [ -59.74667343, -35.7231636 ], [ -59.74525025, -35.72584596 ], [ -59.74336567, -35.72773306 ], [ -59.74256498, -35.73151355 ], [ -59.74073833, -35.73693709 ], [ -59.74059536, -35.73810926 ], [ -59.73919509, -35.7549559 ], [ -59.73155652, -35.79119125 ], [ -59.72105188, -35.80103084 ], [ -59.71960565, -35.80379356 ] ] ] } },
{ "type": "Feature", "properties": { "NOMEMCLATURA": "093-07", "PARTIDO": 93, "PARTIDO_NOMBRE": "Saladillo", "DENOMINACION": "SEC 093-02 - SEC 093-08", "CLASE": "DE TIERRA", "TRANSITABIlIDAD": "TEMPORARIO", "TIPO": "CAMINO", "LONGITUD_KM_ORIG": 15.914, "LONGITUD_KM_WGS84": 15.9142, "N_VERTICES": 20, "N_LINEAS": 1, "DIFF_PCT": 0.0, "ALERTA": "" }, "geometry": { "type": "MultiLineString", "coordinates": [ [ [ -59.86437019, -35.73494629 ], [ -59.85211412, -35.74007565 ], [ -59.83967903, -35.74115656 ], [ -59.82853533, -35.74562311 ], [ -59.82339887, -35.75007867 ], [ -59.81329221, -35.75660661 ], [ -59.81261456, -35.75866685 ], [ -59.80873537, -35.76058966 ], [ -59.80613321, -35.76206055 ], [ -59.79799739, -35.76802301 ], [ -59.7974778, -35.77161521 ], [ -59.79658946, -35.77418559 ], [ -59.79254826, -35.77550245 ], [ -59.78643256, -35.78018165 ], [ -59.78958113, -35.78308056 ], [ -59.78338127, -35.78764802 ], [ -59.77779614, -35.78969708 ], [ -59.7769066, -35.79239968 ], [ -59.75394455, -35.8095448 ], [ -59.73804987, -35.82117915 ] ] ] } },
{ "type": "Feature", "properties": { "NOMEMCLATURA": "093-07", "PARTIDO": 93, "PARTIDO_NOMBRE": "Saladillo", "DENOMINACION": "SEC 093-08 - RN 205", "CLASE": "DE TIERRA", "TRANSITABIlIDAD": "TEMPORARIO", "TIPO": "CAMINO", "LONGITUD_KM_ORIG": 26.478, "LONGITUD_KM_WGS84": 26.0807, "N_VERTICES": 20, "N_LINEAS": 1, "DIFF_PCT": -1.5, "ALERTA": "" }, "geometry": { "type": "MultiLineString", "coordinates": [ [ [ -59.86870056, -35.73918716 ], [ -59.87408492, -35.73728291 ], [ -59.88088813, -35.73252425 ], [ -59.88695693, -35.73812777 ], [ -59.89682125, -35.73320085 ], [ -59.91032783, -35.74694109 ], [ -59.94584135, -35.76847868 ], [ -59.95221316, -35.7634365 ], [ -59.98130318, -35.78910667 ], [ -59.98752419, -35.78449322 ], [ -60.01080511, -35.80378247 ], [ -60.02034431, -35.79638709 ], [ -60.02041386, -35.79604668 ], [ -60.02363958, -35.79351204 ], [ -60.01868864, -35.78934093 ], [ -60.01957435, -35.78023732 ], [ -60.02938838, -35.77286006 ], [ -60.03733427, -35.76820329 ], [ -60.03828915, -35.76342499 ], [ -60.059096, -35.7480001 ] ] ] } },
{ "type": "Feature", "properties": { "NOMEMCLATURA": "093-08", "PARTIDO": 93, "PARTIDO_NOMBRE": "Saladillo", "DENOMINACION": "RP 51 - SEC 034-01", "CLASE": "DE TIERRA", "TRANSITABIlIDAD": "TEMPORARIO", "TIPO": "CAMINO", "LONGITUD_KM_ORIG": 25.268, "LONGITUD_KM_WGS84": 25.268, "N_VERTICES": 7, "N_LINEAS": 1, "DIFF_PCT": 0.0, "ALERTA": "" }, "geometry": { "type": "MultiLineString", "coordinates": [ [ [ -59.9387569, -35.87159938 ], [ -59.86934287, -35.74357522 ], [ -59.86843934, -35.74287453 ], [ -59.86437019, -35.73494629 ], [ -59.86381855, -35.73199554 ], [ -59.84092642, -35.68920228 ], [ -59.81757193, -35.66801815 ] ] ] } },
{ "type": "Feature", "properties": { "NOMEMCLATURA": "093-08", "PARTIDO": 93, "PARTIDO_NOMBRE": "Saladillo", "DENOMINACION": "RP 51 - Saladillo", "CLASE": "PAVIMENTADO", "TRANSITABIlIDAD": "PERMANENTE", "TIPO": "CAMINO", "LONGITUD_KM_ORIG": 4.212, "LONGITUD_KM_WGS84": 4.2122, "N_VERTICES": 3, "N_LINEAS": 1, "DIFF_PCT": 0.0, "ALERTA": "" }, "geometry": { "type": "MultiLineString", "coordinates": [ [ [ -59.81403569, -35.66958168 ], [ -59.81192344, -35.66939693 ], [ -59.78219654, -35.64248916 ] ] ] } },
{ "type": "Feature", "properties": { "NOMEMCLATURA": "093-09", "PARTIDO": 93, "PARTIDO_NOMBRE": "Saladillo", "DENOMINACION": "SEC 093-13 - SEC 109-18", "CLASE": "DE TIERRA", "TRANSITABIlIDAD": "TEMPORARIO", "TIPO": "CAMINO", "LONGITUD_KM_ORIG": 21.614, "LONGITUD_KM_WGS84": 21.6144, "N_VERTICES": 25, "N_LINEAS": 1, "DIFF_PCT": 0.0, "ALERTA": "" }, "geometry": { "type": "MultiLineString", "coordinates": [ [ [ -59.85627599, -35.54254002 ], [ -59.87888028, -35.56179505 ], [ -59.89816616, -35.57876001 ], [ -59.92465748, -35.60178534 ], [ -59.92979751, -35.59791471 ], [ -59.94995104, -35.61532099 ], [ -59.95100454, -35.61574569 ], [ -59.95346231, -35.61789811 ], [ -59.95464575, -35.61696194 ], [ -59.96403523, -35.62495499 ], [ -59.97188217, -35.6316897 ], [ -59.97471371, -35.63409042 ], [ -59.97668523, -35.6354372 ], [ -59.97890805, -35.63581811 ], [ -59.98260066, -35.63728217 ], [ -59.98500823, -35.63742607 ], [ -59.99124148, -35.63807338 ], [ -59.99500629, -35.63699063 ], [ -60.00515327, -35.64064929 ], [ -60.00762747, -35.6422297 ], [ -60.01133957, -35.64570608 ], [ -60.01365221, -35.64711714 ], [ -60.02921869, -35.65753423 ], [ -60.03058166, -35.65794366 ], [ -60.03154733, -35.65836298 ] ] ] } },
{ "type": "Feature", "properties": { "NOMEMCLATURA": "093-10", "PARTIDO": 93, "PARTIDO_NOMBRE": "Saladillo", "DENOMINACION": "SEC 109-18 - SEC 109-16", "CLASE": "DE TIERRA", "TRANSITABIlIDAD": "TEMPORARIO", "TIPO": "CAMINO", "LONGITUD_KM_ORIG": 3.756, "LONGITUD_KM_WGS84": 3.7563, "N_VERTICES": 5, "N_LINEAS": 1, "DIFF_PCT": 0.0, "ALERTA": "" }, "geometry": { "type": "MultiLineString", "coordinates": [ [ [ -60.09258566, -35.68375882 ], [ -60.10116149, -35.68661808 ], [ -60.10256007, -35.68614859 ], [ -60.12703669, -35.67924202 ], [ -60.12985561, -35.67605205 ] ] ] } },
{ "type": "Feature", "properties": { "NOMEMCLATURA": "093-11", "PARTIDO": 93, "PARTIDO_NOMBRE": "Saladillo", "DENOMINACION": "SEC 093-09 - Esther", "CLASE": "DE TIERRA", "TRANSITABIlIDAD": "TEMPORARIO", "TIPO": "CAMINO", "LONGITUD_KM_ORIG": 1.885, "LONGITUD_KM_WGS84": 1.8849, "N_VERTICES": 2, "N_LINEAS": 1, "DIFF_PCT": -0.0, "ALERTA": "" }, "geometry": { "type": "MultiLineString", "coordinates": [ [ [ -59.96403523, -35.62495499 ], [ -59.95261762, -35.63915771 ] ] ] } },
{ "type": "Feature", "properties": { "NOMEMCLATURA": "093-12", "PARTIDO": 93, "PARTIDO_NOMBRE": "Saladillo", "DENOMINACION": "SEC 093-13 - SEC 109-05", "CLASE": "DE TIERRA", "TRANSITABIlIDAD": "TEMPORARIO", "TIPO": "CAMINO", "LONGITUD_KM_ORIG": 9.109, "LONGITUD_KM_WGS84": 9.1093, "N_VERTICES": 11, "N_LINEAS": 1, "DIFF_PCT": 0.0, "ALERTA": "" }, "geometry": { "type": "MultiLineString", "coordinates": [ [ [ -59.83282578, -35.5708666 ], [ -59.82442369, -35.5636049 ], [ -59.83335051, -35.54603324 ], [ -59.83373103, -35.53224653 ], [ -59.83210813, -35.52274906 ], [ -59.83226847, -35.5180254 ], [ -59.83207832, -35.5159393 ], [ -59.83573259, -35.50727632 ], [ -59.83942761, -35.49983615 ], [ -59.84068926, -35.49501092 ], [ -59.84011229, -35.49441735 ] ] ] } },
{ "type": "Feature", "properties": { "NOMEMCLATURA": "093-13", "PARTIDO": 93, "PARTIDO_NOMBRE": "Saladillo", "DENOMINACION": "RP 91 - Saladillo", "CLASE": "PAVIMENTADO", "TRANSITABIlIDAD": "PERMANENTE", "TIPO": "CAMINO", "LONGITUD_KM_ORIG": 10.561, "LONGITUD_KM_WGS84": 10.5613, "N_VERTICES": 8, "N_LINEAS": 1, "DIFF_PCT": 0.0, "ALERTA": "" }, "geometry": { "type": "MultiLineString", "coordinates": [ [ [ -59.69372003, -35.70872553 ], [ -59.69685988, -35.70628653 ], [ -59.69781108, -35.69618193 ], [ -59.69846639, -35.69533245 ], [ -59.70983485, -35.68929619 ], [ -59.71427865, -35.68654068 ], [ -59.72582873, -35.67731844 ], [ -59.7726652, -35.64249438 ] ] ] } },
{ "type": "Feature", "properties": { "NOMEMCLATURA": "093-13", "PARTIDO": 93, "PARTIDO_NOMBRE": "Saladillo", "DENOMINACION": "Saladillo - SEC 109-04", "CLASE": "DE TIERRA", "TRANSITABIlIDAD": "TEMPORARIO", "TIPO": "CAMINO", "LONGITUD_KM_ORIG": 20.015, "LONGITUD_KM_WGS84": 20.0147, "N_VERTICES": 30, "N_LINEAS": 1, "DIFF_PCT": -0.0, "ALERTA": "" }, "geometry": { "type": "MultiLineString", "coordinates": [ [ [ -59.93857588, -35.49411128 ], [ -59.93789127, -35.49468517 ], [ -59.93358191, -35.49482158 ], [ -59.91909256, -35.50227163 ], [ -59.9164758, -35.50238946 ], [ -59.90120848, -35.50750789 ], [ -59.89577637, -35.51017462 ], [ -59.89450793, -35.51065196 ], [ -59.88946762, -35.5117771 ], [ -59.88590756, -35.5120263 ], [ -59.8844142, -35.51294266 ], [ -59.87736218, -35.51980588 ], [ -59.875611, -35.52105148 ], [ -59.87302125, -35.52358552 ], [ -59.86413978, -35.52994113 ], [ -59.85627599, -35.54254002 ], [ -59.85487773, -35.54341644 ], [ -59.85314369, -35.54501121 ], [ -59.84756098, -35.54923209 ], [ -59.84827596, -35.54993547 ], [ -59.847306, -35.55148554 ], [ -59.84482631, -35.55526169 ], [ -59.8364273, -35.56449628 ], [ -59.83282578, -35.5708666 ], [ -59.82626152, -35.58291685 ], [ -59.82977187, -35.58579444 ], [ -59.82902966, -35.5875412 ], [ -59.80380321, -35.60639492 ], [ -59.8034142, -35.60564955 ], [ -59.79406396, -35.61262334 ] ] ] } },
{ "type": "Feature", "properties": { "NOMEMCLATURA": "093-13", "PARTIDO": 93, "PARTIDO_NOMBRE": "Saladillo", "DENOMINACION": "", "CLASE": "PAVIMENTADO", "TRANSITABIlIDAD": "PERMANENTE", "TIPO": "CAMINO", "LONGITUD_KM_ORIG": 2.136, "LONGITUD_KM_WGS84": 2.136, "N_VERTICES": 2, "N_LINEAS": 1, "DIFF_PCT": 0.0, "ALERTA": "" }, "geometry": { "type": "MultiLineString", "coordinates": [ [ [ -59.79406396, -35.61262334 ], [ -59.7766523, -35.62560445 ] ] ] } },
{ "type": "Feature", "properties": { "NOMEMCLATURA": "093-14", "PARTIDO": 93, "PARTIDO_NOMBRE": "Saladillo", "DENOMINACION": "SEC 058-09 - SEC 091-06", "CLASE": "SIN ABRIR", "TRANSITABIlIDAD": "TEMPORARIO", "TIPO": "CAMINO", "LONGITUD_KM_ORIG": 3.968, "LONGITUD_KM_WGS84": 3.9676, "N_VERTICES": 2, "N_LINEAS": 1, "DIFF_PCT": -0.0, "ALERTA": "" }, "geometry": { "type": "MultiLineString", "coordinates": [ [ [ -59.32871835, -35.80238855 ], [ -59.306629, -35.77149002 ] ] ] } },
{ "type": "Feature", "properties": { "NOMEMCLATURA": "093-14", "PARTIDO": 93, "PARTIDO_NOMBRE": "Saladillo", "DENOMINACION": "SEC 058-09 - SEC 091-06", "CLASE": "DE TIERRA", "TRANSITABIlIDAD": "TEMPORARIO", "TIPO": "CAMINO", "LONGITUD_KM_ORIG": 9.359, "LONGITUD_KM_WGS84": 9.3591, "N_VERTICES": 2, "N_LINEAS": 1, "DIFF_PCT": 0.0, "ALERTA": "" }, "geometry": { "type": "MultiLineString", "coordinates": [ [ [ -59.306629, -35.77149002 ], [ -59.2545894, -35.69858741 ] ] ] } },
{ "type": "Feature", "properties": { "NOMEMCLATURA": "093-15", "PARTIDO": 93, "PARTIDO_NOMBRE": "Saladillo", "DENOMINACION": "", "CLASE": "PAVIMENTADO", "TRANSITABIlIDAD": "PERMANENTE", "TIPO": "CAMINO", "LONGITUD_KM_ORIG": 6.865, "LONGITUD_KM_WGS84": 6.8651, "N_VERTICES": 6, "N_LINEAS": 2, "DIFF_PCT": 0.0, "ALERTA": "" }, "geometry": { "type": "MultiLineString", "coordinates": [ [ [ -59.77590064, -35.62607445 ], [ -59.75889836, -35.63856644 ], [ -59.77564213, -35.6539969 ], [ -59.7858628, -35.64642697 ] ], [ [ -59.78630766, -35.64621192 ], [ -59.79653356, -35.63856221 ] ] ] } },
{ "type": "Feature", "properties": { "NOMEMCLATURA": "109-01", "PARTIDO": 109, "PARTIDO_NOMBRE": "Veinticinco de Mayo", "DENOMINACION": "RP 61 - SEC 011-01", "CLASE": "DE TIERRA", "TRANSITABIlIDAD": "TEMPORARIO", "TIPO": "CAMINO", "LONGITUD_KM_ORIG": 29.751, "LONGITUD_KM_WGS84": 29.7501, "N_VERTICES": 17, "N_LINEAS": 1, "DIFF_PCT": -0.0, "ALERTA": "" }, "geometry": { "type": "MultiLineString", "coordinates": [ [ [ -60.759654, -35.91858646 ], [ -60.73559455, -35.89985062 ], [ -60.72762597, -35.89301987 ], [ -60.68205045, -35.85774471 ], [ -60.64381522, -35.82455699 ], [ -60.64439042, -35.82324188 ], [ -60.66512733, -35.80732499 ], [ -60.64227217, -35.78753028 ], [ -60.64102361, -35.7870002 ], [ -60.63236577, -35.77983258 ], [ -60.61522399, -35.77434795 ], [ -60.60702567, -35.77051908 ], [ -60.60015201, -35.76590894 ], [ -60.59536968, -35.76144289 ], [ -60.5680612, -35.74098364 ], [ -60.56443459, -35.73836873 ], [ -60.56273429, -35.73961528 ] ] ] } },
{ "type": "Feature", "properties": { "NOMEMCLATURA": "109-01", "PARTIDO": 109, "PARTIDO_NOMBRE": "Veinticinco de Mayo", "DENOMINACION": "Valdes - RP 61", "CLASE": "DE TIERRA", "TRANSITABIlIDAD": "TEMPORARIO", "TIPO": "CAMINO", "LONGITUD_KM_ORIG": 9.863, "LONGITUD_KM_WGS84": 9.8627, "N_VERTICES": 5, "N_LINEAS": 1, "DIFF_PCT": -0.0, "ALERTA": "" }, "geometry": { "type": "MultiLineString", "coordinates": [ [ [ -60.53578501, -35.71372807 ], [ -60.50616507, -35.68289154 ], [ -60.48899589, -35.66809934 ], [ -60.47354407, -35.65457159 ], [ -60.46733675, -35.64497811 ] ] ] } },
{ "type": "Feature", "properties": { "NOMEMCLATURA": "109-01", "PARTIDO": 109, "PARTIDO_NOMBRE": "Veinticinco de Mayo", "DENOMINACION": "25 de Mayo - Valdes", "CLASE": "PAVIMENTADO", "TRANSITABIlIDAD": "PERMANENTE", "TIPO": "CAMINO", "LONGITUD_KM_ORIG": 37.268, "LONGITUD_KM_WGS84": 37.2673, "N_VERTICES": 17, "N_LINEAS": 1, "DIFF_PCT": -0.0, "ALERTA": "" }, "geometry": { "type": "MultiLineString", "coordinates": [ [ [ -60.18080766, -35.41902474 ], [ -60.18617416, -35.41852843 ], [ -60.19347969, -35.41682865 ], [ -60.19827072, -35.4163988 ], [ -60.19951361, -35.41614847 ], [ -60.20096985, -35.41631985 ], [ -60.24287841, -35.45254099 ], [ -60.26146982, -35.4658784 ], [ -60.267728, -35.47464575 ], [ -60.33388715, -35.5334346 ], [ -60.35990357, -35.57260751 ], [ -60.36282271, -35.57716992 ], [ -60.40326926, -35.60583519 ], [ -60.41644874, -35.61676553 ], [ -60.46418375, -35.64073634 ], [ -60.46593113, -35.64202078 ], [ -60.46720929, -35.64421084 ] ] ] } },
{ "type": "Feature", "properties": { "NOMEMCLATURA": "109-02", "PARTIDO": 109, "PARTIDO_NOMBRE": "Veinticinco de Mayo", "DENOMINACION": "25 de Mayo - RP 61", "CLASE": "DE TIERRA", "TRANSITABIlIDAD": "TEMPORARIO", "TIPO": "CAMINO", "LONGITUD_KM_ORIG": 59.6, "LONGITUD_KM_WGS84": 59.5993, "N_VERTICES": 48, "N_LINEAS": 1, "DIFF_PCT": -0.0, "ALERTA": "" }, "geometry": { "type": "MultiLineString", "coordinates": [ [ [ -60.17157004, -35.44626417 ], [ -60.18018145, -35.45343819 ], [ -60.14659338, -35.48054789 ], [ -60.17065779, -35.50092903 ], [ -60.16384347, -35.50613722 ], [ -60.16815249, -35.51003035 ], [ -60.16722967, -35.51591844 ], [ -60.16873141, -35.51859217 ], [ -60.16883165, -35.52180301 ], [ -60.17464121, -35.52714637 ], [ -60.172122, -35.52990226 ], [ -60.17156834, -35.53341983 ], [ -60.16541801, -35.54443747 ], [ -60.16459301, -35.55269537 ], [ -60.16319531, -35.55544952 ], [ -60.16451836, -35.5619461 ], [ -60.16461708, -35.56446886 ], [ -60.16517988, -35.56515615 ], [ -60.16707088, -35.57463351 ], [ -60.16568738, -35.58442118 ], [ -60.1479358, -35.60088125 ], [ -60.16068845, -35.61187384 ], [ -60.13074008, -35.63503332 ], [ -60.13397341, -35.63555525 ], [ -60.13625559, -35.63629523 ], [ -60.13782414, -35.63703598 ], [ -60.16545985, -35.6531451 ], [ -60.1709156, -35.65616046 ], [ -60.21237888, -35.67886427 ], [ -60.21552995, -35.68154159 ], [ -60.21571469, -35.68213111 ], [ -60.21585093, -35.68261061 ], [ -60.21906897, -35.68594677 ], [ -60.22636701, -35.69259515 ], [ -60.22738752, -35.69209776 ], [ -60.24431182, -35.70685216 ], [ -60.25814795, -35.71187618 ], [ -60.27062752, -35.7156863 ], [ -60.27747486, -35.71921816 ], [ -60.2942101, -35.733754 ], [ -60.31059262, -35.74729982 ], [ -60.31361322, -35.7497945 ], [ -60.31447833, -35.75001869 ], [ -60.32363621, -35.7553788 ], [ -60.3369112, -35.76316734 ], [ -60.35355103, -35.77725988 ], [ -60.36342048, -35.7855809 ], [ -60.40717456, -35.82300387 ] ] ] } },
{ "type": "Feature", "properties": { "NOMEMCLATURA": "109-03", "PARTIDO": 109, "PARTIDO_NOMBRE": "Veinticinco de Mayo", "DENOMINACION": "SEC 075-05 - RP 40", "CLASE": "DE TIERRA", "TRANSITABIlIDAD": "TEMPORARIO", "TIPO": "CAMINO", "LONGITUD_KM_ORIG": 7.996, "LONGITUD_KM_WGS84": 7.9961, "N_VERTICES": 7, "N_LINEAS": 1, "DIFF_PCT": 0.0, "ALERTA": "" }, "geometry": { "type": "MultiLineString", "coordinates": [ [ [ -59.76407422, -35.27293941 ], [ -59.75596655, -35.25215031 ], [ -59.75529527, -35.24927446 ], [ -59.75003571, -35.224809 ], [ -59.74832866, -35.21790288 ], [ -59.74764278, -35.21529297 ], [ -59.73861659, -35.204906 ] ] ] } },
{ "type": "Feature", "properties": { "NOMEMCLATURA": "109-03", "PARTIDO": 109, "PARTIDO_NOMBRE": "Veinticinco de Mayo", "DENOMINACION": "RP 51 - 25 de Mayo", "CLASE": "PAVIMENTADO", "TRANSITABIlIDAD": "PERMANENTE", "TIPO": "CAMINO", "LONGITUD_KM_ORIG": 6.976, "LONGITUD_KM_WGS84": 6.9756, "N_VERTICES": 11, "N_LINEAS": 1, "DIFF_PCT": -0.0, "ALERTA": "" }, "geometry": { "type": "MultiLineString", "coordinates": [ [ [ -60.15647089, -35.43309359 ], [ -60.15276086, -35.42995017 ], [ -60.15210899, -35.42961785 ], [ -60.1441917, -35.42926111 ], [ -60.12808905, -35.42619771 ], [ -60.12373335, -35.42573586 ], [ -60.12287866, -35.42575339 ], [ -60.11050184, -35.42295031 ], [ -60.10651189, -35.42187119 ], [ -60.09161088, -35.41720278 ], [ -60.0839377, -35.41535942 ] ] ] } },
{ "type": "Feature", "properties": { "NOMEMCLATURA": "109-03", "PARTIDO": 109, "PARTIDO_NOMBRE": "Veinticinco de Mayo", "DENOMINACION": "RP 40 - RP 51", "CLASE": "DE TIERRA", "TRANSITABIlIDAD": "TEMPORARIO", "TIPO": "CAMINO", "LONGITUD_KM_ORIG": 33.582, "LONGITUD_KM_WGS84": 33.5832, "N_VERTICES": 36, "N_LINEAS": 1, "DIFF_PCT": 0.0, "ALERTA": "" }, "geometry": { "type": "MultiLineString", "coordinates": [ [ [ -60.08313892, -35.4132518 ], [ -60.07705157, -35.41771463 ], [ -60.07375281, -35.41765083 ], [ -60.06045064, -35.41653881 ], [ -60.05658826, -35.41648585 ], [ -60.04926454, -35.4150087 ], [ -60.04649329, -35.41487939 ], [ -60.04249916, -35.41440094 ], [ -60.03901702, -35.41457382 ], [ -60.02863504, -35.41236533 ], [ -60.02734, -35.4117077 ], [ -60.02396889, -35.41126979 ], [ -60.02285259, -35.41095931 ], [ -60.02027373, -35.41015091 ], [ -60.01607634, -35.41039784 ], [ -60.0116903, -35.40955365 ], [ -60.00909718, -35.41036506 ], [ -60.00090789, -35.40681281 ], [ -59.99934529, -35.40588074 ], [ -59.99691212, -35.40558828 ], [ -59.99334065, -35.40357777 ], [ -59.92920064, -35.38782152 ], [ -59.9244507, -35.3837979 ], [ -59.92179324, -35.38564209 ], [ -59.91166046, -35.37947847 ], [ -59.89259244, -35.37629885 ], [ -59.88897868, -35.37541833 ], [ -59.88844354, -35.37512542 ], [ -59.8880647, -35.37475955 ], [ -59.88815487, -35.37410169 ], [ -59.88799968, -35.3733705 ], [ -59.88534778, -35.37093729 ], [ -59.84520758, -35.33529054 ], [ -59.83990043, -35.33077785 ], [ -59.82786535, -35.32017457 ], [ -59.78041326, -35.27873475 ] ] ] } },
{ "type": "Feature", "properties": { "NOMEMCLATURA": "109-04", "PARTIDO": 109, "PARTIDO_NOMBRE": "Veinticinco de Mayo", "DENOMINACION": "RP 51 - SEC 093-13", "CLASE": "DE TIERRA", "TRANSITABIlIDAD": "TEMPORARIO", "TIPO": "CAMINO", "LONGITUD_KM_ORIG": 13.744, "LONGITUD_KM_WGS84": 13.7454, "N_VERTICES": 12, "N_LINEAS": 1, "DIFF_PCT": 0.0, "ALERTA": "" }, "geometry": { "type": "MultiLineString", "coordinates": [ [ [ -59.93857588, -35.49411128 ], [ -59.95536335, -35.48125227 ], [ -59.97588819, -35.4723158 ], [ -59.98017272, -35.4819935 ], [ -59.98013194, -35.48334991 ], [ -59.98676255, -35.48341278 ], [ -59.99904549, -35.49478553 ], [ -60.00938304, -35.48687935 ], [ -60.03400143, -35.50794987 ], [ -60.03516084, -35.51027015 ], [ -60.03742211, -35.51214444 ], [ -60.04408495, -35.51793942 ] ] ] } },
{ "type": "Feature", "properties": { "NOMEMCLATURA": "109-05", "PARTIDO": 109, "PARTIDO_NOMBRE": "Veinticinco de Mayo", "DENOMINACION": "SEC 109-03 - SEC 093-12", "CLASE": "DE TIERRA", "TRANSITABIlIDAD": "TEMPORARIO", "TIPO": "CAMINO", "LONGITUD_KM_ORIG": 14.853, "LONGITUD_KM_WGS84": 14.8536, "N_VERTICES": 23, "N_LINEAS": 1, "DIFF_PCT": 0.0, "ALERTA": "" }, "geometry": { "type": "MultiLineString", "coordinates": [ [ [ -59.84011229, -35.49441735 ], [ -59.83577443, -35.49034515 ], [ -59.83639153, -35.48576164 ], [ -59.85079623, -35.47456796 ], [ -59.85103404, -35.47376737 ], [ -59.85344018, -35.46871647 ], [ -59.86064948, -35.45781641 ], [ -59.86567255, -35.44125205 ], [ -59.87329038, -35.42540821 ], [ -59.87672605, -35.41397671 ], [ -59.8766275, -35.4138816 ], [ -59.87486721, -35.4121827 ], [ -59.87466068, -35.41197788 ], [ -59.8746093, -35.41176616 ], [ -59.87466134, -35.41155455 ], [ -59.8748426, -35.41137835 ], [ -59.87911942, -35.40818123 ], [ -59.8808767, -35.40602885 ], [ -59.88239636, -35.40484281 ], [ -59.88481117, -35.39087093 ], [ -59.88592914, -35.3873094 ], [ -59.88585125, -35.37784614 ], [ -59.88897868, -35.37541833 ] ] ] } },
{ "type": "Feature", "properties": { "NOMEMCLATURA": "109-06", "PARTIDO": 109, "PARTIDO_NOMBRE": "Veinticinco de Mayo", "DENOMINACION": "de la Riestra - SEC 093-10", "CLASE": "DE TIERRA", "TRANSITABIlIDAD": "TEMPORARIO", "TIPO": "CAMINO", "LONGITUD_KM_ORIG": 15.294, "LONGITUD_KM_WGS84": 15.294, "N_VERTICES": 10, "N_LINEAS": 1, "DIFF_PCT": 0.0, "ALERTA": "" }, "geometry": { "type": "MultiLineString", "coordinates": [ [ [ -59.68940266, -35.35731378 ], [ -59.74330773, -35.31698408 ], [ -59.75225468, -35.3247931 ], [ -59.77507016, -35.30737667 ], [ -59.7594485, -35.29417242 ], [ -59.76288345, -35.2916058 ], [ -59.75968123, -35.28867112 ], [ -59.76625711, -35.28404779 ], [ -59.76418393, -35.28206269 ], [ -59.7696449, -35.2782032 ] ] ] } },
{ "type": "Feature", "properties": { "NOMEMCLATURA": "109-06", "PARTIDO": 109, "PARTIDO_NOMBRE": "Veinticinco de Mayo", "DENOMINACION": "SEC 109-09 - RP 40", "CLASE": "DE TIERRA", "TRANSITABIlIDAD": "TEMPORARIO", "TIPO": "CAMINO", "LONGITUD_KM_ORIG": 21.407, "LONGITUD_KM_WGS84": 21.4069, "N_VERTICES": 26, "N_LINEAS": 1, "DIFF_PCT": -0.0, "ALERTA": "" }, "geometry": { "type": "MultiLineString", "coordinates": [ [ [ -59.80798688, -35.27155294 ], [ -59.80890392, -35.26482135 ], [ -59.80810868, -35.26111233 ], [ -59.8071998, -35.25902195 ], [ -59.80723998, -35.25864022 ], [ -59.81434661, -35.25283316 ], [ -59.81619908, -35.2500066 ], [ -59.82111297, -35.24666652 ], [ -59.82293328, -35.2459229 ], [ -59.82315894, -35.24403939 ], [ -59.82765204, -35.2326486 ], [ -59.8390337, -35.22433548 ], [ -59.85026449, -35.21757527 ], [ -59.84929506, -35.21661765 ], [ -59.86990855, -35.20149825 ], [ -59.87106802, -35.20247963 ], [ -59.88268886, -35.19354112 ], [ -59.88412912, -35.19076383 ], [ -59.88543807, -35.18964072 ], [ -59.89279633, -35.18601866 ], [ -59.9030476, -35.17845561 ], [ -59.91443971, -35.16908985 ], [ -59.91601542, -35.17029583 ], [ -59.93665394, -35.15444762 ], [ -59.94087635, -35.15317451 ], [ -59.96060345, -35.14067683 ] ] ] } },
{ "type": "Feature", "properties": { "NOMEMCLATURA": "109-07", "PARTIDO": 109, "PARTIDO_NOMBRE": "Veinticinco de Mayo", "DENOMINACION": "RP 40 - SEC 062-05", "CLASE": "DE TIERRA", "TRANSITABIlIDAD": "TEMPORARIO", "TIPO": "CAMINO", "LONGITUD_KM_ORIG": 6.377, "LONGITUD_KM_WGS84": 6.3769, "N_VERTICES": 6, "N_LINEAS": 1, "DIFF_PCT": -0.0, "ALERTA": "" }, "geometry": { "type": "MultiLineString", "coordinates": [ [ [ -59.54969159, -35.26780297 ], [ -59.55660065, -35.26947514 ], [ -59.56515633, -35.27202448 ], [ -59.57053464, -35.27255288 ], [ -59.57571137, -35.27206196 ], [ -59.61857249, -35.26796143 ] ] ] } },
{ "type": "Feature", "properties": { "NOMEMCLATURA": "109-08", "PARTIDO": 109, "PARTIDO_NOMBRE": "Veinticinco de Mayo", "DENOMINACION": "SEC 109-07 - Limite partido", "CLASE": "DE TIERRA", "TRANSITABIlIDAD": "TEMPORARIO", "TIPO": "CAMINO", "LONGITUD_KM_ORIG": 8.461, "LONGITUD_KM_WGS84": 8.4609, "N_VERTICES": 10, "N_LINEAS": 1, "DIFF_PCT": -0.0, "ALERTA": "" }, "geometry": { "type": "MultiLineString", "coordinates": [ [ [ -59.55660065, -35.26947514 ], [ -59.55577303, -35.27200824 ], [ -59.55380965, -35.27386974 ], [ -59.55075001, -35.27772936 ], [ -59.54174, -35.29753964 ], [ -59.54210586, -35.30003265 ], [ -59.53982416, -35.30042443 ], [ -59.54030581, -35.30162758 ], [ -59.53830255, -35.31955607 ], [ -59.5567215, -35.33520071 ] ] ] } },
{ "type": "Feature", "properties": { "NOMEMCLATURA": "109-09", "PARTIDO": 109, "PARTIDO_NOMBRE": "Veinticinco de Mayo", "DENOMINACION": "RP 51 - SEC 028-04", "CLASE": "DE TIERRA", "TRANSITABIlIDAD": "TEMPORARIO", "TIPO": "CAMINO", "LONGITUD_KM_ORIG": 30.201, "LONGITUD_KM_WGS84": 30.2015, "N_VERTICES": 24, "N_LINEAS": 1, "DIFF_PCT": 0.0, "ALERTA": "" }, "geometry": { "type": "MultiLineString", "coordinates": [ [ [ -59.95473046, -35.12523752 ], [ -59.95372541, -35.12688707 ], [ -59.95363119, -35.13206181 ], [ -59.95436035, -35.13416199 ], [ -59.96060345, -35.14067683 ], [ -59.96437247, -35.15133145 ], [ -59.96459844, -35.15582416 ], [ -59.96541724, -35.17992411 ], [ -59.97308406, -35.18658118 ], [ -59.96905388, -35.18972844 ], [ -59.9698782, -35.19223926 ], [ -59.97733608, -35.19841089 ], [ -59.98143106, -35.20435588 ], [ -59.98738192, -35.21816381 ], [ -59.9892561, -35.22297023 ], [ -59.99282085, -35.2304218 ], [ -59.99452365, -35.23425868 ], [ -59.99801391, -35.24390233 ], [ -59.98815166, -35.2513832 ], [ -60.01430827, -35.27469522 ], [ -60.01476507, -35.27619269 ], [ -60.06456298, -35.32091456 ], [ -60.06228134, -35.32391077 ], [ -60.09222705, -35.34597981 ] ] ] } },
{ "type": "Feature", "properties": { "NOMEMCLATURA": "109-10", "PARTIDO": 109, "PARTIDO_NOMBRE": "Veinticinco de Mayo", "DENOMINACION": "SEC 109-09 - Gdor Ugarte", "CLASE": "DE TIERRA", "TRANSITABIlIDAD": "TEMPORARIO", "TIPO": "CAMINO", "LONGITUD_KM_ORIG": 12.794, "LONGITUD_KM_WGS84": 12.9073, "N_VERTICES": 15, "N_LINEAS": 1, "DIFF_PCT": 0.9, "ALERTA": "" }, "geometry": { "type": "MultiLineString", "coordinates": [ [ [ -59.98738192, -35.21816381 ], [ -60.00381668, -35.21378404 ], [ -60.00631447, -35.21573081 ], [ -60.02173899, -35.20429531 ], [ -60.02100726, -35.20357492 ], [ -60.03716851, -35.19114206 ], [ -60.03692547, -35.19065278 ], [ -60.05434997, -35.17741527 ], [ -60.06298329, -35.18536721 ], [ -60.06744188, -35.18200238 ], [ -60.06861197, -35.18194168 ], [ -60.07963739, -35.17362432 ], [ -60.07798522, -35.17219859 ], [ -60.08564064, -35.1663434 ], [ -60.08261764, -35.16360464 ] ] ] } },
{ "type": "Feature", "properties": { "NOMEMCLATURA": "109-11", "PARTIDO": 109, "PARTIDO_NOMBRE": "Veinticinco de Mayo", "DENOMINACION": "RP 51 - SEC 002-03", "CLASE": "DE TIERRA", "TRANSITABIlIDAD": "TEMPORARIO", "TIPO": "CAMINO", "LONGITUD_KM_ORIG": 5.778, "LONGITUD_KM_WGS84": 5.7781, "N_VERTICES": 2, "N_LINEAS": 1, "DIFF_PCT": 0.0, "ALERTA": "" }, "geometry": { "type": "MultiLineString", "coordinates": [ [ [ -60.15322788, -35.22300773 ], [ -60.10673153, -35.2584662 ] ] ] } },
{ "type": "Feature", "properties": { "NOMEMCLATURA": "109-12", "PARTIDO": 109, "PARTIDO_NOMBRE": "Veinticinco de Mayo", "DENOMINACION": "RP 46 - SEC 002-03", "CLASE": "DE TIERRA", "TRANSITABIlIDAD": "TEMPORARIO", "TIPO": "CAMINO", "LONGITUD_KM_ORIG": 5.07, "LONGITUD_KM_WGS84": 5.1066, "N_VERTICES": 6, "N_LINEAS": 1, "DIFF_PCT": 0.7, "ALERTA": "" }, "geometry": { "type": "MultiLineString", "coordinates": [ [ [ -60.27322839, -35.32619426 ], [ -60.25293941, -35.30858678 ], [ -60.25417692, -35.30666985 ], [ -60.25435367, -35.30595601 ], [ -60.25180186, -35.2996672 ], [ -60.24393406, -35.28921328 ] ] ] } },
{ "type": "Feature", "properties": { "NOMEMCLATURA": "109-13", "PARTIDO": 109, "PARTIDO_NOMBRE": "Veinticinco de Mayo", "DENOMINACION": "RP 40 - SEC 012-03", "CLASE": "DE TIERRA", "TRANSITABIlIDAD": "TEMPORARIO", "TIPO": "CAMINO", "LONGITUD_KM_ORIG": 24.183, "LONGITUD_KM_WGS84": 24.1822, "N_VERTICES": 20, "N_LINEAS": 1, "DIFF_PCT": -0.0, "ALERTA": "" }, "geometry": { "type": "MultiLineString", "coordinates": [ [ [ -60.26364988, -35.44048648 ], [ -60.28719506, -35.42369109 ], [ -60.29356429, -35.41308388 ], [ -60.29885917, -35.40820889 ], [ -60.30410664, -35.40495796 ], [ -60.31367741, -35.40469955 ], [ -60.32351013, -35.39681251 ], [ -60.33021626, -35.40213884 ], [ -60.33846424, -35.39979793 ], [ -60.34199416, -35.39766307 ], [ -60.34842048, -35.3924934 ], [ -60.3687886, -35.41007614 ], [ -60.37669193, -35.40355452 ], [ -60.37403401, -35.40030238 ], [ -60.37558202, -35.39943066 ], [ -60.38239743, -35.39789303 ], [ -60.38307506, -35.39770081 ], [ -60.38385566, -35.39663103 ], [ -60.4275033, -35.35798323 ], [ -60.44460603, -35.33770255 ] ] ] } },
{ "type": "Feature", "properties": { "NOMEMCLATURA": "109-14", "PARTIDO": 109, "PARTIDO_NOMBRE": "Veinticinco de Mayo", "DENOMINACION": "Valdes - Morea", "CLASE": "DE TIERRA", "TRANSITABIlIDAD": "TEMPORARIO", "TIPO": "CAMINO", "LONGITUD_KM_ORIG": 13.478, "LONGITUD_KM_WGS84": 13.5634, "N_VERTICES": 10, "N_LINEAS": 1, "DIFF_PCT": 0.6, "ALERTA": "" }, "geometry": { "type": "MultiLineString", "coordinates": [ [ [ -60.58244388, -35.5747679 ], [ -60.5700763, -35.5847889 ], [ -60.52901141, -35.61643861 ], [ -60.52673086, -35.61457137 ], [ -60.52369343, -35.61606122 ], [ -60.52022417, -35.61800369 ], [ -60.5176253, -35.6190411 ], [ -60.50530523, -35.62923045 ], [ -60.49657881, -35.6359747 ], [ -60.47354407, -35.65457159 ] ] ] } },
{ "type": "Feature", "properties": { "NOMEMCLATURA": "109-15", "PARTIDO": 109, "PARTIDO_NOMBRE": "Veinticinco de Mayo", "DENOMINACION": "SEC 109-01 - SEC 034-07", "CLASE": "DE TIERRA", "TRANSITABIlIDAD": "TEMPORARIO", "TIPO": "CAMINO", "LONGITUD_KM_ORIG": 23.727, "LONGITUD_KM_WGS84": 23.7266, "N_VERTICES": 13, "N_LINEAS": 1, "DIFF_PCT": -0.0, "ALERTA": "" }, "geometry": { "type": "MultiLineString", "coordinates": [ [ [ -60.35990357, -35.57260751 ], [ -60.35255409, -35.57823336 ], [ -60.33010765, -35.59541509 ], [ -60.32702126, -35.59586573 ], [ -60.2470509, -35.65693314 ], [ -60.23352748, -35.66819947 ], [ -60.21613703, -35.68180911 ], [ -60.21571469, -35.68213111 ], [ -60.19498799, -35.69851493 ], [ -60.18831313, -35.70398078 ], [ -60.18919878, -35.71822548 ], [ -60.1886081, -35.72069341 ], [ -60.18657285, -35.7249704 ] ] ] } },
{ "type": "Feature", "properties": { "NOMEMCLATURA": "109-16", "PARTIDO": 109, "PARTIDO_NOMBRE": "Veinticinco de Mayo", "DENOMINACION": "SEC 109-15 - SEC 093-10", "CLASE": "DE TIERRA", "TRANSITABIlIDAD": "TEMPORARIO", "TIPO": "CAMINO", "LONGITUD_KM_ORIG": 8.659, "LONGITUD_KM_WGS84": 8.6591, "N_VERTICES": 5, "N_LINEAS": 1, "DIFF_PCT": 0.0, "ALERTA": "" }, "geometry": { "type": "MultiLineString", "coordinates": [ [ [ -60.12985561, -35.67605205 ], [ -60.14459169, -35.68853825 ], [ -60.16619695, -35.67124124 ], [ -60.18617897, -35.6893517 ], [ -60.19498799, -35.69851493 ] ] ] } },
{ "type": "Feature", "properties": { "NOMEMCLATURA": "109-17", "PARTIDO": 109, "PARTIDO_NOMBRE": "Veinticinco de Mayo", "DENOMINACION": "SEC 109-02 - SEC 109-18", "CLASE": "DE TIERRA", "TRANSITABIlIDAD": "TEMPORARIO", "TIPO": "CAMINO", "LONGITUD_KM_ORIG": 12.036, "LONGITUD_KM_WGS84": 12.036, "N_VERTICES": 8, "N_LINEAS": 1, "DIFF_PCT": 0.0, "ALERTA": "" }, "geometry": { "type": "MultiLineString", "coordinates": [ [ [ -60.04084119, -35.66294565 ], [ -60.06641466, -35.62099135 ], [ -60.08784257, -35.63939752 ], [ -60.10303454, -35.637775 ], [ -60.1029755, -35.63732172 ], [ -60.11635949, -35.63578252 ], [ -60.11650638, -35.63630729 ], [ -60.13074008, -35.63503332 ] ] ] } },
{ "type": "Feature", "properties": { "NOMEMCLATURA": "109-18", "PARTIDO": 109, "PARTIDO_NOMBRE": "Veinticinco de Mayo", "DENOMINACION": "SEC 093-10 - SEC 093-09", "CLASE": "DE TIERRA", "TRANSITABIlIDAD": "TEMPORARIO", "TIPO": "CAMINO", "LONGITUD_KM_ORIG": 6.24, "LONGITUD_KM_WGS84": 6.2401, "N_VERTICES": 5, "N_LINEAS": 1, "DIFF_PCT": 0.0, "ALERTA": "" }, "geometry": { "type": "MultiLineString", "coordinates": [ [ [ -60.03154733, -35.65836298 ], [ -60.03226757, -35.65873349 ], [ -60.03262661, -35.65972854 ], [ -60.04084119, -35.66294565 ], [ -60.09258566, -35.68375882 ] ] ] } },
{ "type": "Feature", "properties": { "NOMEMCLATURA": "109-19", "PARTIDO": 109, "PARTIDO_NOMBRE": "Veinticinco de Mayo", "DENOMINACION": "SEC 109-01 - SEC 109-21", "CLASE": "DE TIERRA", "TRANSITABIlIDAD": "TEMPORARIO", "TIPO": "CAMINO", "LONGITUD_KM_ORIG": 18.994, "LONGITUD_KM_WGS84": 18.9929, "N_VERTICES": 8, "N_LINEAS": 1, "DIFF_PCT": -0.0, "ALERTA": "" }, "geometry": { "type": "MultiLineString", "coordinates": [ [ [ -60.64381522, -35.82455699 ], [ -60.58736321, -35.83502202 ], [ -60.58493121, -35.83338616 ], [ -60.58391496, -35.83147797 ], [ -60.55060038, -35.82031885 ], [ -60.5337671, -35.83328144 ], [ -60.53661778, -35.83550342 ], [ -60.4762624, -35.88245947 ] ] ] } },
{ "type": "Feature", "properties": { "NOMEMCLATURA": "109-20", "PARTIDO": 109, "PARTIDO_NOMBRE": "Veinticinco de Mayo", "DENOMINACION": "SEC 077-10 - SEC 109-01", "CLASE": "DE TIERRA", "TRANSITABIlIDAD": "TEMPORARIO", "TIPO": "CAMINO", "LONGITUD_KM_ORIG": 15.183, "LONGITUD_KM_WGS84": 15.3323, "N_VERTICES": 6, "N_LINEAS": 1, "DIFF_PCT": 1.0, "ALERTA": "" }, "geometry": { "type": "MultiLineString", "coordinates": [ [ [ -60.81790728, -35.79618326 ], [ -60.81979888, -35.79789734 ], [ -60.80882445, -35.80654808 ], [ -60.7758227, -35.83172798 ], [ -60.78929435, -35.84367687 ], [ -60.72762597, -35.89301987 ] ] ] } },
{ "type": "Feature", "properties": { "NOMEMCLATURA": "109-20", "PARTIDO": 109, "PARTIDO_NOMBRE": "Veinticinco de Mayo", "DENOMINACION": "Del Valle - SEC 011-10", "CLASE": "DE TIERRA", "TRANSITABIlIDAD": "TEMPORARIO", "TIPO": "CAMINO", "LONGITUD_KM_ORIG": 9.68, "LONGITUD_KM_WGS84": 9.6808, "N_VERTICES": 13, "N_LINEAS": 1, "DIFF_PCT": 0.0, "ALERTA": "" }, "geometry": { "type": "MultiLineString", "coordinates": [ [ [ -60.73559455, -35.89985062 ], [ -60.7295758, -35.90457636 ], [ -60.71469945, -35.91652127 ], [ -60.68986926, -35.93607127 ], [ -60.68977017, -35.93625182 ], [ -60.68992597, -35.93646125 ], [ -60.70283898, -35.9473696 ], [ -60.7030828, -35.94767048 ], [ -60.70313572, -35.94797248 ], [ -60.70298783, -35.94829199 ], [ -60.70267859, -35.94854709 ], [ -60.68671149, -35.96086146 ], [ -60.68645277, -35.96130167 ] ] ] } },
{ "type": "Feature", "properties": { "NOMEMCLATURA": "109-21", "PARTIDO": 109, "PARTIDO_NOMBRE": "Veinticinco de Mayo", "DENOMINACION": "San Enrique - SEC 011-09", "CLASE": "DE TIERRA", "TRANSITABIlIDAD": "TEMPORARIO", "TIPO": "CAMINO", "LONGITUD_KM_ORIG": 22.204, "LONGITUD_KM_WGS84": 22.2038, "N_VERTICES": 8, "N_LINEAS": 1, "DIFF_PCT": -0.0, "ALERTA": "" }, "geometry": { "type": "MultiLineString", "coordinates": [ [ [ -60.40717456, -35.82300387 ], [ -60.4762624, -35.88245947 ], [ -60.47682115, -35.88283465 ], [ -60.48630635, -35.89192972 ], [ -60.50907967, -35.91374967 ], [ -60.52311973, -35.92760273 ], [ -60.52877435, -35.93130161 ], [ -60.58015222, -35.96435057 ] ] ] } },
{ "type": "Feature", "properties": { "NOMEMCLATURA": "109-22", "PARTIDO": 109, "PARTIDO_NOMBRE": "Veinticinco de Mayo", "DENOMINACION": "RP 51 - SEC 109-04", "CLASE": "DE TIERRA", "TRANSITABIlIDAD": "TEMPORARIO", "TIPO": "CAMINO", "LONGITUD_KM_ORIG": 9.973, "LONGITUD_KM_WGS84": 9.973, "N_VERTICES": 14, "N_LINEAS": 1, "DIFF_PCT": 0.0, "ALERTA": "" }, "geometry": { "type": "MultiLineString", "coordinates": [ [ [ -60.08118107, -35.4574395 ], [ -60.07913619, -35.45830475 ], [ -60.05699725, -35.460261 ], [ -60.05020069, -35.46150586 ], [ -60.04618065, -35.46352264 ], [ -60.03727856, -35.46345926 ], [ -60.03628769, -35.46357918 ], [ -60.03534561, -35.46381868 ], [ -60.03432239, -35.46429742 ], [ -60.0293812, -35.4665071 ], [ -60.01997672, -35.46785886 ], [ -60.01126505, -35.47010071 ], [ -59.98757091, -35.46715796 ], [ -59.97588819, -35.4723158 ] ] ] } },
{ "type": "Feature", "properties": { "NOMEMCLATURA": "109-23", "PARTIDO": 109, "PARTIDO_NOMBRE": "Veinticinco de Mayo", "DENOMINACION": "", "CLASE": "PAVIMENTADO", "TRANSITABIlIDAD": "PERMANENTE", "TIPO": "CAMINO", "LONGITUD_KM_ORIG": 1.971, "LONGITUD_KM_WGS84": 1.9706, "N_VERTICES": 3, "N_LINEAS": 1, "DIFF_PCT": -0.0, "ALERTA": "" }, "geometry": { "type": "MultiLineString", "coordinates": [ [ [ -60.17184707, -35.44131242 ], [ -60.1838281, -35.44004037 ], [ -60.18255637, -35.43223522 ] ] ] } }
]
}
