{
"type": "FeatureCollection",
"name": "caminos_secundarios_058_final",
"features": [
{ "type": "Feature", "properties": { "NOMEMCLATURA": "058-00", "PARTIDO": "058", "PARTIDO_NOMBRE": "Desconocido", "DENOMINACION": "RP 30 - Las Flores (Acceso Las Flores y traza de RP 61)", "CLASE": "PAVIMENTADO", "TRANSITABIlIDAD": "PERMANENTE", "TIPO": "CAMINO", "LONGITUD_KM_ORIG": 2.781, "LONGITUD_KM_WGS84": 2.7771, "N_VERTICES": 2, "N_LINEAS": 1, "DIFF_PCT": -0.1, "ALERTA": "" }, "geometry": { "type": "MultiLineString", "coordinates": [ [ [ -59.130669862190665, -36.040104161606386, 0.0 ], [ -59.109532188770771, -36.021893452757752, 0.0 ] ] ] } },
{ "type": "Feature", "properties": { "NOMEMCLATURA": "058-01", "PARTIDO": "058", "PARTIDO_NOMBRE": "Desconocido", "DENOMINACION": "Las Flores - Monte", "CLASE": "DE TIERRA", "TRANSITABIlIDAD": "TEMPORARIO", "TIPO": "CAMINO", "LONGITUD_KM_ORIG": 28.62, "LONGITUD_KM_WGS84": 28.7509, "N_VERTICES": 58, "N_LINEAS": 1, "DIFF_PCT": 0.5, "ALERTA": "" }, "geometry": { "type": "MultiLineString", "coordinates": [ [ [ -59.0990398, -36.0016639, 0.0 ], [ -59.0775115, -35.9831073, 0.0 ], [ -59.0729241, -35.9865889, 0.0 ], [ -59.0718509, -35.9847447, 0.0 ], [ -59.0712283, -35.9833932, 0.0 ], [ -59.0706059, -35.9815915, 0.0 ], [ -59.070347, -35.9805256, 0.0 ], [ -59.0701386, -35.9790542, 0.0 ], [ -59.0701341, -35.9765149, 0.0 ], [ -59.0705264, -35.9709028, 0.0 ], [ -59.0712359, -35.9609898, 0.0 ], [ -59.0713685, -35.9596408, 0.0 ], [ -59.0713617, -35.9581009, 0.0 ], [ -59.0712192, -35.9565754, 0.0 ], [ -59.070831, -35.9545713, 0.0 ], [ -59.0707744, -35.9542889, 0.0 ], [ -59.0705616, -35.9536456, 0.0 ], [ -59.0700402, -35.9507961, 0.0 ], [ -59.0690817, -35.9449504, 0.0 ], [ -59.0680366, -35.9450678, 0.0 ], [ -59.0663929, -35.936262, 0.0 ], [ -59.0664239, -35.9361489, 0.0 ], [ -59.0665835, -35.9360619, 0.0 ], [ -59.0673937, -35.9359464, 0.0 ], [ -59.0662247, -35.9300971, 0.0 ], [ -59.0558451, -35.9226256, 0.0 ], [ -59.0532369, -35.9176531, 0.0 ], [ -59.0467673, -35.9045648, 0.0 ], [ -59.0443289, -35.8961712, 0.0 ], [ -59.0429213, -35.8935749, 0.0 ], [ -59.0428887, -35.888659, 0.0 ], [ -59.0412015, -35.8842513, 0.0 ], [ -59.0379, -35.8763208, 0.0 ], [ -59.037, -35.8731864, 0.0 ], [ -59.0370033, -35.872895, 0.0 ], [ -59.0371971, -35.8726971, 0.0 ], [ -59.0427753, -35.8685538, 0.0 ], [ -59.0429184, -35.868133, 0.0 ], [ -59.0427959, -35.867636, 0.0 ], [ -59.0238261, -35.8518527, 0.0 ], [ -59.0238061, -35.8516197, 0.0 ], [ -59.0240195, -35.851441, 0.0 ], [ -59.035277, -35.8502877, 0.0 ], [ -59.0355263, -35.850119, 0.0 ], [ -59.03549, -35.8498655, 0.0 ], [ -59.0329128, -35.8441699, 0.0 ], [ -59.0338022, -35.843867, 0.0 ], [ -59.0313712, -35.8385328, 0.0 ], [ -59.0299291, -35.8396744, 0.0 ], [ -59.0084945, -35.8220042, 0.0 ], [ -59.0052703, -35.8163488, 0.0 ], [ -59.003527, -35.8133623, 0.0 ], [ -59.0019179, -35.8105454, 0.0 ], [ -58.9968407, -35.8044346, 0.0 ], [ -58.993686827149759, -35.802382854522399, 0.0 ], [ -58.991475529658736, -35.800970735216694, 0.0 ], [ -58.990138655222744, -35.800129062100233, 0.0 ], [ -58.989840057981652, -35.799869933553552, 0.0 ] ] ] } },
{ "type": "Feature", "properties": { "NOMEMCLATURA": "058-02", "PARTIDO": "058", "PARTIDO_NOMBRE": "Desconocido", "DENOMINACION": "Cnel. Boerr - RN 3", "CLASE": "DE TIERRA", "TRANSITABIlIDAD": "TEMPORARIO", "TIPO": "CAMINO", "LONGITUD_KM_ORIG": 6.734, "LONGITUD_KM_WGS84": 6.7289, "N_VERTICES": 8, "N_LINEAS": 1, "DIFF_PCT": -0.1, "ALERTA": "" }, "geometry": { "type": "MultiLineString", "coordinates": [ [ [ -59.0467673, -35.9045648, 0.0 ], [ -59.0255258, -35.914304, 0.0 ], [ -59.0254183, -35.9145059, 0.0 ], [ -59.0254825, -35.9147687, 0.0 ], [ -59.0287491, -35.9175643, 0.0 ], [ -59.028859, -35.9177728, 0.0 ], [ -59.0287704, -35.9179878, 0.0 ], [ -58.9969876, -35.943057, 0.0 ] ] ] } },
{ "type": "Feature", "properties": { "NOMEMCLATURA": "058-03", "PARTIDO": "058", "PARTIDO_NOMBRE": "Desconocido", "DENOMINACION": "Rosas - Real Audiencia", "CLASE": "DE TIERRA", "TRANSITABIlIDAD": "TEMPORARIO", "TIPO": "CAMINO", "LONGITUD_KM_ORIG": 24.994, "LONGITUD_KM_WGS84": 24.8082, "N_VERTICES": 51, "N_LINEAS": 1, "DIFF_PCT": -0.7, "ALERTA": "" }, "geometry": { "type": "MultiLineString", "coordinates": [ [ [ -58.7486921, -36.0506077, 0.0 ], [ -58.7541778, -36.0551526, 0.0 ], [ -58.7550855, -36.0555642, 0.0 ], [ -58.7566485, -36.0567002, 0.0 ], [ -58.7597769, -36.0583541, 0.0 ], [ -58.7615805, -36.0593965, 0.0 ], [ -58.7645945, -36.0610552, 0.0 ], [ -58.7660306, -36.0618486, 0.0 ], [ -58.7702121, -36.0641378, 0.0 ], [ -58.7707164, -36.0645623, 0.0 ], [ -58.7720844, -36.0653771, 0.0 ], [ -58.7727506, -36.0655849, 0.0 ], [ -58.7736523, -36.0657885, 0.0 ], [ -58.775423, -36.0662393, 0.0 ], [ -58.7765949, -36.0665036, 0.0 ], [ -58.7778742, -36.0668286, 0.0 ], [ -58.7787831, -36.067006, 0.0 ], [ -58.7801638, -36.0674279, 0.0 ], [ -58.7836259, -36.0683224, 0.0 ], [ -58.7872135, -36.069218, 0.0 ], [ -58.7883335, -36.0694459, 0.0 ], [ -58.7886908, -36.0695351, 0.0 ], [ -58.7890197, -36.0695277, 0.0 ], [ -58.7894496, -36.0696237, 0.0 ], [ -58.7897938, -36.0696503, 0.0 ], [ -58.7914042, -36.0700412, 0.0 ], [ -58.7917272, -36.0702521, 0.0 ], [ -58.7920234, -36.0702896, 0.0 ], [ -58.7926797, -36.070472, 0.0 ], [ -58.7932252, -36.0707241, 0.0 ], [ -58.794434, -36.0710301, 0.0 ], [ -58.7956375, -36.0712797, 0.0 ], [ -58.7967176, -36.0716074, 0.0 ], [ -58.7980445, -36.071948, 0.0 ], [ -58.8023161, -36.0736796, 0.0 ], [ -58.8026601, -36.0736935, 0.0 ], [ -58.8028056, -36.0736337, 0.0 ], [ -58.8096517, -36.0682383, 0.0 ], [ -58.824034, -36.0569227, 0.0 ], [ -58.8378544, -36.0461432, 0.0 ], [ -58.881163, -36.012353, 0.0 ], [ -58.8916391, -36.0040733, 0.0 ], [ -58.9005255, -35.9971468, 0.0 ], [ -58.9138921, -35.9866636, 0.0 ], [ -58.9143101, -35.9865186, 0.0 ], [ -58.9146476, -35.9865732, 0.0 ], [ -58.9273506, -35.9972208, 0.0 ], [ -58.9277286, -35.9972782, 0.0 ], [ -58.928138, -35.9970784, 0.0 ], [ -58.9366813, -35.9692288, 0.0 ], [ -58.939084, -35.9672629, 0.0 ] ] ] } },
{ "type": "Feature", "properties": { "NOMEMCLATURA": "058-04", "PARTIDO": "058", "PARTIDO_NOMBRE": "Desconocido", "DENOMINACION": "Newton - Real Audiencia", "CLASE": "DE TIERRA", "TRANSITABIlIDAD": "TEMPORARIO", "TIPO": "CAMINO", "LONGITUD_KM_ORIG": 13.894, "LONGITUD_KM_WGS84": 13.8485, "N_VERTICES": 31, "N_LINEAS": 1, "DIFF_PCT": -0.3, "ALERTA": "" }, "geometry": { "type": "MultiLineString", "coordinates": [ [ [ -58.7486835, -36.0505926, 0.0 ], [ -58.745948, -36.0483275, 0.0 ], [ -58.7458639, -36.0479703, 0.0 ], [ -58.7466864, -36.0433907, 0.0 ], [ -58.7488964, -36.0412088, 0.0 ], [ -58.7491966, -36.0408226, 0.0 ], [ -58.7507894, -36.0363828, 0.0 ], [ -58.7546812, -36.0301324, 0.0 ], [ -58.7550215, -36.0289965, 0.0 ], [ -58.7551177, -36.0282814, 0.0 ], [ -58.7540227, -36.0255193, 0.0 ], [ -58.7560495, -36.0071402, 0.0 ], [ -58.7569285, -35.9999054, 0.0 ], [ -58.7577859, -35.9961729, 0.0 ], [ -58.7596364, -35.9892093, 0.0 ], [ -58.759574, -35.9887544, 0.0 ], [ -58.7577057, -35.9831088, 0.0 ], [ -58.7577767, -35.9824207, 0.0 ], [ -58.7603227, -35.9720248, 0.0 ], [ -58.7608016, -35.9702174, 0.0 ], [ -58.7615112, -35.9682971, 0.0 ], [ -58.7652143, -35.9464126, 0.0 ], [ -58.7652574, -35.9457774, 0.0 ], [ -58.7650537, -35.9427189, 0.0 ], [ -58.7651703, -35.9408071, 0.0 ], [ -58.7653083, -35.9402591, 0.0 ], [ -58.7662365, -35.9394459, 0.0 ], [ -58.7675671, -35.9383982, 0.0 ], [ -58.7678515, -35.9381344, 0.0 ], [ -58.7679187, -35.9378576, 0.0 ], [ -58.7669055, -35.9305658, 0.0 ] ] ] } },
{ "type": "Feature", "properties": { "NOMEMCLATURA": "058-05 ", "PARTIDO": "058", "PARTIDO_NOMBRE": "Desconocido", "DENOMINACION": "Las Flores - Real Audiencia", "CLASE": "DE TIERRA", "TRANSITABIlIDAD": "TEMPORARIO", "TIPO": "CAMINO", "LONGITUD_KM_ORIG": 31.038, "LONGITUD_KM_WGS84": 30.7655, "N_VERTICES": 56, "N_LINEAS": 1, "DIFF_PCT": -0.9, "ALERTA": "" }, "geometry": { "type": "MultiLineString", "coordinates": [ [ [ -59.0671372, -36.013427, 0.0 ], [ -59.0651746, -36.0137364, 0.0 ], [ -59.0633403, -36.0138477, 0.0 ], [ -59.0607765, -36.0137376, 0.0 ], [ -59.0567235, -36.0129399, 0.0 ], [ -59.0517236, -36.0167358, 0.0 ], [ -59.0430986, -36.0093409, 0.0 ], [ -58.9810984, -36.0564815, 0.0 ], [ -58.9806392, -36.0568228, 0.0 ], [ -58.9801157, -36.0571034, 0.0 ], [ -58.9757581, -36.060404, 0.0 ], [ -58.9755882, -36.0613106, 0.0 ], [ -58.974485, -36.0613737, 0.0 ], [ -58.9472344, -36.082082, 0.0 ], [ -58.9446896, -36.0799745, 0.0 ], [ -58.9395912, -36.0836589, 0.0 ], [ -58.9182202, -36.0990721, 0.0 ], [ -58.9088451, -36.1073835, 0.0 ], [ -58.8990067, -36.1152304, 0.0 ], [ -58.8872675, -36.1101248, 0.0 ], [ -58.8846162, -36.1085552, 0.0 ], [ -58.8781585, -36.1015411, 0.0 ], [ -58.8657555, -36.0950621, 0.0 ], [ -58.8654114, -36.0948373, 0.0 ], [ -58.8648783, -36.094621, 0.0 ], [ -58.8594524, -36.0912895, 0.0 ], [ -58.859355, -36.0911406, 0.0 ], [ -58.8592119, -36.091061, 0.0 ], [ -58.8550576, -36.0923112, 0.0 ], [ -58.8545964, -36.0923705, 0.0 ], [ -58.8539958, -36.0922912, 0.0 ], [ -58.8439454, -36.0885757, 0.0 ], [ -58.8423451, -36.0879232, 0.0 ], [ -58.8390282, -36.0863169, 0.0 ], [ -58.8377927, -36.0859612, 0.0 ], [ -58.836542, -36.0858744, 0.0 ], [ -58.8344866, -36.0854451, 0.0 ], [ -58.8317528, -36.0854078, 0.0 ], [ -58.8305157, -36.0857129, 0.0 ], [ -58.8295457, -36.0856426, 0.0 ], [ -58.8265713, -36.0841446, 0.0 ], [ -58.8247128, -36.0833661, 0.0 ], [ -58.8242131, -36.083344, 0.0 ], [ -58.8172484, -36.080296, 0.0 ], [ -58.8105906, -36.0774321, 0.0 ], [ -58.8086151, -36.0766401, 0.0 ], [ -58.8074657, -36.0760737, 0.0 ], [ -58.8052059, -36.0752145, 0.0 ], [ -58.8047466, -36.0751296, 0.0 ], [ -58.8045893, -36.0750812, 0.0 ], [ -58.8044616, -36.0750111, 0.0 ], [ -58.8039319, -36.0743972, 0.0 ], [ -58.8036061, -36.0740912, 0.0 ], [ -58.8030804, -36.0739288, 0.0 ], [ -58.8028431, -36.0738053, 0.0 ], [ -58.8026601, -36.0736935, 0.0 ] ] ] } },
{ "type": "Feature", "properties": { "NOMEMCLATURA": "058-06", "PARTIDO": "058", "PARTIDO_NOMBRE": "Desconocido", "DENOMINACION": "RP 30 - RN 3", "CLASE": "DE TIERRA", "TRANSITABIlIDAD": "TEMPORARIO", "TIPO": "CAMINO", "LONGITUD_KM_ORIG": 29.879, "LONGITUD_KM_WGS84": 30.0662, "N_VERTICES": 43, "N_LINEAS": 1, "DIFF_PCT": 0.6, "ALERTA": "" }, "geometry": { "type": "MultiLineString", "coordinates": [ [ [ -59.1434823, -36.0306978, 0.0 ], [ -59.1623349, -36.0469652, 0.0 ], [ -59.1627045, -36.047222, 0.0 ], [ -59.1630673, -36.0474073, 0.0 ], [ -59.1744528, -36.0514928, 0.0 ], [ -59.1879292, -36.0562969, 0.0 ], [ -59.1930577, -36.0592883, 0.0 ], [ -59.1947344, -36.0616417, 0.0 ], [ -59.2090271, -36.07392, 0.0 ], [ -59.2233135, -36.0862703, 0.0 ], [ -59.2339496, -36.1103482, 0.0 ], [ -59.253813, -36.1274237, 0.0 ], [ -59.2563978, -36.1290072, 0.0 ], [ -59.2630614, -36.1347796, 0.0 ], [ -59.2664901, -36.1376873, 0.0 ], [ -59.2702678, -36.1416693, 0.0 ], [ -59.2710322, -36.1468112, 0.0 ], [ -59.2708976, -36.1502828, 0.0 ], [ -59.270343914043423, -36.1514844790794, 0.0 ], [ -59.270349954256332, -36.151781222547697, 0.0 ], [ -59.2705107, -36.1520728, 0.0 ], [ -59.3074088, -36.1880326, 0.0 ], [ -59.3151243, -36.1955247, 0.0 ], [ -59.3152388, -36.195862, 0.0 ], [ -59.3148276, -36.1964741, 0.0 ], [ -59.3175049, -36.2024456, 0.0 ], [ -59.3190702, -36.2064317, 0.0 ], [ -59.3205283, -36.2104524, 0.0 ], [ -59.3223514, -36.2154036, 0.0 ], [ -59.3233382, -36.2182341, 0.0 ], [ -59.3240688, -36.2208774, 0.0 ], [ -59.3241158, -36.2210955, 0.0 ], [ -59.3241145, -36.2213959, 0.0 ], [ -59.32425, -36.2219674, 0.0 ], [ -59.3255577, -36.2268039, 0.0 ], [ -59.3258431, -36.2286708, 0.0 ], [ -59.3260695, -36.230607, 0.0 ], [ -59.3269033, -36.2380102, 0.0 ], [ -59.3267103, -36.2382231, 0.0 ], [ -59.3250287, -36.2389785, 0.0 ], [ -59.3239196, -36.2394882, 0.0 ], [ -59.3233899, -36.2397859, 0.0 ], [ -59.3224729, -36.2406271, 0.0 ] ] ] } },
{ "type": "Feature", "properties": { "NOMEMCLATURA": "058-07", "PARTIDO": "058", "PARTIDO_NOMBRE": "Desconocido", "DENOMINACION": "Prado - RN 3", "CLASE": "PAVIMENTADO", "TRANSITABIlIDAD": "PERMANENTE", "TIPO": "CAMINO", "LONGITUD_KM_ORIG": 2.272, "LONGITUD_KM_WGS84": 2.3237, "N_VERTICES": 4, "N_LINEAS": 1, "DIFF_PCT": 2.3, "ALERTA": "" }, "geometry": { "type": "MultiLineString", "coordinates": [ [ [ -59.3441907, -36.2589827, 0.0 ], [ -59.3529487, -36.2522271, 0.0 ], [ -59.3542093, -36.2509177, 0.0 ], [ -59.362743, -36.2444224, 0.0 ] ] ] } },
{ "type": "Feature", "properties": { "NOMEMCLATURA": "058-08", "PARTIDO": "058", "PARTIDO_NOMBRE": "Desconocido", "DENOMINACION": "RP 91 - RP 61", "CLASE": "DE TIERRA", "TRANSITABIlIDAD": "TEMPORARIO", "TIPO": "CAMINO", "LONGITUD_KM_ORIG": 12.098, "LONGITUD_KM_WGS84": 12.0934, "N_VERTICES": 4, "N_LINEAS": 1, "DIFF_PCT": -0.0, "ALERTA": "" }, "geometry": { "type": "MultiLineString", "coordinates": [ [ [ -59.5345674, -35.9921346, 0.0 ], [ -59.5080872, -36.0127323, 0.0 ], [ -59.4550823, -36.0389514, 0.0 ], [ -59.4331303, -36.0615606, 0.0 ] ] ] } },
{ "type": "Feature", "properties": { "NOMEMCLATURA": "058-08", "PARTIDO": "058", "PARTIDO_NOMBRE": "Desconocido", "DENOMINACION": "RP 91 - Saladillo", "CLASE": "DE TIERRA", "TRANSITABIlIDAD": "TEMPORARIO", "TIPO": "CAMINO", "LONGITUD_KM_ORIG": 20.94, "LONGITUD_KM_WGS84": 20.8745, "N_VERTICES": 25, "N_LINEAS": 1, "DIFF_PCT": -0.3, "ALERTA": "" }, "geometry": { "type": "MultiLineString", "coordinates": [ [ [ -59.2887268, -35.9575605, 0.0 ], [ -59.2954843, -35.9635045, 0.0 ], [ -59.3010414, -35.9684583, 0.0 ], [ -59.302613, -35.9696782, 0.0 ], [ -59.3041039, -35.9704563, 0.0 ], [ -59.3072871, -35.9731436, 0.0 ], [ -59.308632, -35.9743397, 0.0 ], [ -59.3103498, -35.9760306, 0.0 ], [ -59.3118243, -35.9769162, 0.0 ], [ -59.3240729, -35.9815635, 0.0 ], [ -59.3419026, -35.988553, 0.0 ], [ -59.3628499, -36.0053266, 0.0 ], [ -59.3787521, -36.0303984, 0.0 ], [ -59.379183, -36.0306225, 0.0 ], [ -59.3849359, -36.0355655, 0.0 ], [ -59.3856787, -36.036062, 0.0 ], [ -59.3875213, -36.0368533, 0.0 ], [ -59.3909518, -36.0385556, 0.0 ], [ -59.4012769, -36.0443212, 0.0 ], [ -59.4116893, -36.0500599, 0.0 ], [ -59.4331303, -36.0615606, 0.0 ], [ -59.4440423, -36.0664845, 0.0 ], [ -59.4606246, -36.0722143, 0.0 ], [ -59.4612435, -36.0725529, 0.0 ], [ -59.4634128, -36.0740621, 0.0 ] ] ] } },
{ "type": "Feature", "properties": { "NOMEMCLATURA": "058-09", "PARTIDO": "058", "PARTIDO_NOMBRE": "Desconocido", "DENOMINACION": "Estrugamou - J. Blaquier", "CLASE": "DE TIERRA", "TRANSITABIlIDAD": "TEMPORARIO", "TIPO": "CAMINO", "LONGITUD_KM_ORIG": 23.803, "LONGITUD_KM_WGS84": 23.8321, "N_VERTICES": 16, "N_LINEAS": 1, "DIFF_PCT": 0.1, "ALERTA": "" }, "geometry": { "type": "MultiLineString", "coordinates": [ [ [ -59.5018583, -35.9640014, 0.0 ], [ -59.4758038, -35.9420491, 0.0 ], [ -59.4088157, -35.8838789, 0.0 ], [ -59.401652, -35.8777253, 0.0 ], [ -59.4010159, -35.8771701, 0.0 ], [ -59.3769468, -35.8564528, 0.0 ], [ -59.3636135, -35.8451879, 0.0 ], [ -59.3623675, -35.8443348, 0.0 ], [ -59.3609741, -35.8431773, 0.0 ], [ -59.3586607, -35.8411374, 0.0 ], [ -59.3583054, -35.8405129, 0.0 ], [ -59.3552063, -35.8378261, 0.0 ], [ -59.3526804, -35.8356194, 0.0 ], [ -59.3502937, -35.8330852, 0.0 ], [ -59.3507287, -35.8327494, 0.0 ], [ -59.3301653, -35.8027213, 0.0 ] ] ] } },
{ "type": "Feature", "properties": { "NOMEMCLATURA": "058-10", "PARTIDO": "058", "PARTIDO_NOMBRE": "Desconocido", "DENOMINACION": "RP 30 - Saladillo", "CLASE": "DE TIERRA", "TRANSITABIlIDAD": "TEMPORARIO", "TIPO": "CAMINO", "LONGITUD_KM_ORIG": 7.873, "LONGITUD_KM_WGS84": 8.0301, "N_VERTICES": 26, "N_LINEAS": 1, "DIFF_PCT": 2.0, "ALERTA": "" }, "geometry": { "type": "MultiLineString", "coordinates": [ [ [ -59.1146353, -35.7890548, 0.0 ], [ -59.1122439, -35.7846702, 0.0 ], [ -59.1105392, -35.7814932, 0.0 ], [ -59.1091337, -35.7782661, 0.0 ], [ -59.1086134, -35.7772846, 0.0 ], [ -59.1053291, -35.7731893, 0.0 ], [ -59.0987151, -35.7667769, 0.0 ], [ -59.0983691, -35.7663492, 0.0 ], [ -59.0982779, -35.7659803, 0.0 ], [ -59.0986645, -35.7612275, 0.0 ], [ -59.0985873, -35.7607883, 0.0 ], [ -59.0982742, -35.7604275, 0.0 ], [ -59.0963715, -35.7583883, 0.0 ], [ -59.0944529, -35.7550082, 0.0 ], [ -59.0937411, -35.7530199, 0.0 ], [ -59.0936977, -35.7521856, 0.0 ], [ -59.0938448, -35.7508508, 0.0 ], [ -59.0936064, -35.7502873, 0.0 ], [ -59.0925136, -35.7491457, 0.0 ], [ -59.0920088, -35.7490593, 0.0 ], [ -59.0908226, -35.749086, 0.0 ], [ -59.089602, -35.7491022, 0.0 ], [ -59.0884405, -35.7488311, 0.0 ], [ -59.0754259, -35.7380333, 0.0 ], [ -59.0715468, -35.7348667, 0.0 ], [ -59.0679604, -35.7317848, 0.0 ] ] ] } },
{ "type": "Feature", "properties": { "NOMEMCLATURA": "058-11", "PARTIDO": "058", "PARTIDO_NOMBRE": "Desconocido", "DENOMINACION": "Estruganou - Saladillo", "CLASE": "DE TIERRA", "TRANSITABIlIDAD": "TEMPORARIO", "TIPO": "CAMINO", "LONGITUD_KM_ORIG": 19.902, "LONGITUD_KM_WGS84": 19.9573, "N_VERTICES": 3, "N_LINEAS": 1, "DIFF_PCT": 0.3, "ALERTA": "" }, "geometry": { "type": "MultiLineString", "coordinates": [ [ [ -59.675347812070633, -35.851608263163364, 0.0 ], [ -59.596683, -35.913022, 0.0 ], [ -59.5158445, -35.9761699, 0.0 ] ] ] } },
{ "type": "Feature", "properties": { "NOMEMCLATURA": "058-12", "PARTIDO": "058", "PARTIDO_NOMBRE": "Desconocido", "DENOMINACION": "RN 3 - Dr. D. Harosteguy", "CLASE": "DE TIERRRA", "TRANSITABIlIDAD": "TEMPORARIO", "TIPO": "CAMINO", "LONGITUD_KM_ORIG": 3.603, "LONGITUD_KM_WGS84": 3.6177, "N_VERTICES": 11, "N_LINEAS": 1, "DIFF_PCT": 0.4, "ALERTA": "" }, "geometry": { "type": "MultiLineString", "coordinates": [ [ [ -59.270343914043423, -36.1514844790794, 0.0 ], [ -59.269605078151066, -36.151898750137107, 0.0 ], [ -59.269509293839683, -36.152038945603479, 0.0 ], [ -59.269595396512962, -36.1522319291605, 0.0 ], [ -59.2702966, -36.1529116, 0.0 ], [ -59.2704285, -36.153221, 0.0 ], [ -59.2703137, -36.1535998, 0.0 ], [ -59.2447974, -36.1731001, 0.0 ], [ -59.2446629, -36.1734537, 0.0 ], [ -59.244904, -36.1741516, 0.0 ], [ -59.2446754, -36.174482, 0.0 ] ] ] } }
]
}
