{
"type": "FeatureCollection",
"name": "caminos_secundarios_093_final",
"crs": { "type": "name", "properties": { "name": "urn:ogc:def:crs:OGC:1.3:CRS84" } },
"features": [
{ "type": "Feature", "properties": { "NOMEMCLATURA": "093-01", "PARTIDO": 93.0, "PARTIDO_NOMBRE": "Saladillo", "DENOMINACION": "Del Carril - SEC 091-01 (Tramo 3)", "CLASE": "DE TIERRA", "TRANSITABIlIDAD": "TEMPORARIO", "TIPO": "CAMINO", "TRAMO_NUM": "3", "LON_INI": -59.5080343, "LAT_INI": -35.5079703, "LON_FIN": -59.4838023, "LAT_FIN": -35.4923274, "LONGITUD_KM_ORIG": 2.813, "LONGITUD_KM_WGS84": 2.8322, "N_VERTICES": 4, "N_LINEAS": 1, "DIFF_PCT": 0.7, "ALERTA": "" }, "geometry": { "type": "LineString", "coordinates": [ [ -59.5080343, -35.5079703 ], [ -59.4840079, -35.4933115 ], [ -59.483838, -35.4929925 ], [ -59.4838023, -35.4923274 ] ] } },
{ "type": "Feature", "properties": { "NOMEMCLATURA": "093-01", "PARTIDO": 93.0, "PARTIDO_NOMBRE": "Saladillo", "DENOMINACION": "Cazón - Del Carrill (Tramo 2)", "CLASE": "DE TIERRA", "TRANSITABIlIDAD": "TEMPORARIO", "TIPO": "CAMINO", "TRAMO_NUM": "2", "LON_INI": -59.6737594, "LAT_INI": -35.580566, "LON_FIN": -59.5336146, "LAT_FIN": -35.4980484, "LONGITUD_KM_ORIG": 17.268, "LONGITUD_KM_WGS84": 17.9359, "N_VERTICES": 14, "N_LINEAS": 1, "DIFF_PCT": 3.9, "ALERTA": "" }, "geometry": { "type": "LineString", "coordinates": [ [ -59.6737594, -35.580566 ], [ -59.6653437, -35.5782314 ], [ -59.6659367, -35.5768269 ], [ -59.6582716, -35.5746547 ], [ -59.6578431, -35.5757069 ], [ -59.6450017, -35.5720641 ], [ -59.6328819, -35.5611494 ], [ -59.6223631, -35.5516835 ], [ -59.6030182, -35.5341932 ], [ -59.5864343, -35.5463282 ], [ -59.5737652, -35.5347147 ], [ -59.5633712, -35.5251703 ], [ -59.5599718, -35.5220438 ], [ -59.5336146, -35.4980484 ] ] } },
{ "type": "Feature", "properties": { "NOMEMCLATURA": "093-01", "PARTIDO": 93.0, "PARTIDO_NOMBRE": "Saladillo", "DENOMINACION": "RN 205 - Cazón (Tramo 1)", "CLASE": "DE TIERRA", "TRANSITABIlIDAD": "TEMPORARIO", "TIPO": "CAMINO", "TRAMO_NUM": "1", "LON_INI": -59.7652989, "LAT_INI": -35.6140667, "LON_FIN": -59.6737594, "LAT_FIN": -35.580566, "LONGITUD_KM_ORIG": 11.284, "LONGITUD_KM_WGS84": 11.2577, "N_VERTICES": 8, "N_LINEAS": 1, "DIFF_PCT": -0.2, "ALERTA": "" }, "geometry": { "type": "LineString", "coordinates": [ [ -59.7652989, -35.6140667 ], [ -59.7479075, -35.6267723 ], [ -59.7259629, -35.6069518 ], [ -59.7269537, -35.606141 ], [ -59.715461, -35.5957997 ], [ -59.7173203, -35.5945352 ], [ -59.7143842, -35.5919661 ], [ -59.6737594, -35.580566 ] ] } },
{ "type": "Feature", "properties": { "NOMEMCLATURA": "093-02", "PARTIDO": 93.0, "PARTIDO_NOMBRE": "Saladillo", "DENOMINACION": "RN 205 - Cazón (Tramo 1)", "CLASE": "PAVIMENTADO", "TRANSITABIlIDAD": "PERMANENTE", "TIPO": "CAMINO", "TRAMO_NUM": "1", "LON_INI": -59.6968996, "LAT_INI": -35.5398749, "LON_FIN": -59.6581381, "LAT_FIN": -35.5746261, "LONGITUD_KM_ORIG": 4.678, "LONGITUD_KM_WGS84": 5.7446, "N_VERTICES": 5, "N_LINEAS": 1, "DIFF_PCT": 22.8, "ALERTA": "REVISAR" }, "geometry": { "type": "LineString", "coordinates": [ [ -59.6968996, -35.5398749 ], [ -59.6540818, -35.5713041 ], [ -59.6573799, -35.5743079 ], [ -59.6576329, -35.5744833 ], [ -59.6581381, -35.5746261 ] ] } },
{ "type": "Feature", "properties": { "NOMEMCLATURA": "093-02", "PARTIDO": 93.0, "PARTIDO_NOMBRE": "Saladillo", "DENOMINACION": "Toledo - RP 91 (Tramo 3)", "CLASE": "DE TIERRA", "TRANSITABIlIDAD": "TEMPORARIO", "TIPO": "CAMINO", "TRAMO_NUM": "3", "LON_INI": -59.6286262, "LAT_INI": -35.6445747, "LON_FIN": -59.6539308, "LAT_FIN": -35.7380485, "LONGITUD_KM_ORIG": 12.315, "LONGITUD_KM_WGS84": 12.3227, "N_VERTICES": 12, "N_LINEAS": 1, "DIFF_PCT": 0.1, "ALERTA": "" }, "geometry": { "type": "LineString", "coordinates": [ [ -59.6286262, -35.6445747 ], [ -59.6278378, -35.6458264 ], [ -59.6201984, -35.6514762 ], [ -59.6161836, -35.6657097 ], [ -59.6176903, -35.6727492 ], [ -59.6175568, -35.6736531 ], [ -59.6148915, -35.6812373 ], [ -59.6155519, -35.6899066 ], [ -59.6114154, -35.6991941 ], [ -59.611794, -35.6999129 ], [ -59.6123174, -35.7005141 ], [ -59.6539308, -35.7380485 ] ] } },
{ "type": "Feature", "properties": { "NOMEMCLATURA": "093-02", "PARTIDO": 93.0, "PARTIDO_NOMBRE": "Saladillo", "DENOMINACION": "SEC 093-07 - SEC 034-08 (Tramo 4)", "CLASE": "DE TIERRA", "TRANSITABIlIDAD": "TEMPORARIO", "TIPO": "CAMINO", "TRAMO_NUM": "4", "LON_INI": -59.7327329, "LAT_INI": -35.8156118, "LON_FIN": -59.7117951, "LAT_FIN": -35.8335712, "LONGITUD_KM_ORIG": 2.857, "LONGITUD_KM_WGS84": 2.8325, "N_VERTICES": 3, "N_LINEAS": 1, "DIFF_PCT": -0.9, "ALERTA": "" }, "geometry": { "type": "LineString", "coordinates": [ [ -59.7327329, -35.8156118 ], [ -59.7117944, -35.8310367 ], [ -59.7117951, -35.8335712 ] ] } },
{ "type": "Feature", "properties": { "NOMEMCLATURA": "093-02", "PARTIDO": 93.0, "PARTIDO_NOMBRE": "Saladillo", "DENOMINACION": "Cazon - Toledo (Tramo 2)", "CLASE": "DE TIERRA", "TRANSITABIlIDAD": "TEMPORARIO", "TIPO": "CAMINO", "TRAMO_NUM": "2", "LON_INI": -59.6610497, "LAT_INI": -35.5781857, "LON_FIN": -59.6259653, "LAT_FIN": -35.6342939, "LONGITUD_KM_ORIG": 9.022, "LONGITUD_KM_WGS84": 8.9282, "N_VERTICES": 16, "N_LINEAS": 1, "DIFF_PCT": -1.0, "ALERTA": "" }, "geometry": { "type": "LineString", "coordinates": [ [ -59.6610497, -35.5781857 ], [ -59.6568028, -35.5828037 ], [ -59.6518089, -35.5864736 ], [ -59.6501995, -35.5867124 ], [ -59.6498615, -35.5868973 ], [ -59.6497435, -35.5872959 ], [ -59.6497429, -35.5878629 ], [ -59.6495199, -35.588143 ], [ -59.6371745, -35.597044 ], [ -59.6372405, -35.597369 ], [ -59.6499026, -35.6082525 ], [ -59.630717, -35.620719 ], [ -59.6255757, -35.6244177 ], [ -59.6295622, -35.6280912 ], [ -59.6295671, -35.6285293 ], [ -59.6259653, -35.6342939 ] ] } },
{ "type": "Feature", "properties": { "NOMEMCLATURA": "093-02", "PARTIDO": 93.0, "PARTIDO_NOMBRE": "Saladillo", "DENOMINACION": "RP 91 - SEC 093-07 (Tramo 4)", "CLASE": "DE TIERRA", "TRANSITABIlIDAD": "TEMPORARIO", "TIPO": "CAMINO", "TRAMO_NUM": "4", "LON_INI": -59.6494949, "LAT_INI": -35.7416448, "LON_FIN": -59.7327329, "LAT_FIN": -35.8156118, "LONGITUD_KM_ORIG": 12.278, "LONGITUD_KM_WGS84": 11.4716, "N_VERTICES": 17, "N_LINEAS": 1, "DIFF_PCT": -6.6, "ALERTA": "" }, "geometry": { "type": "LineString", "coordinates": [ [ -59.6494949, -35.7416448 ], [ -59.663004, -35.763117 ], [ -59.6640856, -35.7639354 ], [ -59.6665299, -35.766077 ], [ -59.6757495, -35.7687735 ], [ -59.6849375, -35.7716347 ], [ -59.6904909, -35.7747718 ], [ -59.6971719, -35.7828453 ], [ -59.6987156, -35.7847278 ], [ -59.6995727, -35.7854962 ], [ -59.7040571, -35.7892971 ], [ -59.7072906, -35.7910173 ], [ -59.7201049, -35.8035417 ], [ -59.7253913, -35.8087482 ], [ -59.7276485, -35.8109577 ], [ -59.7299809, -35.8131279 ], [ -59.7327329, -35.8156118 ] ] } },
{ "type": "Feature", "properties": { "NOMEMCLATURA": "093-03", "PARTIDO": 93.0, "PARTIDO_NOMBRE": "Saladillo", "DENOMINACION": "RN 205 - Del Carril (Tramo 1)", "CLASE": "PAVIMENTADO", "TRANSITABIlIDAD": "PERMANENTE", "TIPO": "CAMINO", "TRAMO_NUM": "1", "LON_INI": -59.5820936, "LAT_INI": -35.4624859, "LON_FIN": -59.5161882, "LAT_FIN": -35.5113414, "LONGITUD_KM_ORIG": 8.183, "LONGITUD_KM_WGS84": 8.0737, "N_VERTICES": 5, "N_LINEAS": 1, "DIFF_PCT": -1.3, "ALERTA": "" }, "geometry": { "type": "LineString", "coordinates": [ [ -59.5820936, -35.4624859 ], [ -59.5447036, -35.489732 ], [ -59.5336146, -35.4980484 ], [ -59.5330323, -35.4987069 ], [ -59.5161882, -35.5113414 ] ] } },
{ "type": "Feature", "properties": { "NOMEMCLATURA": "093-03", "PARTIDO": 93.0, "PARTIDO_NOMBRE": "Saladillo", "DENOMINACION": "Del Carril - SEC 091-07 (Tramo 2)", "CLASE": "DE TIERRA", "TRANSITABIlIDAD": "TEMPORARIO", "TIPO": "CAMINO", "TRAMO_NUM": "2", "LON_INI": -59.5161882, "LAT_INI": -35.5113414, "LON_FIN": -59.3688219, "LAT_FIN": -35.6193329, "LONGITUD_KM_ORIG": 12.364, "LONGITUD_KM_WGS84": 17.9858, "N_VERTICES": 15, "N_LINEAS": 1, "DIFF_PCT": 45.5, "ALERTA": "REVISAR" }, "geometry": { "type": "LineString", "coordinates": [ [ -59.5161882, -35.5113414 ], [ -59.4894425, -35.5314458 ], [ -59.4736885, -35.5432872 ], [ -59.4722395, -35.5440724 ], [ -59.471268, -35.5448315 ], [ -59.4597423, -35.5531974 ], [ -59.4492876, -35.5608117 ], [ -59.4445317, -35.5640534 ], [ -59.4393355, -35.5674083 ], [ -59.4299895, -35.573983 ], [ -59.4268843, -35.5775544 ], [ -59.42411, -35.5782607 ], [ -59.4123774, -35.5866073 ], [ -59.3963819, -35.5986342 ], [ -59.3688219, -35.6193329 ] ] } },
{ "type": "Feature", "properties": { "NOMEMCLATURA": "093-04", "PARTIDO": 93.0, "PARTIDO_NOMBRE": "Saladillo", "DENOMINACION": "SEC 093-03 (Del Carril) - Polvaderas (Tramo 1)", "CLASE": "DE TIERRA", "TRANSITABIlIDAD": "TEMPORARIO", "TIPO": "CAMINO", "TRAMO_NUM": "1", "LON_INI": -59.5114118, "LAT_INI": -35.5149365, "LON_FIN": -59.5075203, "LAT_FIN": -35.5908712, "LONGITUD_KM_ORIG": 6.458, "LONGITUD_KM_WGS84": 10.4252, "N_VERTICES": 8, "N_LINEAS": 1, "DIFF_PCT": 61.4, "ALERTA": "REVISAR" }, "geometry": { "type": "LineString", "coordinates": [ [ -59.5114118, -35.5149365 ], [ -59.5336892, -35.5353075 ], [ -59.5248873, -35.5417479 ], [ -59.5081026, -35.5652834 ], [ -59.5163595, -35.5728805 ], [ -59.5142586, -35.5780473 ], [ -59.5129427, -35.5833285 ], [ -59.5075203, -35.5908712 ] ] } },
{ "type": "Feature", "properties": { "NOMEMCLATURA": "093-04", "PARTIDO": 93.0, "PARTIDO_NOMBRE": "Saladillo", "DENOMINACION": "Polvaderas - SEC 093-14 (Tramo 2)", "CLASE": "DE TIERRA", "TRANSITABIlIDAD": "TEMPORARIO", "TIPO": "CAMINO", "TRAMO_NUM": "2", "LON_INI": -59.5060938, "LAT_INI": -35.5916327, "LON_FIN": -59.3075088, "LAT_FIN": -35.7708155, "LONGITUD_KM_ORIG": 30.327, "LONGITUD_KM_WGS84": 30.2545, "N_VERTICES": 41, "N_LINEAS": 1, "DIFF_PCT": -0.2, "ALERTA": "" }, "geometry": { "type": "LineString", "coordinates": [ [ -59.5060938, -35.5916327 ], [ -59.5014707, -35.5989177 ], [ -59.501322, -35.6018267 ], [ -59.5008281, -35.6076647 ], [ -59.5002223, -35.6094964 ], [ -59.5000349, -35.6107786 ], [ -59.4978737, -35.6148983 ], [ -59.4962678, -35.6191384 ], [ -59.4937926, -35.6228446 ], [ -59.48517, -35.6303909 ], [ -59.4802626, -35.6346979 ], [ -59.477571, -35.6382932 ], [ -59.477686, -35.6404704 ], [ -59.4762238, -35.6428888 ], [ -59.4395654, -35.6581945 ], [ -59.4334447, -35.6631988 ], [ -59.4275819, -35.6681615 ], [ -59.4087727, -35.6864795 ], [ -59.4006833, -35.6928225 ], [ -59.3925068, -35.6990691 ], [ -59.390677, -35.7005849 ], [ -59.3838566, -35.7057942 ], [ -59.3749259, -35.7124316 ], [ -59.374663, -35.7134879 ], [ -59.375902, -35.7176488 ], [ -59.3763794, -35.718336 ], [ -59.3770498, -35.7191574 ], [ -59.3781841, -35.7204747 ], [ -59.3814428, -35.7232117 ], [ -59.3861206, -35.7270698 ], [ -59.3860584, -35.7277737 ], [ -59.368357, -35.7411725 ], [ -59.3664948, -35.7418587 ], [ -59.3638986, -35.74351 ], [ -59.3535755, -35.7490698 ], [ -59.3528855, -35.7492613 ], [ -59.3523779, -35.7492525 ], [ -59.351857, -35.7489913 ], [ -59.3511107, -35.7483817 ], [ -59.3440083, -35.7423522 ], [ -59.3075088, -35.7708155 ] ] } },
{ "type": "Feature", "properties": { "NOMEMCLATURA": "093-05", "PARTIDO": 93.0, "PARTIDO_NOMBRE": "Saladillo", "DENOMINACION": "SEC 093-13 - Polvaderas", "CLASE": "PAVIMENTADO", "TRANSITABIlIDAD": "PERMANENTE", "TIPO": "CAMINO", "TRAMO_NUM": null, "LON_INI": -59.7232553, "LAT_INI": -35.6797097, "LON_FIN": -59.4393355, "LAT_FIN": -35.5674083, "LONGITUD_KM_ORIG": 22.416, "LONGITUD_KM_WGS84": 28.7432, "N_VERTICES": 22, "N_LINEAS": 1, "DIFF_PCT": 28.2, "ALERTA": "REVISAR" }, "geometry": { "type": "LineString", "coordinates": [ [ -59.7232553, -35.6797097 ], [ -59.7134854, -35.6717193 ], [ -59.712305, -35.6709967 ], [ -59.7040344, -35.6675741 ], [ -59.6987273, -35.6653732 ], [ -59.6934897, -35.6622956 ], [ -59.6841672, -35.6583558 ], [ -59.6790233, -35.6570375 ], [ -59.6760896, -35.6558063 ], [ -59.6452419, -35.6431688 ], [ -59.6376218, -35.6399985 ], [ -59.6332522, -35.6373631 ], [ -59.6259599, -35.6343288 ], [ -59.6207996, -35.6330013 ], [ -59.606728, -35.6272066 ], [ -59.5917946, -35.6218374 ], [ -59.5128463, -35.5937468 ], [ -59.51256, -35.5939068 ], [ -59.5063283, -35.5917294 ], [ -59.5047064, -35.5911728 ], [ -59.5047958, -35.5907864 ], [ -59.4393355, -35.5674083 ] ] } },
{ "type": "Feature", "properties": { "NOMEMCLATURA": "093-06", "PARTIDO": 93.0, "PARTIDO_NOMBRE": "Saladillo", "DENOMINACION": "RP 91 - SEC 034-08 (Gral. Alvear)", "CLASE": "DE TIERRA", "TRANSITABIlIDAD": "TEMPORARIO", "TIPO": "CAMINO", "TRAMO_NUM": null, "LON_INI": -59.7516489, "LAT_INI": -35.6959658, "LON_FIN": -59.7201304, "LAT_FIN": -35.8035602, "LONGITUD_KM_ORIG": 12.702, "LONGITUD_KM_WGS84": 12.588, "N_VERTICES": 20, "N_LINEAS": 1, "DIFF_PCT": -0.9, "ALERTA": "" }, "geometry": { "type": "LineString", "coordinates": [ [ -59.7516489, -35.6959658 ], [ -59.7514846, -35.700807 ], [ -59.75058, -35.7031998 ], [ -59.7502454, -35.7051639 ], [ -59.7509837, -35.7089401 ], [ -59.7510291, -35.7109222 ], [ -59.7476433, -35.71742 ], [ -59.7479199, -35.7210106 ], [ -59.7476815, -35.7229637 ], [ -59.7460117, -35.7259984 ], [ -59.745125, -35.7268817 ], [ -59.744646, -35.7274079 ], [ -59.7442179, -35.7284414 ], [ -59.7437308, -35.7297536 ], [ -59.7435306, -35.7312179 ], [ -59.7414461, -35.7373202 ], [ -59.7400104, -35.754956 ], [ -59.732308, -35.7907733 ], [ -59.7220766, -35.8004393 ], [ -59.7201304, -35.8035602 ] ] } },
{ "type": "Feature", "properties": { "NOMEMCLATURA": "093-07", "PARTIDO": 93.0, "PARTIDO_NOMBRE": "Saladillo", "DENOMINACION": "SEC 093-08 (La Barrancosa) - SEC 093-02 (La Razón) (Tramo 2)", "CLASE": "DE TIERRA", "TRANSITABIlIDAD": "TEMPORARIO", "TIPO": "CAMINO", "TRAMO_NUM": "2", "LON_INI": -59.8647964, "LAT_INI": -35.7336941, "LON_FIN": -59.7327329, "LAT_FIN": -35.8156118, "LONGITUD_KM_ORIG": 15.914, "LONGITUD_KM_WGS84": 16.7807, "N_VERTICES": 24, "N_LINEAS": 1, "DIFF_PCT": 5.4, "ALERTA": "" }, "geometry": { "type": "LineString", "coordinates": [ [ -59.8647964, -35.7336941 ], [ -59.8584514, -35.7364901 ], [ -59.852114, -35.7392312 ], [ -59.8395931, -35.7405604 ], [ -59.8281004, -35.7453748 ], [ -59.8227553, -35.7501182 ], [ -59.8135817, -35.7559236 ], [ -59.812894, -35.7581359 ], [ -59.8077644, -35.7604656 ], [ -59.8059828, -35.7619217 ], [ -59.8019686, -35.7649245 ], [ -59.7982706, -35.7677531 ], [ -59.7978535, -35.7713887 ], [ -59.7972159, -35.7737057 ], [ -59.7967392, -35.7741338 ], [ -59.7926553, -35.7750842 ], [ -59.786433, -35.780182 ], [ -59.789581, -35.783081 ], [ -59.783381, -35.787648 ], [ -59.777796, -35.789697 ], [ -59.776907, -35.7924 ], [ -59.7576618, -35.8065769 ], [ -59.7385222, -35.820869 ], [ -59.7327329, -35.8156118 ] ] } },
{ "type": "Feature", "properties": { "NOMEMCLATURA": "093-07", "PARTIDO": 93.0, "PARTIDO_NOMBRE": "Saladillo", "DENOMINACION": "RN 205 - SEC 093-08 (Tramo 1)", "CLASE": "DE TIERRA", "TRANSITABIlIDAD": "TEMPORARIO", "TIPO": "CAMINO", "TRAMO_NUM": "1", "LON_INI": -59.8691409, "LAT_INI": -35.7380462, "LON_FIN": -60.0594473, "LAT_FIN": -35.7472794, "LONGITUD_KM_ORIG": 26.478, "LONGITUD_KM_WGS84": 25.9648, "N_VERTICES": 29, "N_LINEAS": 1, "DIFF_PCT": -1.9, "ALERTA": "" }, "geometry": { "type": "LineString", "coordinates": [ [ -59.8691409, -35.7380462 ], [ -59.8744712, -35.7360986 ], [ -59.8810704, -35.7316966 ], [ -59.8872145, -35.7375707 ], [ -59.8967352, -35.7327917 ], [ -59.9113472, -35.7462574 ], [ -59.9119911, -35.7460258 ], [ -59.9172755, -35.7505225 ], [ -59.9269006, -35.7563682 ], [ -59.9461016, -35.7678014 ], [ -59.9523326, -35.7630112 ], [ -59.9528569, -35.7629329 ], [ -59.9531828, -35.7630635 ], [ -59.9625565, -35.7711914 ], [ -59.9820898, -35.7879003 ], [ -59.9826449, -35.7880102 ], [ -59.9830713, -35.7878852 ], [ -59.9883659, -35.7838066 ], [ -59.9886823, -35.7837277 ], [ -59.9889665, -35.7838229 ], [ -60.0112513, -35.8029177 ], [ -60.023632, -35.7934097 ], [ -60.0236133, -35.7928407 ], [ -60.0190646, -35.7891321 ], [ -60.0197645, -35.7794776 ], [ -60.0294953, -35.7720309 ], [ -60.0376934, -35.7672802 ], [ -60.0391527, -35.7621409 ], [ -60.0594473, -35.7472794 ] ] } },
{ "type": "Feature", "properties": { "NOMEMCLATURA": "093-08", "PARTIDO": 93.0, "PARTIDO_NOMBRE": "Saladillo", "DENOMINACION": "RP 51 - SEC 034-01 (Gral. Alvear) (Tramo 2)", "CLASE": "DE TIERRA", "TRANSITABIlIDAD": "TEMPORARIO", "TIPO": "CAMINO", "TRAMO_NUM": "2", "LON_INI": -59.8182694, "LAT_INI": -35.6675953, "LON_FIN": -59.939331, "LAT_FIN": -35.8701971, "LONGITUD_KM_ORIG": 25.268, "LONGITUD_KM_WGS84": 25.1911, "N_VERTICES": 7, "N_LINEAS": 1, "DIFF_PCT": -0.3, "ALERTA": "" }, "geometry": { "type": "LineString", "coordinates": [ [ -59.8182694, -35.6675953 ], [ -59.8416663, -35.688653 ], [ -59.8627086, -35.7278503 ], [ -59.8627813, -35.7297878 ], [ -59.869619, -35.742555 ], [ -59.8709094, -35.7431179 ], [ -59.939331, -35.8701971 ] ] } },
{ "type": "Feature", "properties": { "NOMEMCLATURA": "093-08", "PARTIDO": 93.0, "PARTIDO_NOMBRE": "Saladillo", "DENOMINACION": "Saladillo - RP 51 (Tramo 1)", "CLASE": "PAVIMENTADO", "TRANSITABIlIDAD": "PERMANENTE", "TIPO": "CAMINO", "TRAMO_NUM": "1", "LON_INI": -59.7836105, "LAT_INI": -35.6418612, "LON_FIN": -59.8148889, "LAT_FIN": -35.6700745, "LONGITUD_KM_ORIG": 4.23, "LONGITUD_KM_WGS84": 4.2216, "N_VERTICES": 3, "N_LINEAS": 1, "DIFF_PCT": -0.2, "ALERTA": "" }, "geometry": { "type": "LineString", "coordinates": [ [ -59.7836105, -35.6418612 ], [ -59.8137845, -35.6691224 ], [ -59.8148889, -35.6700745 ] ] } },
{ "type": "Feature", "properties": { "NOMEMCLATURA": "093-09", "PARTIDO": 93.0, "PARTIDO_NOMBRE": "Saladillo", "DENOMINACION": "SEC 093-13 - SEC 109-18", "CLASE": "DE TIERRA", "TRANSITABIlIDAD": "TEMPORARIO", "TIPO": "CAMINO", "TRAMO_NUM": null, "LON_INI": -59.8564772, "LAT_INI": -35.5416888, "LON_FIN": -60.0325421, "LAT_FIN": -35.6578988, "LONGITUD_KM_ORIG": 21.614, "LONGITUD_KM_WGS84": 21.5558, "N_VERTICES": 30, "N_LINEAS": 1, "DIFF_PCT": -0.3, "ALERTA": "" }, "geometry": { "type": "LineString", "coordinates": [ [ -59.8564772, -35.5416888 ], [ -59.8794379, -35.5614284 ], [ -59.9227862, -35.5987972 ], [ -59.929467, -35.5962282 ], [ -59.9507449, -35.6145273 ], [ -59.9513161, -35.6147779 ], [ -59.9540628, -35.6171305 ], [ -59.9557511, -35.6167265 ], [ -59.9647216, -35.6246934 ], [ -59.9750573, -35.633811 ], [ -59.9769693, -35.6350185 ], [ -59.9793103, -35.6354997 ], [ -59.9805909, -35.6358023 ], [ -59.9836578, -35.6370814 ], [ -59.9853299, -35.6369421 ], [ -59.9895405, -35.6376283 ], [ -59.9921391, -35.6377021 ], [ -59.9957409, -35.6368558 ], [ -60.0053139, -35.6403264 ], [ -60.0068057, -35.6409425 ], [ -60.0067633, -35.6424654 ], [ -60.0134107, -35.645767 ], [ -60.0133784, -35.6462626 ], [ -60.0142493, -35.646563 ], [ -60.0165516, -35.6485004 ], [ -60.0199989, -35.6504979 ], [ -60.0243298, -35.6537371 ], [ -60.0311448, -35.6574861 ], [ -60.031966, -35.6576498 ], [ -60.0325421, -35.6578988 ] ] } },
{ "type": "Feature", "properties": { "NOMEMCLATURA": "093-10", "PARTIDO": 93.0, "PARTIDO_NOMBRE": "Saladillo", "DENOMINACION": "SEC 109-18 - SEC 109-16", "CLASE": "DE TIERRA", "TRANSITABIlIDAD": "TEMPORARIO", "TIPO": "CAMINO", "TRAMO_NUM": null, "LON_INI": -60.0926343, "LAT_INI": -35.682966, "LON_FIN": -60.1304085, "LAT_FIN": -35.675333, "LONGITUD_KM_ORIG": 3.756, "LONGITUD_KM_WGS84": 3.7927, "N_VERTICES": 7, "N_LINEAS": 1, "DIFF_PCT": 1.0, "ALERTA": "" }, "geometry": { "type": "LineString", "coordinates": [ [ -60.0926343, -35.682966 ], [ -60.0948215, -35.6837104 ], [ -60.0954753, -35.684003 ], [ -60.0960302, -35.684169 ], [ -60.1011395, -35.685886 ], [ -60.1272194, -35.6785622 ], [ -60.1304085, -35.675333 ] ] } },
{ "type": "Feature", "properties": { "NOMEMCLATURA": "093-11", "PARTIDO": 93.0, "PARTIDO_NOMBRE": "Saladillo", "DENOMINACION": "SEC 093-09 - Esther", "CLASE": "DE TIERRA", "TRANSITABIlIDAD": "TEMPORARIO", "TIPO": "CAMINO", "TRAMO_NUM": null, "LON_INI": -59.964959, "LAT_INI": -35.6249016, "LON_FIN": -59.953428, "LAT_FIN": -35.6391188, "LONGITUD_KM_ORIG": 1.885, "LONGITUD_KM_WGS84": 1.8919, "N_VERTICES": 2, "N_LINEAS": 1, "DIFF_PCT": 0.4, "ALERTA": "" }, "geometry": { "type": "LineString", "coordinates": [ [ -59.964959, -35.6249016 ], [ -59.953428, -35.6391188 ] ] } },
{ "type": "Feature", "properties": { "NOMEMCLATURA": "093-12", "PARTIDO": 93.0, "PARTIDO_NOMBRE": "Saladillo", "DENOMINACION": "SEC 093-13 - SEC 109-05", "CLASE": "DE TIERRA", "TRANSITABIlIDAD": "TEMPORARIO", "TIPO": "CAMINO", "TRAMO_NUM": null, "LON_INI": -59.8329118, "LAT_INI": -35.5702736, "LON_FIN": -59.8402676, "LAT_FIN": -35.4943864, "LONGITUD_KM_ORIG": 9.109, "LONGITUD_KM_WGS84": 9.0337, "N_VERTICES": 15, "N_LINEAS": 1, "DIFF_PCT": -0.8, "ALERTA": "" }, "geometry": { "type": "LineString", "coordinates": [ [ -59.8329118, -35.5702736 ], [ -59.8243757, -35.5627802 ], [ -59.8275185, -35.557162 ], [ -59.8290677, -35.5542103 ], [ -59.8336192, -35.5453696 ], [ -59.833849, -35.5312604 ], [ -59.8322367, -35.5216313 ], [ -59.8326172, -35.5195225 ], [ -59.8328474, -35.5172827 ], [ -59.8327325, -35.5155198 ], [ -59.8363606, -35.506586 ], [ -59.837885, -35.5038039 ], [ -59.8392912, -35.501013 ], [ -59.8405442, -35.4951202 ], [ -59.8402676, -35.4943864 ] ] } },
{ "type": "Feature", "properties": { "NOMEMCLATURA": "093-13", "PARTIDO": 93.0, "PARTIDO_NOMBRE": "Saladillo", "DENOMINACION": "RP 91 - Saladillo (Tramo 1)", "CLASE": "PAVIMENTADO", "TRANSITABIlIDAD": "PERMANENTE", "TIPO": "CAMINO", "TRAMO_NUM": "1", "LON_INI": -59.6927812, "LAT_INI": -35.7096538, "LON_FIN": -59.7740181, "LAT_FIN": -35.6419338, "LONGITUD_KM_ORIG": 10.561, "LONGITUD_KM_WGS84": 10.7376, "N_VERTICES": 27, "N_LINEAS": 1, "DIFF_PCT": 1.7, "ALERTA": "" }, "geometry": { "type": "LineString", "coordinates": [ [ -59.6927812, -35.7096538 ], [ -59.6942911, -35.708548 ], [ -59.6957178, -35.7073813 ], [ -59.6964465, -35.7067682 ], [ -59.6970223, -35.7058154 ], [ -59.6973374, -35.7047529 ], [ -59.6976738, -35.7034988 ], [ -59.6982395, -35.7011735 ], [ -59.6994566, -35.6963704 ], [ -59.6999906, -35.6954247 ], [ -59.7005768, -35.6948616 ], [ -59.7012756, -35.6942896 ], [ -59.7075545, -35.690945 ], [ -59.7117112, -35.6887285 ], [ -59.7125729, -35.6882539 ], [ -59.7134077, -35.6877358 ], [ -59.7151068, -35.6865929 ], [ -59.7183868, -35.6842895 ], [ -59.7209205, -35.6820469 ], [ -59.7235292, -35.6797563 ], [ -59.7273567, -35.6765376 ], [ -59.7305189, -35.6741031 ], [ -59.7360071, -35.6701132 ], [ -59.7413983, -35.6660881 ], [ -59.7522326, -35.6579349 ], [ -59.7630983, -35.6499316 ], [ -59.7740181, -35.6419338 ] ] } },
{ "type": "Feature", "properties": { "NOMEMCLATURA": "093-13", "PARTIDO": 93.0, "PARTIDO_NOMBRE": "Saladillo", "DENOMINACION": "Saladillo - SEC 109-04 (Veinticinco de Mayo) (Tramo 3)", "CLASE": "DE TIERRA", "TRANSITABIlIDAD": "TEMPORARIO", "TIPO": "CAMINO", "TRAMO_NUM": "3", "LON_INI": -59.7944891, "LAT_INI": -35.6131682, "LON_FIN": -59.9383668, "LAT_FIN": -35.4939297, "LONGITUD_KM_ORIG": 20.015, "LONGITUD_KM_WGS84": 19.8769, "N_VERTICES": 44, "N_LINEAS": 1, "DIFF_PCT": -0.7, "ALERTA": "" }, "geometry": { "type": "LineString", "coordinates": [ [ -59.7944891, -35.6131682 ], [ -59.7988708, -35.6099487 ], [ -59.8140277, -35.5984339 ], [ -59.829266, -35.5869521 ], [ -59.8296102, -35.5860458 ], [ -59.8294394, -35.5854319 ], [ -59.8264452, -35.5827893 ], [ -59.8262731, -35.5823689 ], [ -59.8262942, -35.5818612 ], [ -59.8296676, -35.5760631 ], [ -59.8329118, -35.5702736 ], [ -59.8364592, -35.564112 ], [ -59.8450513, -35.5551398 ], [ -59.8485469, -35.5498564 ], [ -59.8485499, -35.5495568 ], [ -59.8479198, -35.5487204 ], [ -59.8479553, -35.5482871 ], [ -59.8530099, -35.5445549 ], [ -59.8549122, -35.5429128 ], [ -59.856034, -35.5420847 ], [ -59.8564772, -35.5416888 ], [ -59.8567163, -35.5413597 ], [ -59.857524, -35.53959 ], [ -59.8595847, -35.537345 ], [ -59.862474, -35.5328136 ], [ -59.8638932, -35.5305915 ], [ -59.864096, -35.5297475 ], [ -59.8734931, -35.5228525 ], [ -59.8746379, -35.5216767 ], [ -59.8776379, -35.5195018 ], [ -59.8846339, -35.5128338 ], [ -59.8856572, -35.5122138 ], [ -59.8867448, -35.5117334 ], [ -59.8899293, -35.5116154 ], [ -59.8958028, -35.5102099 ], [ -59.9004731, -35.5080058 ], [ -59.9168086, -35.5022318 ], [ -59.9201337, -35.5017217 ], [ -59.9331099, -35.4948569 ], [ -59.9340467, -35.4947404 ], [ -59.9356524, -35.4947586 ], [ -59.9371024, -35.4947287 ], [ -59.9377319, -35.4943816 ], [ -59.9383668, -35.4939297 ] ] } },
{ "type": "Feature", "properties": { "NOMEMCLATURA": "093-13", "PARTIDO": 93.0, "PARTIDO_NOMBRE": "Saladillo", "DENOMINACION": "RN 205 - Saladillo Norte (Tramo 2)", "CLASE": "PAVIMENTADO", "TRANSITABIlIDAD": "PERMANENTE", "TIPO": "CAMINO", "TRAMO_NUM": "2", "LON_INI": -59.7779046, "LAT_INI": -35.6253184, "LON_FIN": -59.7944891, "LAT_FIN": -35.6131682, "LONGITUD_KM_ORIG": 2.136, "LONGITUD_KM_WGS84": 2.0186, "N_VERTICES": 2, "N_LINEAS": 1, "DIFF_PCT": -5.5, "ALERTA": "" }, "geometry": { "type": "LineString", "coordinates": [ [ -59.7779046, -35.6253184 ], [ -59.7944891, -35.6131682 ] ] } },
{ "type": "Feature", "properties": { "NOMEMCLATURA": "093-14", "PARTIDO": 93.0, "PARTIDO_NOMBRE": "Saladillo", "DENOMINACION": "SEC 058-09 (Las Flores) - Estac. Blaquier (Traza sin abrir) (Tramo 1)", "CLASE": "SIN ABRIR", "TRANSITABIlIDAD": "TEMPORARIO", "TIPO": "CAMINO", "TRAMO_NUM": "1", "LON_INI": -59.3285839, "LAT_INI": -35.8024717, "LON_FIN": -59.3075088, "LAT_FIN": -35.7708155, "LONGITUD_KM_ORIG": 3.968, "LONGITUD_KM_WGS84": 4.062, "N_VERTICES": 3, "N_LINEAS": 1, "DIFF_PCT": 2.4, "ALERTA": "" }, "geometry": { "type": "LineString", "coordinates": [ [ -59.3285839, -35.8024717 ], [ -59.3067869, -35.7714599 ], [ -59.3075088, -35.7708155 ] ] } },
{ "type": "Feature", "properties": { "NOMEMCLATURA": "093-14", "PARTIDO": 93.0, "PARTIDO_NOMBRE": "Saladillo", "DENOMINACION": "Estac. Blaquier - SEC 091-06 (Roque Perez) (Tramo 2)", "CLASE": "DE TIERRA", "TRANSITABIlIDAD": "TEMPORARIO", "TIPO": "CAMINO", "TRAMO_NUM": "2", "LON_INI": -59.3075088, "LAT_INI": -35.7708155, "LON_FIN": -59.2551084, "LAT_FIN": -35.6981761, "LONGITUD_KM_ORIG": 9.359, "LONGITUD_KM_WGS84": 9.4209, "N_VERTICES": 6, "N_LINEAS": 1, "DIFF_PCT": 0.7, "ALERTA": "" }, "geometry": { "type": "LineString", "coordinates": [ [ -59.3075088, -35.7708155 ], [ -59.3052891, -35.7676205 ], [ -59.3049742, -35.7674983 ], [ -59.3043215, -35.767786 ], [ -59.2966526, -35.7570435 ], [ -59.2551084, -35.6981761 ] ] } },
{ "type": "Feature", "properties": { "NOMEMCLATURA": "093-15", "PARTIDO": 93.0, "PARTIDO_NOMBRE": "Saladillo", "DENOMINACION": "Saladillo: Circuito Av. Circunvalación por Avs. I. Frocham (hasta RN 205) - Ledesma -  - Saavedra (hasta RN 205)", "CLASE": "PAVIMENTADO", "TRANSITABIlIDAD": "PERMANENTE", "TIPO": "CAMINO", "TRAMO_NUM": null, "LON_INI": -59.777419074694237, "LAT_INI": -35.625647384705914, "LON_FIN": -59.797720494061004, "LAT_FIN": -35.638361119041598, "LONGITUD_KM_ORIG": 2.28, "LONGITUD_KM_WGS84": 6.8353, "N_VERTICES": 5, "N_LINEAS": 1, "DIFF_PCT": 199.8, "ALERTA": "REVISAR" }, "geometry": { "type": "LineString", "coordinates": [ [ -59.777419074694237, -35.625647384705914 ], [ -59.760446833804231, -35.638168782185708 ], [ -59.763554008300034, -35.640882478465173 ], [ -59.777276371346389, -35.653367417619258 ], [ -59.797720494061004, -35.638361119041598 ] ] } }
]
}
