{
"type": "FeatureCollection",
"name": "caminos_secundarios_109_final",
"features": [
{ "type": "Feature", "properties": { "NOMEMCLATURA": "109-01", "PARTIDO": "109", "PARTIDO_NOMBRE": "Veinticinco de Mayo", "DENOMINACION": "RP 61 - SEC 011-01 (Tramo 3)", "CLASE": "DE TIERRA", "TRANSITABIlIDAD": "TEMPORARIO", "TIPO": "CAMINO", "TRAMO_NUM": "3", "LON_INI": -60.7599008, "LAT_INI": -35.9183253, "LON_FIN": -60.562727, "LAT_FIN": -35.7395617, "LONGITUD_KM_ORIG": 29.751, "LONGITUD_KM_WGS84": 29.8101, "N_VERTICES": 30, "N_LINEAS": 1, "DIFF_PCT": 0.2, "ALERTA": "" }, "geometry": { "type": "MultiLineString", "coordinates": [ [ [ -60.7599008, -35.9183253, 0.0 ], [ -60.7472154, -35.9082458, 0.0 ], [ -60.7413834, -35.9036923, 0.0 ], [ -60.7361153, -35.8995338, 0.0 ], [ -60.7365268, -35.899158, 0.0 ], [ -60.7365019, -35.8989463, 0.0 ], [ -60.7286935, -35.8928418, 0.0 ], [ -60.7280914, -35.8925499, 0.0 ], [ -60.7050581, -35.8745554, 0.0 ], [ -60.6820929, -35.8564515, 0.0 ], [ -60.6470498, -35.8261481, 0.0 ], [ -60.6475621, -35.825709, 0.0 ], [ -60.6476076, -35.8254439, 0.0 ], [ -60.6448986, -35.8231999, 0.0 ], [ -60.6449425, -35.8229071, 0.0 ], [ -60.6653359, -35.8073656, 0.0 ], [ -60.6653396, -35.8071427, 0.0 ], [ -60.642537, -35.787349, 0.0 ], [ -60.6413137, -35.7866606, 0.0 ], [ -60.6339539, -35.7802682, 0.0 ], [ -60.6220486, -35.7761094, 0.0 ], [ -60.6175414, -35.7742697, 0.0 ], [ -60.6077126, -35.7698661, 0.0 ], [ -60.6028755, -35.7671085, 0.0 ], [ -60.6015253, -35.7661179, 0.0 ], [ -60.5963099, -35.7623549, 0.0 ], [ -60.5957831, -35.7619436, 0.0 ], [ -60.5672027, -35.7392249, 0.0 ], [ -60.5647944, -35.7379684, 0.0 ], [ -60.562727, -35.7395617, 0.0 ] ] ] } },
{ "type": "Feature", "properties": { "NOMEMCLATURA": "109-01", "PARTIDO": "109", "PARTIDO_NOMBRE": "Veinticinco de Mayo", "DENOMINACION": "25 de Mayo - Valdes (Tramo 1)", "CLASE": "PAVIMENTADO", "TRANSITABIlIDAD": "PERMANENTE", "TIPO": "CAMINO", "TRAMO_NUM": "1", "LON_INI": -60.1798478, "LAT_INI": -35.4186796, "LON_FIN": -60.4675888, "LAT_FIN": -35.6427977, "LONGITUD_KM_ORIG": 37.268, "LONGITUD_KM_WGS84": 37.2877, "N_VERTICES": 27, "N_LINEAS": 1, "DIFF_PCT": 0.1, "ALERTA": "" }, "geometry": { "type": "MultiLineString", "coordinates": [ [ [ -60.1798478, -35.4186796, 0.0 ], [ -60.1854176, -35.4181214, 0.0 ], [ -60.1922676, -35.4165274, 0.0 ], [ -60.1974808, -35.4155972, 0.0 ], [ -60.1988418, -35.4157487, 0.0 ], [ -60.1996396, -35.416049, 0.0 ], [ -60.2178004, -35.4315301, 0.0 ], [ -60.2360757, -35.4473056, 0.0 ], [ -60.2616843, -35.4647156, 0.0 ], [ -60.2630214, -35.4660545, 0.0 ], [ -60.2668157, -35.472741, 0.0 ], [ -60.3009394, -35.5022976, 0.0 ], [ -60.3347125, -35.5315225, 0.0 ], [ -60.3604746, -35.5717435, 0.0 ], [ -60.3625326, -35.5750096, 0.0 ], [ -60.3638369, -35.5763168, 0.0 ], [ -60.3791502, -35.5874301, 0.0 ], [ -60.3917228, -35.5964932, 0.0 ], [ -60.4043839, -35.6056424, 0.0 ], [ -60.4100509, -35.6105061, 0.0 ], [ -60.4164588, -35.6159803, 0.0 ], [ -60.41835, -35.6172711, 0.0 ], [ -60.4420571, -35.6290401, 0.0 ], [ -60.4646013, -35.6402905, 0.0 ], [ -60.4660425, -35.6412223, 0.0 ], [ -60.4667379, -35.6418334, 0.0 ], [ -60.4675888, -35.6427977, 0.0 ] ] ] } },
{ "type": "Feature", "properties": { "NOMEMCLATURA": "109-01", "PARTIDO": "109", "PARTIDO_NOMBRE": "Veinticinco de Mayo", "DENOMINACION": "Valdes - RP 61 (Tramo 2)", "CLASE": "DE TIERRA", "TRANSITABIlIDAD": "TEMPORARIO", "TIPO": "CAMINO", "TRAMO_NUM": "2", "LON_INI": -60.4675888, "LAT_INI": -35.6427977, "LON_FIN": -60.5359888, "LAT_FIN": -35.7134144, "LONGITUD_KM_ORIG": 9.863, "LONGITUD_KM_WGS84": 10.1376, "N_VERTICES": 23, "N_LINEAS": 1, "DIFF_PCT": 2.8, "ALERTA": "" }, "geometry": { "type": "MultiLineString", "coordinates": [ [ [ -60.4675888, -35.6427977, 0.0 ], [ -60.4679163, -35.6431577, 0.0 ], [ -60.4687562, -35.6443372, 0.0 ], [ -60.4697904, -35.6459095, 0.0 ], [ -60.4707951, -35.6474861, 0.0 ], [ -60.4718105, -35.6490508, 0.0 ], [ -60.472749780824863, -35.650435841571046, 0.0 ], [ -60.472778285639542, -35.650550293783951, 0.0 ], [ -60.472739106553334, -35.650677850756878, 0.0 ], [ -60.47230195178097, -35.650928940308788, 0.0 ], [ -60.472198717350359, -35.651069587360141, 0.0 ], [ -60.472228896637937, -35.651263042847724, 0.0 ], [ -60.473829455907534, -35.653669021331488, 0.0 ], [ -60.474085571629729, -35.654007755028857, 0.0 ], [ -60.474723421409173, -35.654645220776352, 0.0 ], [ -60.4828022, -35.6615395, 0.0 ], [ -60.4892857, -35.6670269, 0.0 ], [ -60.489353, -35.6672629, 0.0 ], [ -60.4890127, -35.6677605, 0.0 ], [ -60.5049634, -35.6814672, 0.0 ], [ -60.5081241, -35.6844278, 0.0 ], [ -60.5226494, -35.6994969, 0.0 ], [ -60.5359888, -35.7134144, 0.0 ] ] ] } },
{ "type": "Feature", "properties": { "NOMEMCLATURA": "109-02", "PARTIDO": "109", "PARTIDO_NOMBRE": "Veinticinco de Mayo", "DENOMINACION": "25 de Mayo - RP 61", "CLASE": "DE TIERRA", "TRANSITABIlIDAD": "TEMPORARIO", "TIPO": "CAMINO", "TRAMO_NUM": null, "LON_INI": -60.1712746, "LAT_INI": -35.4460233, "LON_FIN": -60.4076363, "LAT_FIN": -35.8224559, "LONGITUD_KM_ORIG": 59.6, "LONGITUD_KM_WGS84": 60.4039, "N_VERTICES": 97, "N_LINEAS": 1, "DIFF_PCT": 1.3, "ALERTA": "" }, "geometry": { "type": "MultiLineString", "coordinates": [ [ [ -60.1712746, -35.4460233, 0.0 ], [ -60.2027009, -35.4731258, 0.0 ], [ -60.1698003, -35.4987535, 0.0 ], [ -60.171401, -35.5000992, 0.0 ], [ -60.1641971, -35.5057003, 0.0 ], [ -60.1688065, -35.5096414, 0.0 ], [ -60.1681121, -35.5127229, 0.0 ], [ -60.1677718, -35.5150447, 0.0 ], [ -60.1690421, -35.5176314, 0.0 ], [ -60.1697761, -35.521314, 0.0 ], [ -60.1754778, -35.5262619, 0.0 ], [ -60.1729497, -35.5288634, 0.0 ], [ -60.1725994, -35.5293432, 0.0 ], [ -60.1724435, -35.5298167, 0.0 ], [ -60.1720945, -35.532246, 0.0 ], [ -60.171568, -35.53342, 0.0 ], [ -60.1661905, -35.5438347, 0.0 ], [ -60.1653226, -35.5519967, 0.0 ], [ -60.1643537, -35.5542804, 0.0 ], [ -60.164586, -35.557847, 0.0 ], [ -60.1650652, -35.5613307, 0.0 ], [ -60.1650128, -35.5629915, 0.0 ], [ -60.1656738, -35.5644908, 0.0 ], [ -60.1670079, -35.5705102, 0.0 ], [ -60.1674733, -35.5741497, 0.0 ], [ -60.1674278, -35.5762225, 0.0 ], [ -60.1667049, -35.5796717, 0.0 ], [ -60.1665078, -35.5835528, 0.0 ], [ -60.16624, -35.5840156, 0.0 ], [ -60.1652749, -35.5850323, 0.0 ], [ -60.1482418, -35.6003009, 0.0 ], [ -60.1611279, -35.6112416, 0.0 ], [ -60.13045663607069, -35.635056023424326, 0.0 ], [ -60.130408861212175, -35.635218754753737, 0.0 ], [ -60.130464206175311, -35.635334894538296, 0.0 ], [ -60.132209, -35.6355164, 0.0 ], [ -60.1342519, -35.6358951, 0.0 ], [ -60.1365244, -35.6365659, 0.0 ], [ -60.1385501, -35.6373587, 0.0 ], [ -60.1406725, -35.6384311, 0.0 ], [ -60.1654815, -35.6529096, 0.0 ], [ -60.172919, -35.657172, 0.0 ], [ -60.1767025, -35.6593749, 0.0 ], [ -60.1802715, -35.6612814, 0.0 ], [ -60.1966454, -35.6698733, 0.0 ], [ -60.2121215, -35.6778618, 0.0 ], [ -60.2169274, -35.6812413, 0.0 ], [ -60.2163587, -35.681692, 0.0 ], [ -60.217007, -35.6822014, 0.0 ], [ -60.2204423, -35.6852106, 0.0 ], [ -60.2204621, -35.6856874, 0.0 ], [ -60.2280192, -35.6921506, 0.0 ], [ -60.2295338, -35.6910306, 0.0 ], [ -60.23115, -35.6922585, 0.0 ], [ -60.2311478, -35.6925388, 0.0 ], [ -60.2308436, -35.6929273, 0.0 ], [ -60.230839, -35.6931193, 0.0 ], [ -60.2309122, -35.6933354, 0.0 ], [ -60.2365081, -35.6981042, 0.0 ], [ -60.242126, -35.7028705, 0.0 ], [ -60.244693, -35.7046706, 0.0 ], [ -60.2467668, -35.7058417, 0.0 ], [ -60.2489963, -35.7069191, 0.0 ], [ -60.2516546, -35.7079829, 0.0 ], [ -60.2547958, -35.7089596, 0.0 ], [ -60.2589028, -35.7102236, 0.0 ], [ -60.2592291, -35.7103371, 0.0 ], [ -60.2589551, -35.7108949, 0.0 ], [ -60.2693941, -35.7141007, 0.0 ], [ -60.2714005, -35.7147866, 0.0 ], [ -60.2747917, -35.7164274, 0.0 ], [ -60.2765443, -35.7175847, 0.0 ], [ -60.2857196, -35.7252865, 0.0 ], [ -60.2941349, -35.7324476, 0.0 ], [ -60.3035487, -35.7404227, 0.0 ], [ -60.3109792, -35.7467427, 0.0 ], [ -60.3137377, -35.749068, 0.0 ], [ -60.3140173, -35.7490652, 0.0 ], [ -60.3143027, -35.7488118, 0.0 ], [ -60.3145625, -35.7487858, 0.0 ], [ -60.3165571, -35.7501316, 0.0 ], [ -60.3184338, -35.7513207, 0.0 ], [ -60.3261787, -35.7558492, 0.0 ], [ -60.3332934, -35.7600175, 0.0 ], [ -60.3349225, -35.7610699, 0.0 ], [ -60.3377103, -35.7629581, 0.0 ], [ -60.3469496, -35.7707883, 0.0 ], [ -60.3545488, -35.7772513, 0.0 ], [ -60.3536197, -35.7779782, 0.0 ], [ -60.3612421, -35.7843385, 0.0 ], [ -60.3615975, -35.7843505, 0.0 ], [ -60.3628551, -35.7833118, 0.0 ], [ -60.3644667, -35.784684, 0.0 ], [ -60.3638522, -35.7852163, 0.0 ], [ -60.3646189, -35.7858747, 0.0 ], [ -60.3932091, -35.8102187, 0.0 ], [ -60.4076363, -35.8224559, 0.0 ] ] ] } },
{ "type": "Feature", "properties": { "NOMEMCLATURA": "109-03", "PARTIDO": "109", "PARTIDO_NOMBRE": "Veinticinco de Mayo", "DENOMINACION": "SEC 075-05 - RP 40 (Tramo 3)", "CLASE": "DE TIERRA", "TRANSITABIlIDAD": "TEMPORARIO", "TIPO": "CAMINO", "TRAMO_NUM": "3", "LON_INI": -59.7645783, "LAT_INI": -35.27212, "LON_FIN": -59.7394163, "LAT_FIN": -35.2039373, "LONGITUD_KM_ORIG": 7.996, "LONGITUD_KM_WGS84": 8.0296, "N_VERTICES": 13, "N_LINEAS": 1, "DIFF_PCT": 0.4, "ALERTA": "" }, "geometry": { "type": "MultiLineString", "coordinates": [ [ [ -59.7645783, -35.27212, 0.0 ], [ -59.7564283, -35.2516287, 0.0 ], [ -59.7558958, -35.2488972, 0.0 ], [ -59.7526221, -35.23312, 0.0 ], [ -59.7517903, -35.2287629, 0.0 ], [ -59.7503174, -35.2219359, 0.0 ], [ -59.7491343, -35.2148723, 0.0 ], [ -59.7489523, -35.2143596, 0.0 ], [ -59.7487757, -35.2141143, 0.0 ], [ -59.7454795, -35.2106305, 0.0 ], [ -59.7420762, -35.2069953, 0.0 ], [ -59.7397573, -35.2044565, 0.0 ], [ -59.7394163, -35.2039373, 0.0 ] ] ] } },
{ "type": "Feature", "properties": { "NOMEMCLATURA": "109-03", "PARTIDO": "109", "PARTIDO_NOMBRE": "Veinticinco de Mayo", "DENOMINACION": "RP 51 - 25 de Mayo (Tramo 1)", "CLASE": "PAVIMENTADO", "TRANSITABIlIDAD": "PERMANENTE", "TIPO": "CAMINO", "TRAMO_NUM": "1", "LON_INI": -60.1562886, "LAT_INI": -35.4330853, "LON_FIN": -60.0844852, "LAT_FIN": -35.4146245, "LONGITUD_KM_ORIG": 6.976, "LONGITUD_KM_WGS84": 6.9398, "N_VERTICES": 11, "N_LINEAS": 1, "DIFF_PCT": -0.5, "ALERTA": "" }, "geometry": { "type": "MultiLineString", "coordinates": [ [ [ -60.1562886, -35.4330853, 0.0 ], [ -60.1524391, -35.4297577, 0.0 ], [ -60.151531, -35.429257, 0.0 ], [ -60.1505104, -35.4289973, 0.0 ], [ -60.1435054, -35.4288676, 0.0 ], [ -60.1313291, -35.4262505, 0.0 ], [ -60.127928, -35.4257273, 0.0 ], [ -60.1234691, -35.425176, 0.0 ], [ -60.1129696, -35.422915, 0.0 ], [ -60.1026603, -35.4199125, 0.0 ], [ -60.0844852, -35.4146245, 0.0 ] ] ] } },
{ "type": "Feature", "properties": { "NOMEMCLATURA": "109-03", "PARTIDO": "109", "PARTIDO_NOMBRE": "Veinticinco de Mayo", "DENOMINACION": "RP 40 - RP 51 (Tramo 2)", "CLASE": "DE TIERRA", "TRANSITABIlIDAD": "TEMPORARIO", "TIPO": "CAMINO", "TRAMO_NUM": "2", "LON_INI": -60.0843187, "LAT_INI": -35.418297, "LON_FIN": -59.7809297, "LAT_FIN": -35.2780528, "LONGITUD_KM_ORIG": 33.582, "LONGITUD_KM_WGS84": 33.4602, "N_VERTICES": 44, "N_LINEAS": 1, "DIFF_PCT": -0.4, "ALERTA": "" }, "geometry": { "type": "MultiLineString", "coordinates": [ [ [ -60.0843187, -35.418297, 0.0 ], [ -60.0831537, -35.4183985, 0.0 ], [ -60.07877, -35.4184038, 0.0 ], [ -60.077871, -35.4183081, 0.0 ], [ -60.0766501, -35.4179851, 0.0 ], [ -60.0758262, -35.4176358, 0.0 ], [ -60.075056, -35.4171816, 0.0 ], [ -60.0744339, -35.4172138, 0.0 ], [ -60.0735559, -35.41729, 0.0 ], [ -60.069073, -35.416929, 0.0 ], [ -60.0599464, -35.4161367, 0.0 ], [ -60.0583717, -35.4160206, 0.0 ], [ -60.0557133, -35.415957, 0.0 ], [ -60.0502625, -35.4146286, 0.0 ], [ -60.0470882, -35.4144461, 0.0 ], [ -60.0442583, -35.4138589, 0.0 ], [ -60.0421043, -35.4137618, 0.0 ], [ -60.0403365, -35.414045, 0.0 ], [ -60.0362237, -35.4136073, 0.0 ], [ -60.0296327, -35.4121901, 0.0 ], [ -60.027871, -35.4112227, 0.0 ], [ -60.0237168, -35.4105705, 0.0 ], [ -60.0207621, -35.4095826, 0.0 ], [ -60.0184539, -35.4096449, 0.0 ], [ -60.0150728, -35.4094886, 0.0 ], [ -60.0123203, -35.4090009, 0.0 ], [ -60.0098534, -35.4097223, 0.0 ], [ -60.0026462, -35.4066819, 0.0 ], [ -59.9994573, -35.4056977, 0.0 ], [ -59.9946823, -35.4032457, 0.0 ], [ -59.9294806, -35.3868622, 0.0 ], [ -59.9250793, -35.3830766, 0.0 ], [ -59.9223945, -35.3850693, 0.0 ], [ -59.9120577, -35.3786472, 0.0 ], [ -59.8918312, -35.3751883, 0.0 ], [ -59.8898275, -35.3745609, 0.0 ], [ -59.8891101, -35.3743117, 0.0 ], [ -59.888628, -35.3735599, 0.0 ], [ -59.8879634, -35.3722374, 0.0 ], [ -59.8856279, -35.3700887, 0.0 ], [ -59.8450054, -35.3344076, 0.0 ], [ -59.8283706, -35.3197992, 0.0 ], [ -59.8046387, -35.2989809, 0.0 ], [ -59.7809297, -35.2780528, 0.0 ] ] ] } },
{ "type": "Feature", "properties": { "NOMEMCLATURA": "109-04", "PARTIDO": "109", "PARTIDO_NOMBRE": "Veinticinco de Mayo", "DENOMINACION": "RP 51 - SEC 093-13", "CLASE": "DE TIERRA", "TRANSITABIlIDAD": "TEMPORARIO", "TIPO": "CAMINO", "TRAMO_NUM": null, "LON_INI": -60.0450828, "LAT_INI": -35.5175024, "LON_FIN": -59.9383668, "LAT_FIN": -35.4939297, "LONGITUD_KM_ORIG": 13.744, "LONGITUD_KM_WGS84": 13.8408, "N_VERTICES": 19, "N_LINEAS": 1, "DIFF_PCT": 0.7, "ALERTA": "" }, "geometry": { "type": "MultiLineString", "coordinates": [ [ [ -60.0450828, -35.5175024, 0.0 ], [ -60.0388489, -35.5121702, 0.0 ], [ -60.0356599, -35.5094491, 0.0 ], [ -60.0347198, -35.5071989, 0.0 ], [ -60.0224213, -35.4965973, 0.0 ], [ -60.0102306, -35.4862129, 0.0 ], [ -60.0100026, -35.4862554, 0.0 ], [ -60.0070869, -35.4884816, 0.0 ], [ -59.9998497, -35.4940741, 0.0 ], [ -59.9876374, -35.4828582, 0.0 ], [ -59.9813819, -35.4830202, 0.0 ], [ -59.9813022, -35.4818651, 0.0 ], [ -59.9766363, -35.4718354, 0.0 ], [ -59.96319, -35.4777646, 0.0 ], [ -59.9557613, -35.4811068, 0.0 ], [ -59.9549227, -35.4815889, 0.0 ], [ -59.9414663, -35.4918225, 0.0 ], [ -59.9391629, -35.4934308, 0.0 ], [ -59.9383668, -35.4939297, 0.0 ] ] ] } },
{ "type": "Feature", "properties": { "NOMEMCLATURA": "109-05", "PARTIDO": "109", "PARTIDO_NOMBRE": "Veinticinco de Mayo", "DENOMINACION": "SEC 109-03 - SEC 093-12", "CLASE": "DE TIERRA", "TRANSITABIlIDAD": "TEMPORARIO", "TIPO": "CAMINO", "TRAMO_NUM": null, "LON_INI": -59.8891101, "LAT_INI": -35.3743117, "LON_FIN": -59.8402676, "LAT_FIN": -35.4943864, "LONGITUD_KM_ORIG": 14.853, "LONGITUD_KM_WGS84": 14.9374, "N_VERTICES": 32, "N_LINEAS": 1, "DIFF_PCT": 0.6, "ALERTA": "" }, "geometry": { "type": "MultiLineString", "coordinates": [ [ [ -59.8891101, -35.3743117, 0.0 ], [ -59.8891483, -35.3745479, 0.0 ], [ -59.8890805, -35.374771, 0.0 ], [ -59.8861058, -35.3771768, 0.0 ], [ -59.8859664, -35.3787636, 0.0 ], [ -59.8861865, -35.3879738, 0.0 ], [ -59.8852616, -35.3907923, 0.0 ], [ -59.8828627, -35.404139, 0.0 ], [ -59.8826718, -35.4044697, 0.0 ], [ -59.8807804, -35.4060115, 0.0 ], [ -59.8799122, -35.4070394, 0.0 ], [ -59.8754174, -35.4106762, 0.0 ], [ -59.8753386, -35.4111408, 0.0 ], [ -59.8754319, -35.4116958, 0.0 ], [ -59.8769338, -35.4130338, 0.0 ], [ -59.8770632, -35.4133458, 0.0 ], [ -59.8769459, -35.4136141, 0.0 ], [ -59.8762715, -35.4151131, 0.0 ], [ -59.873585, -35.4251501, 0.0 ], [ -59.8664187, -35.439801, 0.0 ], [ -59.8643603, -35.4467284, 0.0 ], [ -59.8608555, -35.4575888, 0.0 ], [ -59.8536868, -35.4688121, 0.0 ], [ -59.8531651, -35.4694896, 0.0 ], [ -59.8514363, -35.4737714, 0.0 ], [ -59.8513004, -35.474071, 0.0 ], [ -59.8511108, -35.4742658, 0.0 ], [ -59.8366307, -35.4854104, 0.0 ], [ -59.8358974, -35.4896724, 0.0 ], [ -59.8393457, -35.4932523, 0.0 ], [ -59.8400226, -35.4937473, 0.0 ], [ -59.8402676, -35.4943864, 0.0 ] ] ] } },
{ "type": "Feature", "properties": { "NOMEMCLATURA": "109-06", "PARTIDO": "109", "PARTIDO_NOMBRE": "Veinticinco de Mayo", "DENOMINACION": "Norberto de la Riestra - SEC 091-10 (Tramo 2)", "CLASE": "DE TIERRA", "TRANSITABIlIDAD": "TEMPORARIO", "TIPO": "CAMINO", "TRAMO_NUM": "2", "LON_INI": -59.7701385, "LAT_INI": -35.2773096, "LON_FIN": -59.68961516059229, "LAT_FIN": -35.357173730037275, "LONGITUD_KM_ORIG": 15.294, "LONGITUD_KM_WGS84": 15.302, "N_VERTICES": 14, "N_LINEAS": 1, "DIFF_PCT": 0.1, "ALERTA": "" }, "geometry": { "type": "MultiLineString", "coordinates": [ [ [ -59.7701385, -35.2773096, 0.0 ], [ -59.765138951307044, -35.281077220561215, 0.0 ], [ -59.7672119, -35.2829445, 0.0 ], [ -59.7606359, -35.2879967, 0.0 ], [ -59.763397417393385, -35.290377832366204, 0.0 ], [ -59.763478877988298, -35.29060824769892, 0.0 ], [ -59.763351063216668, -35.290829564810451, 0.0 ], [ -59.759846385620435, -35.293456251338796, 0.0 ], [ -59.759783730298054, -35.293602216836312, 0.0 ], [ -59.759855069175622, -35.293708254355522, 0.0 ], [ -59.7751719, -35.3068429, 0.0 ], [ -59.7524696, -35.3241146, 0.0 ], [ -59.7433938, -35.3162661, 0.0 ], [ -59.68961516059229, -35.357173730037275, 0.0 ] ] ] } },
{ "type": "Feature", "properties": { "NOMEMCLATURA": "109-06", "PARTIDO": "109", "PARTIDO_NOMBRE": "Veinticinco de Mayo", "DENOMINACION": "SEC 109-09 - RP 40 (Tramo 1)", "CLASE": "DE TIERRA", "TRANSITABIlIDAD": "TEMPORARIO", "TIPO": "CAMINO", "TRAMO_NUM": "1", "LON_INI": -59.9615863, "LAT_INI": -35.1400529, "LON_FIN": -59.807803191309091, "LAT_FIN": -35.271182896362518, "LONGITUD_KM_ORIG": 21.407, "LONGITUD_KM_WGS84": 21.6081, "N_VERTICES": 38, "N_LINEAS": 1, "DIFF_PCT": 0.9, "ALERTA": "" }, "geometry": { "type": "MultiLineString", "coordinates": [ [ [ -59.9615863, -35.1400529, 0.0 ], [ -59.9416753, -35.1527189, 0.0 ], [ -59.9376196, -35.1539261, 0.0 ], [ -59.916618106386103, -35.169938475170028, 0.0 ], [ -59.916469395462087, -35.16997218017633, 0.0 ], [ -59.916304767407013, -35.169913842592685, 0.0 ], [ -59.914959879208951, -35.168668581944694, 0.0 ], [ -59.914776978113146, -35.168598984225852, 0.0 ], [ -59.914621468023761, -35.168676421722935, 0.0 ], [ -59.9027691, -35.1776843, 0.0 ], [ -59.8927424, -35.1854315, 0.0 ], [ -59.8859208, -35.1885976, 0.0 ], [ -59.8842631, -35.1900626, 0.0 ], [ -59.8831182, -35.1926335, 0.0 ], [ -59.8715481, -35.2015924, 0.0 ], [ -59.8702845, -35.2005117, 0.0 ], [ -59.849472, -35.2158357, 0.0 ], [ -59.8508273, -35.2170272, 0.0 ], [ -59.8394363, -35.2237083, 0.0 ], [ -59.8283923, -35.2315996, 0.0 ], [ -59.8236311, -35.2428605, 0.0 ], [ -59.823512003520221, -35.2446190819119, 0.0 ], [ -59.823397875462881, -35.24491594510561, 0.0 ], [ -59.822893594325627, -35.245343160787542, 0.0 ], [ -59.8223726, -35.2456911, 0.0 ], [ -59.8214397, -35.2460629, 0.0 ], [ -59.8206141, -35.2464523, 0.0 ], [ -59.8165799, -35.2491002, 0.0 ], [ -59.8146045, -35.2522022, 0.0 ], [ -59.81192861987499, -35.254491691742992, 0.0 ], [ -59.8072695, -35.258018, 0.0 ], [ -59.807841, -35.2590789, 0.0 ], [ -59.8081574, -35.2597801, 0.0 ], [ -59.8087313, -35.2615325, 0.0 ], [ -59.8091717, -35.2631329, 0.0 ], [ -59.8091505, -35.2639638, 0.0 ], [ -59.807953482507898, -35.270242816439762, 0.0 ], [ -59.807803191309091, -35.271182896362518, 0.0 ] ] ] } },
{ "type": "Feature", "properties": { "NOMEMCLATURA": "109-07", "PARTIDO": "109", "PARTIDO_NOMBRE": "Veinticinco de Mayo", "DENOMINACION": "RP 40 - SEC 062-05 (GoogleMaps lo traza como RP40!!!)", "CLASE": "DE TIERRA", "TRANSITABIlIDAD": "TEMPORARIO", "TIPO": "CAMINO", "TRAMO_NUM": null, "LON_INI": -59.6308673, "LAT_INI": -35.2665112, "LON_FIN": -59.5499575, "LAT_FIN": -35.2674745, "LONGITUD_KM_ORIG": 6.377, "LONGITUD_KM_WGS84": 7.451, "N_VERTICES": 14, "N_LINEAS": 1, "DIFF_PCT": 16.8, "ALERTA": "REVISAR" }, "geometry": { "type": "MultiLineString", "coordinates": [ [ [ -59.6308673, -35.2665112, 0.0 ], [ -59.6155959, -35.2677267, 0.0 ], [ -59.6058016, -35.2686242, 0.0 ], [ -59.5915881, -35.269916, 0.0 ], [ -59.572884, -35.2715627, 0.0 ], [ -59.5709105, -35.2716158, 0.0 ], [ -59.5694571, -35.2715394, 0.0 ], [ -59.567462, -35.2713622, 0.0 ], [ -59.5651121, -35.2709261, 0.0 ], [ -59.5624994, -35.2702775, 0.0 ], [ -59.560788, -35.269942, 0.0 ], [ -59.5570436, -35.2690677, 0.0 ], [ -59.5533731, -35.2681595, 0.0 ], [ -59.5499575, -35.2674745, 0.0 ] ] ] } },
{ "type": "Feature", "properties": { "NOMEMCLATURA": "109-08", "PARTIDO": "109", "PARTIDO_NOMBRE": "Veinticinco de Mayo", "DENOMINACION": "SEC 109-07 - Límite partido", "CLASE": "DE TIERRA", "TRANSITABIlIDAD": "TEMPORARIO", "TIPO": "CAMINO", "TRAMO_NUM": null, "LON_INI": -59.5571321, "LAT_INI": -35.2690885, "LON_FIN": -59.557172075561759, "LAT_FIN": -35.335012236090513, "LONGITUD_KM_ORIG": 8.461, "LONGITUD_KM_WGS84": 8.5101, "N_VERTICES": 17, "N_LINEAS": 1, "DIFF_PCT": 0.6, "ALERTA": "" }, "geometry": { "type": "MultiLineString", "coordinates": [ [ [ -59.5571321, -35.2690885, 0.0 ], [ -59.5564248, -35.2709219, 0.0 ], [ -59.5545396, -35.2728891, 0.0 ], [ -59.5509914, -35.2768226, 0.0 ], [ -59.542123713760475, -35.29658998165543, 0.0 ], [ -59.542389053963824, -35.298724374157892, 0.0 ], [ -59.542375565886488, -35.298837577049099, 0.0 ], [ -59.542288108089181, -35.2989645470225, 0.0 ], [ -59.542061936024091, -35.299065531607823, 0.0 ], [ -59.540765167051418, -35.299112120321183, 0.0 ], [ -59.540070667293698, -35.299210151415728, 0.0 ], [ -59.539794924732568, -35.299365082689214, 0.0 ], [ -59.540394275038956, -35.300375233651401, 0.0 ], [ -59.540500024678195, -35.300612678484562, 0.0 ], [ -59.54054128255251, -35.300892019209925, 0.0 ], [ -59.5386785, -35.318685, 0.0 ], [ -59.557172075561759, -35.335012236090513, 0.0 ] ] ] } },
{ "type": "Feature", "properties": { "NOMEMCLATURA": "109-09", "PARTIDO": "109", "PARTIDO_NOMBRE": "Veinticinco de Mayo", "DENOMINACION": "RP 51 - SEC 028-04", "CLASE": "DE TIERRA", "TRANSITABIlIDAD": "TEMPORARIO", "TIPO": "CAMINO", "TRAMO_NUM": null, "LON_INI": -60.092813543197906, "LAT_INI": -35.346193866650978, "LON_FIN": -59.9562052, "LAT_FIN": -35.1248453, "LONGITUD_KM_ORIG": 30.201, "LONGITUD_KM_WGS84": 30.2309, "N_VERTICES": 57, "N_LINEAS": 1, "DIFF_PCT": 0.1, "ALERTA": "" }, "geometry": { "type": "MultiLineString", "coordinates": [ [ [ -60.092813543197906, -35.346193866650978, 0.0 ], [ -60.083775, -35.3383706, 0.0 ], [ -60.063001326713653, -35.32276765528929, 0.0 ], [ -60.062863825313386, -35.32261694012184, 0.0 ], [ -60.062898967635775, -35.322348271236422, 0.0 ], [ -60.063152613327972, -35.322047882447194, 0.0 ], [ -60.063878, -35.3213779, 0.0 ], [ -60.065105137082618, -35.320332223541158, 0.0 ], [ -60.065236665413728, -35.320047698960494, 0.0 ], [ -60.064985722541934, -35.319692266955649, 0.0 ], [ -60.0396919, -35.2972803, 0.0 ], [ -60.0150439, -35.2752033, 0.0 ], [ -60.0148667, -35.2748835, 0.0 ], [ -60.014743, -35.2741433, 0.0 ], [ -60.0145387, -35.2737928, 0.0 ], [ -59.9965638, -35.2579762, 0.0 ], [ -59.989090664295723, -35.251455749359188, 0.0 ], [ -59.989068258270507, -35.250934242835108, 0.0 ], [ -59.989415107884653, -35.250328485554377, 0.0 ], [ -59.998692878271996, -35.243288625459073, 0.0 ], [ -59.998782776562244, -35.243076600293683, 0.0 ], [ -59.998768332116605, -35.2428816941582, 0.0 ], [ -59.9976856, -35.2398027, 0.0 ], [ -59.9969388, -35.2381481, 0.0 ], [ -59.9959239, -35.2347103, 0.0 ], [ -59.9954561, -35.2331215, 0.0 ], [ -59.9940627, -35.2307361, 0.0 ], [ -59.9935398, -35.229607, 0.0 ], [ -59.9881008, -35.2170026, 0.0 ], [ -59.9845994, -35.2089809, 0.0 ], [ -59.9820425, -35.2039615, 0.0 ], [ -59.980891505189405, -35.201918682925559, 0.0 ], [ -59.9801774, -35.2008115, 0.0 ], [ -59.978248, -35.1977535, 0.0 ], [ -59.9731308, -35.1936965, 0.0 ], [ -59.9712858, -35.1921655, 0.0 ], [ -59.9708353, -35.1917419, 0.0 ], [ -59.9704842, -35.1912811, 0.0 ], [ -59.9701642, -35.1906577, 0.0 ], [ -59.9699166, -35.1899708, 0.0 ], [ -59.9697911, -35.1891326, 0.0 ], [ -59.9698748, -35.1888994, 0.0 ], [ -59.973273829443194, -35.186370729635307, 0.0 ], [ -59.973460003728526, -35.186084993578852, 0.0 ], [ -59.973262779408365, -35.185824195141898, 0.0 ], [ -59.9660692, -35.1794641, 0.0 ], [ -59.9651347, -35.1637267, 0.0 ], [ -59.9651016, -35.1511468, 0.0 ], [ -59.9618207, -35.1402734, 0.0 ], [ -59.9615863, -35.1400529, 0.0 ], [ -59.9611533, -35.1396919, 0.0 ], [ -59.9552344, -35.1334557, 0.0 ], [ -59.9547894, -35.1325417, 0.0 ], [ -59.9546985, -35.1317373, 0.0 ], [ -59.9545511, -35.1272555, 0.0 ], [ -59.9546433, -35.1269005, 0.0 ], [ -59.9562052, -35.1248453, 0.0 ] ] ] } },
{ "type": "Feature", "properties": { "NOMEMCLATURA": "109-10", "PARTIDO": "109", "PARTIDO_NOMBRE": "Veinticinco de Mayo", "DENOMINACION": "SEC 109-09 - Gdor Ugarte", "CLASE": "DE TIERRA", "TRANSITABIlIDAD": "TEMPORARIO", "TIPO": "CAMINO", "TRAMO_NUM": null, "LON_INI": -59.98809270968907, "LAT_INI": -35.216984242545507, "LON_FIN": -60.0838625, "LAT_FIN": -35.1634033, "LONGITUD_KM_ORIG": 12.794, "LONGITUD_KM_WGS84": 12.7736, "N_VERTICES": 29, "N_LINEAS": 1, "DIFF_PCT": -0.2, "ALERTA": "" }, "geometry": { "type": "MultiLineString", "coordinates": [ [ [ -59.98809270968907, -35.216984242545507, 0.0 ], [ -60.003895914616486, -35.212965304597887, 0.0 ], [ -60.00410773077494, -35.212952128207831, 0.0 ], [ -60.004298691469437, -35.213040356484505, 0.0 ], [ -60.006238879905879, -35.21483262560988, 0.0 ], [ -60.006530948872438, -35.214980107316734, 0.0 ], [ -60.006787696081183, -35.214898443009758, 0.0 ], [ -60.0218141, -35.2035652, 0.0 ], [ -60.0219526, -35.2033881, 0.0 ], [ -60.0218846, -35.2032241, 0.0 ], [ -60.021542, -35.2029466, 0.0 ], [ -60.0214998, -35.2028312, 0.0 ], [ -60.0215113, -35.2027115, 0.0 ], [ -60.0373514, -35.1907518, 0.0 ], [ -60.0373971, -35.1901269, 0.0 ], [ -60.0549159, -35.1769371, 0.0 ], [ -60.0635892, -35.1847663, 0.0 ], [ -60.0679986, -35.1814671, 0.0 ], [ -60.068216, -35.1814222, 0.0 ], [ -60.0690556, -35.181465, 0.0 ], [ -60.0693509, -35.1814016, 0.0 ], [ -60.080487806182695, -35.17317484321137, 0.0 ], [ -60.080611167854677, -35.173035164783542, 0.0 ], [ -60.080554868161613, -35.17286926689124, 0.0 ], [ -60.0796325, -35.1720499, 0.0 ], [ -60.0795759, -35.1719337, 0.0 ], [ -60.0796386, -35.1717835, 0.0 ], [ -60.0870357, -35.1661764, 0.0 ], [ -60.0838625, -35.1634033, 0.0 ] ] ] } },
{ "type": "Feature", "properties": { "NOMEMCLATURA": "109-11", "PARTIDO": "109", "PARTIDO_NOMBRE": "Veinticinco de Mayo", "DENOMINACION": "RP 51 - SEC 002-03", "CLASE": "DE TIERRA", "TRANSITABIlIDAD": "TEMPORARIO", "TIPO": "CAMINO", "TRAMO_NUM": null, "LON_INI": -60.107011585879178, "LAT_INI": -35.257737265998216, "LON_FIN": -60.153719796852251, "LAT_FIN": -35.222567019926906, "LONGITUD_KM_ORIG": 5.778, "LONGITUD_KM_WGS84": 5.7946, "N_VERTICES": 9, "N_LINEAS": 1, "DIFF_PCT": 0.3, "ALERTA": "" }, "geometry": { "type": "MultiLineString", "coordinates": [ [ [ -60.107011585879178, -35.257737265998216, 0.0 ], [ -60.107226667413549, -35.257689666182799, 0.0 ], [ -60.1202587, -35.2478523, 0.0 ], [ -60.138824946124693, -35.233789493566697, 0.0 ], [ -60.139040658675299, -35.233219013934693, 0.0 ], [ -60.139231110349328, -35.232896146382053, 0.0 ], [ -60.139660973146228, -35.232724449850899, 0.0 ], [ -60.1404777, -35.2325302, 0.0 ], [ -60.153719796852251, -35.222567019926906, 0.0 ] ] ] } },
{ "type": "Feature", "properties": { "NOMEMCLATURA": "109-12", "PARTIDO": "109", "PARTIDO_NOMBRE": "Veinticinco de Mayo", "DENOMINACION": "RP 46 - SEC 002-03", "CLASE": "DE TIERRA", "TRANSITABIlIDAD": "TEMPORARIO", "TIPO": "CAMINO", "TRAMO_NUM": null, "LON_INI": -60.274073100786246, "LAT_INI": -35.325595675720599, "LON_FIN": -60.245241130326448, "LAT_FIN": -35.288482419195624, "LONGITUD_KM_ORIG": 5.07, "LONGITUD_KM_WGS84": 5.1282, "N_VERTICES": 11, "N_LINEAS": 1, "DIFF_PCT": 1.1, "ALERTA": "" }, "geometry": { "type": "MultiLineString", "coordinates": [ [ [ -60.274073100786246, -35.325595675720599, 0.0 ], [ -60.273148653800028, -35.324973552658967, 0.0 ], [ -60.262945065499132, -35.3160648842561, 0.0 ], [ -60.262592797887038, -35.315444067352693, 0.0 ], [ -60.2537329, -35.3076633, 0.0 ], [ -60.255439, -35.3052612, 0.0 ], [ -60.2553813, -35.3044894, 0.0 ], [ -60.254532, -35.3026381, 0.0 ], [ -60.2540959, -35.3015091, 0.0 ], [ -60.2528588, -35.2985024, 0.0 ], [ -60.245241130326448, -35.288482419195624, 0.0 ] ] ] } },
{ "type": "Feature", "properties": { "NOMEMCLATURA": "109-13", "PARTIDO": "109", "PARTIDO_NOMBRE": "Veinticinco de Mayo", "DENOMINACION": "RP 40 - SEC 012-03", "CLASE": "DE TIERRA", "TRANSITABIlIDAD": "TEMPORARIO", "TIPO": "CAMINO", "TRAMO_NUM": null, "LON_INI": -60.264131321060816, "LAT_INI": -35.439571554979793, "LON_FIN": -60.444496522630864, "LAT_FIN": -35.336905793972406, "LONGITUD_KM_ORIG": 24.183, "LONGITUD_KM_WGS84": 24.2269, "N_VERTICES": 49, "N_LINEAS": 1, "DIFF_PCT": 0.2, "ALERTA": "" }, "geometry": { "type": "MultiLineString", "coordinates": [ [ [ -60.264131321060816, -35.439571554979793, 0.0 ], [ -60.264542561320432, -35.439479789609287, 0.0 ], [ -60.272277980024803, -35.433922804838446, 0.0 ], [ -60.281017481499887, -35.427684427877985, 0.0 ], [ -60.28549507799233, -35.424489692343244, 0.0 ], [ -60.286169154677921, -35.424025869425847, 0.0 ], [ -60.286853100631355, -35.423625229884863, 0.0 ], [ -60.28716084428121, -35.423300544184876, 0.0 ], [ -60.290734142510722, -35.417057846448749, 0.0 ], [ -60.2929203, -35.4134775, 0.0 ], [ -60.293401237066334, -35.412583191795513, 0.0 ], [ -60.2938909, -35.4119456, 0.0 ], [ -60.295901134595645, -35.409973602006843, 0.0 ], [ -60.297911492003223, -35.408131598399429, 0.0 ], [ -60.298637990253852, -35.407545105007308, 0.0 ], [ -60.301365, -35.4061441, 0.0 ], [ -60.3042894, -35.4039961, 0.0 ], [ -60.3047802, -35.403865, 0.0 ], [ -60.310614361908421, -35.4036116373806, 0.0 ], [ -60.3114937, -35.4036157, 0.0 ], [ -60.3132559, -35.4039414, 0.0 ], [ -60.3137105, -35.4039644, 0.0 ], [ -60.3141102, -35.4037676, 0.0 ], [ -60.317494444931221, -35.400946798987249, 0.0 ], [ -60.32385486118072, -35.395736752789681, 0.0 ], [ -60.324022297063451, -35.395680006675583, 0.0 ], [ -60.324163575929418, -35.395718146747946, 0.0 ], [ -60.3308436, -35.4013782, 0.0 ], [ -60.331004, -35.4013964, 0.0 ], [ -60.3313494, -35.4013315, 0.0 ], [ -60.339097, -35.3989716, 0.0 ], [ -60.343023845034324, -35.396575708071296, 0.0 ], [ -60.3487932, -35.3918376, 0.0 ], [ -60.349009882504269, -35.391717011583239, 0.0 ], [ -60.3493427, -35.3917867, 0.0 ], [ -60.3621654, -35.4031137, 0.0 ], [ -60.369302375308202, -35.409237151341912, 0.0 ], [ -60.369503077864813, -35.409333328716393, 0.0 ], [ -60.369748856970794, -35.409261464686047, 0.0 ], [ -60.3767832, -35.4029516, 0.0 ], [ -60.3743076, -35.4000375, 0.0 ], [ -60.3742956, -35.399794, 0.0 ], [ -60.3744741, -35.3996162, 0.0 ], [ -60.375687174776395, -35.398943760678627, 0.0 ], [ -60.376298639351106, -35.39866136013616, 0.0 ], [ -60.3831769, -35.3970757, 0.0 ], [ -60.3837943, -35.3966026, 0.0 ], [ -60.4282647, -35.3565349, 0.0 ], [ -60.444496522630864, -35.336905793972406, 0.0 ] ] ] } },
{ "type": "Feature", "properties": { "NOMEMCLATURA": "109-14", "PARTIDO": "109", "PARTIDO_NOMBRE": "Veinticinco de Mayo", "DENOMINACION": "Valdes - Morea", "CLASE": "DE TIERRA", "TRANSITABIlIDAD": "TEMPORARIO", "TIPO": "CAMINO", "TRAMO_NUM": null, "LON_INI": -60.473829455907534, "LAT_INI": -35.653669021331488, "LON_FIN": -60.5825459, "LAT_FIN": -35.5748902, "LONGITUD_KM_ORIG": 13.478, "LONGITUD_KM_WGS84": 13.4335, "N_VERTICES": 17, "N_LINEAS": 1, "DIFF_PCT": -0.3, "ALERTA": "" }, "geometry": { "type": "MultiLineString", "coordinates": [ [ [ -60.473829455907534, -35.653669021331488, 0.0 ], [ -60.4964342, -35.6359793, 0.0 ], [ -60.5008738, -35.6325317, 0.0 ], [ -60.5052165, -35.6291711, 0.0 ], [ -60.5184458, -35.618932, 0.0 ], [ -60.5211842, -35.6175679, 0.0 ], [ -60.5236769, -35.6161133, 0.0 ], [ -60.5248365, -35.6154207, 0.0 ], [ -60.526610962647005, -35.614704903164672, 0.0 ], [ -60.52690074285757, -35.614629564432988, 0.0 ], [ -60.527183274766408, -35.614739930178835, 0.0 ], [ -60.52872818334383, -35.616088181620235, 0.0 ], [ -60.529014682925251, -35.616248894447224, 0.0 ], [ -60.529405456011453, -35.616081257156779, 0.0 ], [ -60.5427647, -35.60574, 0.0 ], [ -60.556641, -35.5949587, 0.0 ], [ -60.5825459, -35.5748902, 0.0 ] ] ] } },
{ "type": "Feature", "properties": { "NOMEMCLATURA": "109-15", "PARTIDO": "109", "PARTIDO_NOMBRE": "Veinticinco de Mayo", "DENOMINACION": "SEC 109-01 - SEC 034-07", "CLASE": "DE TIERRA", "TRANSITABIlIDAD": "TEMPORARIO", "TIPO": "CAMINO", "TRAMO_NUM": null, "LON_INI": -60.3604666, "LAT_INI": -35.5717358, "LON_FIN": -60.1874206, "LAT_FIN": -35.7242471, "LONGITUD_KM_ORIG": 23.727, "LONGITUD_KM_WGS84": 23.7157, "N_VERTICES": 34, "N_LINEAS": 1, "DIFF_PCT": -0.0, "ALERTA": "" }, "geometry": { "type": "MultiLineString", "coordinates": [ [ [ -60.3604666, -35.5717358, 0.0 ], [ -60.358575735996546, -35.573302739605161, 0.0 ], [ -60.3543028, -35.5766361, 0.0 ], [ -60.3321465, -35.5938228, 0.0 ], [ -60.3317456, -35.5941072, 0.0 ], [ -60.3294853, -35.5948776, 0.0 ], [ -60.328302185821606, -35.595022555185103, 0.0 ], [ -60.327971987958456, -35.595162894179232, 0.0 ], [ -60.327720224548564, -35.595349498995255, 0.0 ], [ -60.310857090379649, -35.608456495581954, 0.0 ], [ -60.310041835585231, -35.609212441961155, 0.0 ], [ -60.3073289, -35.6113255, 0.0 ], [ -60.3045453, -35.6133618, 0.0 ], [ -60.2954715, -35.6203725, 0.0 ], [ -60.2899202, -35.6246887, 0.0 ], [ -60.2879091, -35.6259873, 0.0 ], [ -60.2636589, -35.6449079, 0.0 ], [ -60.2489071, -35.6564884, 0.0 ], [ -60.2339079, -35.6681511, 0.0 ], [ -60.2293446, -35.6717112, 0.0 ], [ -60.2206445, -35.6784392, 0.0 ], [ -60.2183814, -35.6802167, 0.0 ], [ -60.2169655, -35.6812128, 0.0 ], [ -60.2163811, -35.6816728, 0.0 ], [ -60.2151611, -35.6826539, 0.0 ], [ -60.2016345, -35.6931346, 0.0 ], [ -60.1965491, -35.6972914, 0.0 ], [ -60.1959429, -35.697758, 0.0 ], [ -60.189123, -35.7031011, 0.0 ], [ -60.1896062, -35.7131284, 0.0 ], [ -60.1898505, -35.7152107, 0.0 ], [ -60.1899876, -35.7177285, 0.0 ], [ -60.1894234, -35.7200746, 0.0 ], [ -60.1874206, -35.7242471, 0.0 ] ] ] } },
{ "type": "Feature", "properties": { "NOMEMCLATURA": "109-16", "PARTIDO": "109", "PARTIDO_NOMBRE": "Veinticinco de Mayo", "DENOMINACION": "SEC 109-15 - SEC 093-10", "CLASE": "DE TIERRA", "TRANSITABIlIDAD": "TEMPORARIO", "TIPO": "CAMINO", "TRAMO_NUM": null, "LON_INI": -60.1959429, "LAT_INI": -35.697758, "LON_FIN": -60.1304085, "LAT_FIN": -35.675333, "LONGITUD_KM_ORIG": 8.659, "LONGITUD_KM_WGS84": 8.6804, "N_VERTICES": 12, "N_LINEAS": 1, "DIFF_PCT": 0.2, "ALERTA": "" }, "geometry": { "type": "MultiLineString", "coordinates": [ [ [ -60.1959429, -35.697758, 0.0 ], [ -60.1870776, -35.6878751, 0.0 ], [ -60.1858688, -35.6865221, 0.0 ], [ -60.1835039, -35.6844938, 0.0 ], [ -60.1717428, -35.6741404, 0.0 ], [ -60.1713488, -35.6740308, 0.0 ], [ -60.1684079, -35.6715139, 0.0 ], [ -60.167004, -35.6703522, 0.0 ], [ -60.16667, -35.6703657, 0.0 ], [ -60.144699, -35.687515, 0.0 ], [ -60.1306867, -35.6754903, 0.0 ], [ -60.1304085, -35.675333, 0.0 ] ] ] } },
{ "type": "Feature", "properties": { "NOMEMCLATURA": "109-17", "PARTIDO": "109", "PARTIDO_NOMBRE": "Veinticinco de Mayo", "DENOMINACION": "SEC 109-02 - SEC 109-18", "CLASE": "DE TIERRA", "TRANSITABIlIDAD": "TEMPORARIO", "TIPO": "CAMINO", "TRAMO_NUM": null, "LON_INI": -60.130464206175311, "LAT_INI": -35.635334894538296, "LON_FIN": -60.0413506, "LAT_FIN": -35.6625102, "LONGITUD_KM_ORIG": 12.036, "LONGITUD_KM_WGS84": 12.054, "N_VERTICES": 21, "N_LINEAS": 1, "DIFF_PCT": 0.1, "ALERTA": "" }, "geometry": { "type": "MultiLineString", "coordinates": [ [ [ -60.130464206175311, -35.635334894538296, 0.0 ], [ -60.129220372951934, -35.635243275452083, 0.0 ], [ -60.1272708, -35.6351971, 0.0 ], [ -60.1243387, -35.6354241, 0.0 ], [ -60.1169673, -35.636259, 0.0 ], [ -60.1167871, -35.6361967, 0.0 ], [ -60.116639, -35.636069, 0.0 ], [ -60.1165272, -35.6355238, 0.0 ], [ -60.1162598, -35.6354255, 0.0 ], [ -60.114209661859171, -35.635724693644832, 0.0 ], [ -60.113821939432597, -35.635832545365574, 0.0 ], [ -60.11285061882009, -35.635938038983163, 0.0 ], [ -60.1034159, -35.6369907, 0.0 ], [ -60.103272557453799, -35.637040361008964, 0.0 ], [ -60.1031825, -35.6371398, 0.0 ], [ -60.103226978114868, -35.637570561249511, 0.0 ], [ -60.103205828389427, -35.637727448970267, 0.0 ], [ -60.102995954485017, -35.637791538436566, 0.0 ], [ -60.0887429, -35.6393566, 0.0 ], [ -60.0666349, -35.6204132, 0.0 ], [ -60.0413506, -35.6625102, 0.0 ] ] ] } },
{ "type": "Feature", "properties": { "NOMEMCLATURA": "109-18", "PARTIDO": "109", "PARTIDO_NOMBRE": "Veinticinco de Mayo", "DENOMINACION": "SEC 093-10 - SEC 093-09", "CLASE": "DE TIERRA", "TRANSITABIlIDAD": "TEMPORARIO", "TIPO": "CAMINO", "TRAMO_NUM": null, "LON_INI": -60.0325421, "LAT_INI": -35.6578988, "LON_FIN": -60.0926343, "LAT_FIN": -35.682966, "LONGITUD_KM_ORIG": 6.24, "LONGITUD_KM_WGS84": 6.1469, "N_VERTICES": 7, "N_LINEAS": 1, "DIFF_PCT": -1.5, "ALERTA": "" }, "geometry": { "type": "MultiLineString", "coordinates": [ [ [ -60.0325421, -35.6578988, 0.0 ], [ -60.0330351, -35.6581533, 0.0 ], [ -60.0336652, -35.6593825, 0.0 ], [ -60.0341612, -35.6596614, 0.0 ], [ -60.037147, -35.660881, 0.0 ], [ -60.0413506, -35.6625102, 0.0 ], [ -60.0926343, -35.682966, 0.0 ] ] ] } },
{ "type": "Feature", "properties": { "NOMEMCLATURA": "109-19", "PARTIDO": "109", "PARTIDO_NOMBRE": "Veinticinco de Mayo", "DENOMINACION": "SEC 109-01 - SEC 109-21", "CLASE": "DE TIERRA", "TRANSITABIlIDAD": "TEMPORARIO", "TIPO": "CAMINO", "TRAMO_NUM": null, "LON_INI": -60.6440403, "LAT_INI": -35.8244135, "LON_FIN": -60.4773671, "LAT_FIN": -35.8816332, "LONGITUD_KM_ORIG": 18.994, "LONGITUD_KM_WGS84": 18.8118, "N_VERTICES": 19, "N_LINEAS": 1, "DIFF_PCT": -1.0, "ALERTA": "" }, "geometry": { "type": "MultiLineString", "coordinates": [ [ [ -60.6440403, -35.8244135, 0.0 ], [ -60.5883393, -35.8341609, 0.0 ], [ -60.5858215, -35.8323683, 0.0 ], [ -60.584733, -35.831492, 0.0 ], [ -60.5510989, -35.8200711, 0.0 ], [ -60.534314, -35.832883, 0.0 ], [ -60.5366661, -35.8348501, 0.0 ], [ -60.5366032, -35.835117, 0.0 ], [ -60.5353339, -35.836094, 0.0 ], [ -60.5331848, -35.8378657, 0.0 ], [ -60.5327981, -35.8380044, 0.0 ], [ -60.531717, -35.8379389, 0.0 ], [ -60.531116, -35.83813, 0.0 ], [ -60.5297477, -35.8393385, 0.0 ], [ -60.5295659, -35.8396547, 0.0 ], [ -60.5295665, -35.8408233, 0.0 ], [ -60.5293531, -35.8410644, 0.0 ], [ -60.477570421298132, -35.881513668032802, 0.0 ], [ -60.4773671, -35.8816332, 0.0 ] ] ] } },
{ "type": "Feature", "properties": { "NOMEMCLATURA": "109-20", "PARTIDO": "109", "PARTIDO_NOMBRE": "Veinticinco de Mayo", "DENOMINACION": "SEC 077-10 - SEC 109-01 (Tramo 1)", "CLASE": "DE TIERRA", "TRANSITABIlIDAD": "TEMPORARIO", "TIPO": "CAMINO", "TRAMO_NUM": "1", "LON_INI": -60.8168448, "LAT_INI": -35.7972186, "LON_FIN": -60.7280914, "LAT_FIN": -35.8925499, "LONGITUD_KM_ORIG": 15.183, "LONGITUD_KM_WGS84": 15.1673, "N_VERTICES": 16, "N_LINEAS": 1, "DIFF_PCT": -0.1, "ALERTA": "" }, "geometry": { "type": "MultiLineString", "coordinates": [ [ [ -60.8168448, -35.7972186, 0.0 ], [ -60.8187247, -35.7987896, 0.0 ], [ -60.808427, -35.8066524, 0.0 ], [ -60.776073493923683, -35.831386799739661, 0.0 ], [ -60.77598736392671, -35.831516620193355, 0.0 ], [ -60.776094185142576, -35.831680052508034, 0.0 ], [ -60.789734708492055, -35.843365475741493, 0.0 ], [ -60.789832799492565, -35.843543476669382, 0.0 ], [ -60.789745953057825, -35.84369001402046, 0.0 ], [ -60.7808224, -35.8507486, 0.0 ], [ -60.7589914, -35.8681571, 0.0 ], [ -60.7499567, -35.8753362, 0.0 ], [ -60.7425943, -35.8810369, 0.0 ], [ -60.728520695917652, -35.892205479355965, 0.0 ], [ -60.728315345322862, -35.892439834777427, 0.0 ], [ -60.7280914, -35.8925499, 0.0 ] ] ] } },
{ "type": "Feature", "properties": { "NOMEMCLATURA": "109-20", "PARTIDO": "109", "PARTIDO_NOMBRE": "Veinticinco de Mayo", "DENOMINACION": "Del Valle - SEC 011-10 (Tramo 2)", "CLASE": "DE TIERRA", "TRANSITABIlIDAD": "TEMPORARIO", "TIPO": "CAMINO", "TRAMO_NUM": "2", "LON_INI": -60.7361153, "LAT_INI": -35.8995338, "LON_FIN": -60.6869927, "LAT_FIN": -35.9609782, "LONGITUD_KM_ORIG": 9.68, "LONGITUD_KM_WGS84": 9.6245, "N_VERTICES": 17, "N_LINEAS": 1, "DIFF_PCT": -0.6, "ALERTA": "" }, "geometry": { "type": "MultiLineString", "coordinates": [ [ [ -60.7361153, -35.8995338, 0.0 ], [ -60.7300265, -35.9043675, 0.0 ], [ -60.722374, -35.9103707, 0.0 ], [ -60.7151496, -35.9161301, 0.0 ], [ -60.703176, -35.9259101, 0.0 ], [ -60.6908454, -35.9356845, 0.0 ], [ -60.6906927, -35.9360783, 0.0 ], [ -60.6908165, -35.9363481, 0.0 ], [ -60.6952421, -35.9400242, 0.0 ], [ -60.6956541, -35.9406494, 0.0 ], [ -60.7032896, -35.9471615, 0.0 ], [ -60.7035336, -35.9474615, 0.0 ], [ -60.7035866, -35.9477635, 0.0 ], [ -60.7034386, -35.9480835, 0.0 ], [ -60.7031296, -35.9483385, 0.0 ], [ -60.6965102, -35.9534948, 0.0 ], [ -60.6869927, -35.9609782, 0.0 ] ] ] } },
{ "type": "Feature", "properties": { "NOMEMCLATURA": "109-21", "PARTIDO": "109", "PARTIDO_NOMBRE": "Veinticinco de Mayo", "DENOMINACION": "San Enrique - SEC 011-09", "CLASE": "DE TIERRA", "TRANSITABIlIDAD": "TEMPORARIO", "TIPO": "CAMINO", "TRAMO_NUM": null, "LON_INI": -60.4076363, "LAT_INI": -35.8224559, "LON_FIN": -60.5801039, "LAT_FIN": -35.9641905, "LONGITUD_KM_ORIG": 22.204, "LONGITUD_KM_WGS84": 22.2007, "N_VERTICES": 7, "N_LINEAS": 1, "DIFF_PCT": -0.0, "ALERTA": "" }, "geometry": { "type": "MultiLineString", "coordinates": [ [ [ -60.4076363, -35.8224559, 0.0 ], [ -60.4773671, -35.8816332, 0.0 ], [ -60.4874592, -35.8916344, 0.0 ], [ -60.5091601, -35.9130371, 0.0 ], [ -60.5236988, -35.9273332, 0.0 ], [ -60.5298409, -35.9313492, 0.0 ], [ -60.5801039, -35.9641905, 0.0 ] ] ] } },
{ "type": "Feature", "properties": { "NOMEMCLATURA": "109-22", "PARTIDO": "109", "PARTIDO_NOMBRE": "Veinticinco de Mayo", "DENOMINACION": "RP 51 - SEC 109-04", "CLASE": "DE TIERRA", "TRANSITABIlIDAD": "TEMPORARIO", "TIPO": "CAMINO", "TRAMO_NUM": null, "LON_INI": -60.082018345787851, "LAT_INI": -35.457159032911612, "LON_FIN": -59.9766363, "LAT_FIN": -35.4718354, "LONGITUD_KM_ORIG": 9.973, "LONGITUD_KM_WGS84": 9.9951, "N_VERTICES": 27, "N_LINEAS": 1, "DIFF_PCT": 0.2, "ALERTA": "" }, "geometry": { "type": "MultiLineString", "coordinates": [ [ [ -60.082018345787851, -35.457159032911612, 0.0 ], [ -60.081701493694652, -35.457198466356608, 0.0 ], [ -60.0803114, -35.4580451, 0.0 ], [ -60.079632138358157, -35.458309952862393, 0.0 ], [ -60.079067694504026, -35.458423621997888, 0.0 ], [ -60.07847742498214, -35.458456195963187, 0.0 ], [ -60.074404935689827, -35.458589996758327, 0.0 ], [ -60.072048317421427, -35.458748300606011, 0.0 ], [ -60.070570490210159, -35.458912584329859, 0.0 ], [ -60.068080595608166, -35.458942338785974, 0.0 ], [ -60.0666289, -35.4590493, 0.0 ], [ -60.0607616, -35.4595941, 0.0 ], [ -60.0563533, -35.4599551, 0.0 ], [ -60.0508662, -35.4611739, 0.0 ], [ -60.046814, -35.4631735, 0.0 ], [ -60.0384484, -35.462891, 0.0 ], [ -60.0362987, -35.4632557, 0.0 ], [ -60.0302715, -35.4659041, 0.0 ], [ -60.0293622, -35.4661476, 0.0 ], [ -60.0217526, -35.4671206, 0.0 ], [ -60.0124559, -35.469402, 0.0 ], [ -60.0114288, -35.469434, 0.0 ], [ -59.9939958, -35.4667849, 0.0 ], [ -59.9908558, -35.4666132, 0.0 ], [ -59.9886653, -35.4665878, 0.0 ], [ -59.9855585, -35.4679186, 0.0 ], [ -59.9766363, -35.4718354, 0.0 ] ] ] } },
{ "type": "Feature", "properties": { "NOMEMCLATURA": "109-23", "PARTIDO": "109", "PARTIDO_NOMBRE": "Veinticinco de Mayo", "DENOMINACION": "SIn denomonación (zona urbana)", "CLASE": "PAVIMENTADO", "TRANSITABIlIDAD": "PERMANENTE", "TIPO": "CAMINO", "TRAMO_NUM": null, "LON_INI": -60.172150735688213, "LAT_INI": -35.440680590146073, "LON_FIN": -60.181646044375064, "LAT_FIN": -35.431982476081032, "LONGITUD_KM_ORIG": 1.971, "LONGITUD_KM_WGS84": 1.8364, "N_VERTICES": 3, "N_LINEAS": 1, "DIFF_PCT": -6.8, "ALERTA": "" }, "geometry": { "type": "MultiLineString", "coordinates": [ [ [ -60.172150735688213, -35.440680590146073, 0.0 ], [ -60.182773509266539, -35.439734913609662, 0.0 ], [ -60.181646044375064, -35.431982476081032, 0.0 ] ] ] } }
]
}
