{
"type": "FeatureCollection",
"name": "caminos_secundarios_034_final",
"crs": { "type": "name", "properties": { "name": "urn:ogc:def:crs:OGC:1.3:CRS84" } },
"features": [
{ "type": "Feature", "properties": { "NOMEMCLATURA": "", "PARTIDO": "34.0", "PARTIDO_NOMBRE": "Desconocido", "DENOMINACION": "Yerbas - Saladillo", "CLASE": "DE TIERRA", "TRANSITABIlIDAD": "TEMPORARIO", "TIPO": "CAMINO", "LONGITUD_KM_ORIG": 17.67, "LONGITUD_KM_WGS84": 17.5323, "N_VERTICES": 13, "N_LINEAS": 1, "DIFF_PCT": -0.8, "ALERTA": "" }, "geometry": { "type": "MultiLineString", "coordinates": [ [ [ -60.0227244, -36.027305, 0.0 ], [ -60.0289732, -36.0808829, 0.0 ], [ -60.0292149, -36.0821378, 0.0 ], [ -60.0295318, -36.0833059, 0.0 ], [ -60.0430358, -36.1087628, 0.0 ], [ -60.0592715, -36.151491, 0.0 ], [ -60.0630747, -36.1614249, 0.0 ], [ -60.063945, -36.1639648, 0.0 ], [ -60.064547, -36.1667384, 0.0 ], [ -60.0647749, -36.1701204, 0.0 ], [ -60.0638279, -36.177573, 0.0 ], [ -60.0633651, -36.1787142, 0.0 ], [ -60.063141696731577, -36.180060110513054, 0.0 ] ] ] } },
{ "type": "Feature", "properties": { "NOMEMCLATURA": "", "PARTIDO": "34.0", "PARTIDO_NOMBRE": "Desconocido", "DENOMINACION": "Yerbas - Saladillo", "CLASE": "DE TIERRA", "TRANSITABIlIDAD": "TEMPORARIO", "TIPO": "CAMINO", "LONGITUD_KM_ORIG": 19.405, "LONGITUD_KM_WGS84": 20.6849, "N_VERTICES": 32, "N_LINEAS": 1, "DIFF_PCT": 6.6, "ALERTA": "" }, "geometry": { "type": "MultiLineString", "coordinates": [ [ [ -59.93916121211015, -35.870521205630432, 0.0 ], [ -59.939159023644443, -35.870771531572821, 0.0 ], [ -59.93920079402713, -35.870992620755786, 0.0 ], [ -59.943636, -35.8780535, 0.0 ], [ -59.9696953, -35.9196813, 0.0 ], [ -59.9950736, -35.9601215, 0.0 ], [ -59.9968233, -35.9620372, 0.0 ], [ -60.001336, -35.9667186, 0.0 ], [ -60.007385, -35.9728202, 0.0 ], [ -60.0160194, -35.9814889, 0.0 ], [ -60.0165067, -35.9819735, 0.0 ], [ -60.016978, -35.9825796, 0.0 ], [ -60.0179058, -35.984316, 0.0 ], [ -60.0182975, -35.9860456, 0.0 ], [ -60.0183996, -35.9869071, 0.0 ], [ -60.018339266184292, -35.987035333356111, 0.0 ], [ -60.018441818720298, -35.98716240527726, 0.0 ], [ -60.016900818720295, -35.986572505277259, 0.0 ], [ -60.016609126417258, -35.986512184298306, 0.0 ], [ -60.016179126094286, -35.986533374153908, 0.0 ], [ -60.014545178733449, -35.986918819545281, 0.0 ], [ -60.014101183521532, -35.986985516781402, 0.0 ], [ -60.013669173193506, -35.986967686619359, 0.0 ], [ -60.012132, -35.9868369, 0.0 ], [ -60.011887, -35.9869168, 0.0 ], [ -60.0117814, -35.9871008, 0.0 ], [ -60.0115067, -35.9906492, 0.0 ], [ -60.013816332574805, -36.010804313058152, 0.0 ], [ -60.013907366607881, -36.010833560863652, 0.0 ], [ -60.020868930958066, -36.010271767058306, 0.0 ], [ -60.020922464334397, -36.010335150776989, 0.0 ], [ -60.0227244, -36.027305, 0.0 ] ] ] } },
{ "type": "Feature", "properties": { "NOMEMCLATURA": "", "PARTIDO": "34.0", "PARTIDO_NOMBRE": "Desconocido", "DENOMINACION": "Gral Alvear - Mamaguita", "CLASE": "DE TIERRA", "TRANSITABIlIDAD": "TEMPORARIO", "TIPO": "CAMINO", "LONGITUD_KM_ORIG": 22.315, "LONGITUD_KM_WGS84": 22.3793, "N_VERTICES": 43, "N_LINEAS": 1, "DIFF_PCT": 0.3, "ALERTA": "" }, "geometry": { "type": "MultiLineString", "coordinates": [ [ [ -60.0181498, -35.9870893, 0.0 ], [ -60.018453302609039, -35.987183233548897, 0.0 ], [ -60.018795309959849, -35.987186431396211, 0.0 ], [ -60.021187227415354, -35.98670489400827, 0.0 ], [ -60.0221938, -35.9865615, 0.0 ], [ -60.0269389, -35.986582, 0.0 ], [ -60.0326786, -35.9865915, 0.0 ], [ -60.0355062, -35.981307, 0.0 ], [ -60.0362639, -35.9773499, 0.0 ], [ -60.0387414, -35.9725009, 0.0 ], [ -60.0414693, -35.9701984, 0.0 ], [ -60.0418501, -35.9699486, 0.0 ], [ -60.0423435, -35.9698811, 0.0 ], [ -60.0451113, -35.9700326, 0.0 ], [ -60.0455671, -35.9699735, 0.0 ], [ -60.0459477, -35.9697842, 0.0 ], [ -60.050773, -35.9666069, 0.0 ], [ -60.0544393, -35.9633426, 0.0 ], [ -60.0551365, -35.9619219, 0.0 ], [ -60.0880466, -35.9365923, 0.0 ], [ -60.090886, -35.9335708, 0.0 ], [ -60.0992488, -35.9229021, 0.0 ], [ -60.0989423, -35.916771, 0.0 ], [ -60.1088398, -35.9091994, 0.0 ], [ -60.112101, -35.9087896, 0.0 ], [ -60.1141441, -35.9073209, 0.0 ], [ -60.1166539, -35.905813, 0.0 ], [ -60.1236675, -35.9021878, 0.0 ], [ -60.1424131, -35.8882161, 0.0 ], [ -60.1435543, -35.8868644, 0.0 ], [ -60.1440813, -35.8863905, 0.0 ], [ -60.1470616, -35.8851321, 0.0 ], [ -60.1520385, -35.8815907, 0.0 ], [ -60.157503, -35.8778316, 0.0 ], [ -60.1617367, -35.8752684, 0.0 ], [ -60.1649687, -35.8734268, 0.0 ], [ -60.1654259, -35.8731341, 0.0 ], [ -60.1657946, -35.8727435, 0.0 ], [ -60.1738157, -35.8560177, 0.0 ], [ -60.1765249, -35.8517012, 0.0 ], [ -60.1767321, -35.8514264, 0.0 ], [ -60.1774382, -35.8510495, 0.0 ], [ -60.180009, -35.8490258, 0.0 ] ] ] } },
{ "type": "Feature", "properties": { "NOMEMCLATURA": "", "PARTIDO": "34.0", "PARTIDO_NOMBRE": "Desconocido", "DENOMINACION": "J. M. Micheo - RP 51", "CLASE": "DE TIERRA", "TRANSITABIlIDAD": "TEMPORARIO", "TIPO": "CAMINO", "LONGITUD_KM_ORIG": 10.525, "LONGITUD_KM_WGS84": 10.8563, "N_VERTICES": 17, "N_LINEAS": 1, "DIFF_PCT": 3.1, "ALERTA": "" }, "geometry": { "type": "MultiLineString", "coordinates": [ [ [ -59.8661525, -35.9109823, 0.0 ], [ -59.8780761, -35.9017531, 0.0 ], [ -59.8796345, -35.8996141, 0.0 ], [ -59.8802185, -35.8993267, 0.0 ], [ -59.8809205, -35.8993784, 0.0 ], [ -59.8917568, -35.90716, 0.0 ], [ -59.9026685, -35.8987944, 0.0 ], [ -59.9183443, -35.9122558, 0.0 ], [ -59.9267177, -35.9050216, 0.0 ], [ -59.9296061, -35.9012073, 0.0 ], [ -59.9330242, -35.896569, 0.0 ], [ -59.9365705, -35.8916047, 0.0 ], [ -59.9406657, -35.8859055, 0.0 ], [ -59.9418531, -35.8844958, 0.0 ], [ -59.94367, -35.882637, 0.0 ], [ -59.944396, -35.882092, 0.0 ], [ -59.9458051, -35.8815236, 0.0 ] ] ] } },
{ "type": "Feature", "properties": { "NOMEMCLATURA": "", "PARTIDO": "34.0", "PARTIDO_NOMBRE": "Desconocido", "DENOMINACION": "Gral. Alvear - Bolivar", "CLASE": "DE TIERRA", "TRANSITABIlIDAD": "TEMPORARIO", "TIPO": "CAMINO", "LONGITUD_KM_ORIG": 35.362, "LONGITUD_KM_WGS84": 30.9752, "N_VERTICES": 49, "N_LINEAS": 1, "DIFF_PCT": -12.4, "ALERTA": "REVISAR" }, "geometry": { "type": "MultiLineString", "coordinates": [ [ [ -60.0866204, -36.0149924, 0.0 ], [ -60.1667052, -36.0165271, 0.0 ], [ -60.1675013, -36.0167619, 0.0 ], [ -60.1710654, -36.0186107, 0.0 ], [ -60.1813651, -36.0150085, 0.0 ], [ -60.1823786, -36.0149706, 0.0 ], [ -60.1941303, -36.0183991, 0.0 ], [ -60.1947573, -36.018447, 0.0 ], [ -60.1952447, -36.018304, 0.0 ], [ -60.2038337, -36.0131232, 0.0 ], [ -60.2084094, -36.010424, 0.0 ], [ -60.211976, -36.0085228, 0.0 ], [ -60.2125404, -36.0082824, 0.0 ], [ -60.2130297, -36.0083284, 0.0 ], [ -60.2196947, -36.0113884, 0.0 ], [ -60.2258983, -36.0132201, 0.0 ], [ -60.2281901, -36.0140208, 0.0 ], [ -60.2292771, -36.0144125, 0.0 ], [ -60.2297632, -36.0144744, 0.0 ], [ -60.2365952, -36.0141163, 0.0 ], [ -60.2375871, -36.0139095, 0.0 ], [ -60.2422373, -36.0110211, 0.0 ], [ -60.2450237, -36.0099554, 0.0 ], [ -60.2477779, -36.0090112, 0.0 ], [ -60.2516983, -36.0082639, 0.0 ], [ -60.2526003, -36.0082117, 0.0 ], [ -60.253454, -36.0084675, 0.0 ], [ -60.2584929, -36.0104371, 0.0 ], [ -60.2593231, -36.0108407, 0.0 ], [ -60.2632111, -36.0134313, 0.0 ], [ -60.2700224, -36.0157706, 0.0 ], [ -60.2782669, -36.0173457, 0.0 ], [ -60.282046, -36.0181959, 0.0 ], [ -60.2864475, -36.0192629, 0.0 ], [ -60.2899708, -36.0208086, 0.0 ], [ -60.2906918, -36.0213363, 0.0 ], [ -60.2912143, -36.0215321, 0.0 ], [ -60.3039057, -36.0125544, 0.0 ], [ -60.313462, -36.0059534, 0.0 ], [ -60.3373363, -35.9889556, 0.0 ], [ -60.3547894, -35.9766007, 0.0 ], [ -60.3554283, -35.9763181, 0.0 ], [ -60.357698, -35.9745422, 0.0 ], [ -60.3623991, -35.9708481, 0.0 ], [ -60.3581952, -35.9672713, 0.0 ], [ -60.3680977, -35.9596224, 0.0 ], [ -60.3665578, -35.9583232, 0.0 ], [ -60.371831, -35.95325, 0.0 ], [ -60.3719838, -35.9529642, 0.0 ] ] ] } },
{ "type": "Feature", "properties": { "NOMEMCLATURA": "", "PARTIDO": "34.0", "PARTIDO_NOMBRE": "Desconocido", "DENOMINACION": "Gral Alvear - Tapalque", "CLASE": "DE TIERRA", "TRANSITABIlIDAD": "TEMPORARIO", "TIPO": "CAMINO", "LONGITUD_KM_ORIG": 48.399, "LONGITUD_KM_WGS84": 47.3895, "N_VERTICES": 67, "N_LINEAS": 1, "DIFF_PCT": -2.1, "ALERTA": "" }, "geometry": { "type": "MultiLineString", "coordinates": [ [ [ -60.1710654, -36.0186107, 0.0 ], [ -60.1719783, -36.0191042, 0.0 ], [ -60.1754179, -36.0231945, 0.0 ], [ -60.2258971, -36.0566062, 0.0 ], [ -60.2280537, -36.0571855, 0.0 ], [ -60.234614, -36.0606303, 0.0 ], [ -60.2347685, -36.0608025, 0.0 ], [ -60.2348318, -36.0610182, 0.0 ], [ -60.2347342, -36.0619342, 0.0 ], [ -60.2348458, -36.0621694, 0.0 ], [ -60.2362783, -36.0632075, 0.0 ], [ -60.2404481, -36.0644335, 0.0 ], [ -60.2457824, -36.0674225, 0.0 ], [ -60.2461445, -36.0676968, 0.0 ], [ -60.246646, -36.0688904, 0.0 ], [ -60.2477724, -36.0699378, 0.0 ], [ -60.2481326, -36.0699538, 0.0 ], [ -60.2500698, -36.0692847, 0.0 ], [ -60.2513446, -36.0697341, 0.0 ], [ -60.2586883, -36.072566, 0.0 ], [ -60.2665047, -36.0760044, 0.0 ], [ -60.2702678, -36.0786864, 0.0 ], [ -60.2746104, -36.0809172, 0.0 ], [ -60.2901141, -36.0854305, 0.0 ], [ -60.2944056, -36.0889231, 0.0 ], [ -60.3012727, -36.0950337, 0.0 ], [ -60.3046112, -36.0973366, 0.0 ], [ -60.3124996, -36.105142, 0.0 ], [ -60.3147919, -36.1075189, 0.0 ], [ -60.3169584, -36.1099522, 0.0 ], [ -60.3235926, -36.1144753, 0.0 ], [ -60.329734, -36.1187077, 0.0 ], [ -60.3303849, -36.1186405, 0.0 ], [ -60.331346, -36.1183101, 0.0 ], [ -60.3323876, -36.11814, 0.0 ], [ -60.3333284, -36.11829, 0.0 ], [ -60.3885988, -36.1424011, 0.0 ], [ -60.3974615, -36.1488477, 0.0 ], [ -60.3977575, -36.148937, 0.0 ], [ -60.3984075, -36.1489483, 0.0 ], [ -60.4152015, -36.1607392, 0.0 ], [ -60.4255977, -36.1597962, 0.0 ], [ -60.4401037, -36.1658424, 0.0 ], [ -60.4456703, -36.1693186, 0.0 ], [ -60.4468958, -36.1707514, 0.0 ], [ -60.4589559, -36.1618607, 0.0 ], [ -60.4671898, -36.1690996, 0.0 ], [ -60.4786259, -36.1653305, 0.0 ], [ -60.4871213, -36.1619591, 0.0 ], [ -60.4880251, -36.1613206, 0.0 ], [ -60.4890564, -36.1608975, 0.0 ], [ -60.4895191, -36.1608121, 0.0 ], [ -60.4930837, -36.1630537, 0.0 ], [ -60.4977912, -36.1642429, 0.0 ], [ -60.5028053, -36.1613894, 0.0 ], [ -60.5162951, -36.1669716, 0.0 ], [ -60.5178386, -36.1669541, 0.0 ], [ -60.5189368, -36.1680928, 0.0 ], [ -60.5249853, -36.1706168, 0.0 ], [ -60.5252931, -36.1706875, 0.0 ], [ -60.5425892, -36.1834279, 0.0 ], [ -60.5429794, -36.1835972, 0.0 ], [ -60.5434997, -36.1836745, 0.0 ], [ -60.548093, -36.1858218, 0.0 ], [ -60.5483531, -36.1860128, 0.0 ], [ -60.548911, -36.186654, 0.0 ], [ -60.5992495, -36.2100582, 0.0 ] ] ] } },
{ "type": "Feature", "properties": { "NOMEMCLATURA": "", "PARTIDO": "34.0", "PARTIDO_NOMBRE": "Desconocido", "DENOMINACION": "Yerbas - Emma", "CLASE": "DE TIERRA", "TRANSITABIlIDAD": "TEMPORARIO", "TIPO": "CAMINO", "LONGITUD_KM_ORIG": 18.117, "LONGITUD_KM_WGS84": 18.3866, "N_VERTICES": 27, "N_LINEAS": 1, "DIFF_PCT": 1.5, "ALERTA": "" }, "geometry": { "type": "MultiLineString", "coordinates": [ [ [ -60.0579659, -36.148051, 0.0 ], [ -60.0586863, -36.1480624, 0.0 ], [ -60.0719858, -36.1430355, 0.0 ], [ -60.0991119, -36.16315, 0.0 ], [ -60.1318449, -36.1877872, 0.0 ], [ -60.1452767, -36.1965296, 0.0 ], [ -60.1506545, -36.2019662, 0.0 ], [ -60.1514446, -36.2027711, 0.0 ], [ -60.1520951, -36.2035587, 0.0 ], [ -60.1528943, -36.2045476, 0.0 ], [ -60.1539294, -36.2055451, 0.0 ], [ -60.1564453, -36.2079624, 0.0 ], [ -60.1577301, -36.2094005, 0.0 ], [ -60.1598519, -36.2129334, 0.0 ], [ -60.1607789, -36.2136423, 0.0 ], [ -60.1634869, -36.2146801, 0.0 ], [ -60.1639166, -36.2147318, 0.0 ], [ -60.1650008, -36.2145845, 0.0 ], [ -60.1656349, -36.2146446, 0.0 ], [ -60.171302, -36.2154141, 0.0 ], [ -60.1718507, -36.2156089, 0.0 ], [ -60.1728447, -36.2160807, 0.0 ], [ -60.1813614, -36.2203739, 0.0 ], [ -60.1855131, -36.2230385, 0.0 ], [ -60.1893003, -36.2253395, 0.0 ], [ -60.2062496, -36.2134032, 0.0 ], [ -60.2128699, -36.2086178, 0.0 ] ] ] } },
{ "type": "Feature", "properties": { "NOMEMCLATURA": "", "PARTIDO": "34.0", "PARTIDO_NOMBRE": "Desconocido", "DENOMINACION": "RN 205 - 25 de Mayo", "CLASE": "DE TIERRA", "TRANSITABIlIDAD": "TEMPORARIO", "TIPO": "CAMINO", "LONGITUD_KM_ORIG": 11.72, "LONGITUD_KM_WGS84": 10.8808, "N_VERTICES": 15, "N_LINEAS": 1, "DIFF_PCT": -7.2, "ALERTA": "" }, "geometry": { "type": "MultiLineString", "coordinates": [ [ [ -60.1874313, -35.724295, 0.0 ], [ -60.1808404, -35.7542379, 0.0 ], [ -60.1778109, -35.767076, 0.0 ], [ -60.169812, -35.7760427, 0.0 ], [ -60.1649662, -35.781597, 0.0 ], [ -60.163434, -35.783268, 0.0 ], [ -60.1620616, -35.7843297, 0.0 ], [ -60.1617622, -35.784643, 0.0 ], [ -60.1601436, -35.7866374, 0.0 ], [ -60.1590077, -35.7881967, 0.0 ], [ -60.1510574, -35.7972064, 0.0 ], [ -60.1442643, -35.8047189, 0.0 ], [ -60.1429428, -35.8070883, 0.0 ], [ -60.1421041, -35.8088834, 0.0 ], [ -60.1404598, -35.8121061, 0.0 ] ] ] } },
{ "type": "Feature", "properties": { "NOMEMCLATURA": "", "PARTIDO": "34.0", "PARTIDO_NOMBRE": "Desconocido", "DENOMINACION": "Las Flores - Estrugamou", "CLASE": "DE TIERRA", "TRANSITABIlIDAD": "TEMPORARIO", "TIPO": "CAMINO", "LONGITUD_KM_ORIG": 5.388, "LONGITUD_KM_WGS84": 5.3239, "N_VERTICES": 13, "N_LINEAS": 1, "DIFF_PCT": -1.2, "ALERTA": "" }, "geometry": { "type": "MultiLineString", "coordinates": [ [ [ -59.7117951, -35.8335712, 0.0 ], [ -59.7118484, -35.8405258, 0.0 ], [ -59.7117466, -35.8409391, 0.0 ], [ -59.7114786, -35.8412523, 0.0 ], [ -59.697584, -35.8533475, 0.0 ], [ -59.6970548, -35.8537224, 0.0 ], [ -59.695061, -35.854606, 0.0 ], [ -59.6882072, -35.859982, 0.0 ], [ -59.6877588, -35.8600637, 0.0 ], [ -59.6873802, -35.8599758, 0.0 ], [ -59.6760182, -35.8516413, 0.0 ], [ -59.6758101, -35.8515646, 0.0 ], [ -59.67561, -35.85154, 0.0 ] ] ] } },
{ "type": "Feature", "properties": { "NOMEMCLATURA": "", "PARTIDO": "34.0", "PARTIDO_NOMBRE": "Desconocido", "DENOMINACION": "RN 205 - Del Valle", "CLASE": "DE TIERRA", "TRANSITABIlIDAD": "TEMPORARIO", "TIPO": "CAMINO", "LONGITUD_KM_ORIG": 4.543, "LONGITUD_KM_WGS84": 4.5329, "N_VERTICES": 17, "N_LINEAS": 1, "DIFF_PCT": -0.2, "ALERTA": "" }, "geometry": { "type": "MultiLineString", "coordinates": [ [ [ -60.5795622, -36.0471913, 0.0 ], [ -60.5796681, -36.0490501, 0.0 ], [ -60.5796199, -36.0492676, 0.0 ], [ -60.5794858, -36.0494873, 0.0 ], [ -60.576789, -36.0512937, 0.0 ], [ -60.5725242, -36.0542537, 0.0 ], [ -60.5657577, -36.0589384, 0.0 ], [ -60.5656732, -36.0590372, 0.0 ], [ -60.5657067, -36.0591523, 0.0 ], [ -60.5689348, -36.0621557, 0.0 ], [ -60.5689945, -36.0623382, 0.0 ], [ -60.5688625, -36.0624632, 0.0 ], [ -60.5527121, -36.073726, 0.0 ], [ -60.5525949, -36.0738871, 0.0 ], [ -60.5526601, -36.0740743, 0.0 ], [ -60.5533784, -36.0747113, 0.0 ], [ -60.5540149, -36.0753233, 0.0 ] ] ] } }
]
}
