{
"type": "FeatureCollection",
"name": "caminos_secundarios_091_final",
"features": [
{ "type": "Feature", "properties": { "NOMEMCLATURA": "091-01", "PARTIDO": "091", "PARTIDO_NOMBRE": "Roque Pérez", "DENOMINACION": "Roque Perez - SEC 093-01 (Tramo 2)", "CLASE": "DE TIERRA", "TRANSITABIlIDAD": "TEMPORARIO", "TIPO": "CAMINO", "TRAMO_NUM": "2", "LON_INI": null, "LAT_INI": null, "LON_FIN": null, "LAT_FIN": null, "LONGITUD_KM_ORIG": 16.244, "LONGITUD_KM_WGS84": 17.3162, "N_VERTICES": 29, "N_LINEAS": 1, "DIFF_PCT": 6.6, "ALERTA": "" }, "geometry": { "type": "MultiLineString", "coordinates": [ [ [ -59.3361565, -35.4085874, 0.0 ], [ -59.3385148, -35.4132636, 0.0 ], [ -59.3396021, -35.4141552, 0.0 ], [ -59.3398057, -35.4142396, 0.0 ], [ -59.3399664, -35.4141928, 0.0 ], [ -59.3403093, -35.4139375, 0.0 ], [ -59.3405021, -35.4138681, 0.0 ], [ -59.3407538, -35.4139604, 0.0 ], [ -59.3542136, -35.4262747, 0.0 ], [ -59.354442, -35.4263275, 0.0 ], [ -59.3546276, -35.42626, 0.0 ], [ -59.3613587, -35.4211748, 0.0 ], [ -59.3618049, -35.4208821, 0.0 ], [ -59.3622028, -35.4207774, 0.0 ], [ -59.3626168, -35.4208421, 0.0 ], [ -59.3632039, -35.4211199, 0.0 ], [ -59.4228457, -35.4570923, 0.0 ], [ -59.4392095, -35.4669476, 0.0 ], [ -59.4464535, -35.4713291, 0.0 ], [ -59.4466365, -35.4713933, 0.0 ], [ -59.4470233, -35.4710732, 0.0 ], [ -59.4473732, -35.4711886, 0.0 ], [ -59.4504196, -35.4730439, 0.0 ], [ -59.4780763, -35.4896758, 0.0 ], [ -59.4832092, -35.4909206, 0.0 ], [ -59.4835057, -35.491162, 0.0 ], [ -59.4836626, -35.4914209, 0.0 ], [ -59.483774, -35.4918567, 0.0 ], [ -59.483799720823598, -35.492226500826327, 0.0 ] ] ] } },
{ "type": "Feature", "properties": { "NOMEMCLATURA": "091-01", "PARTIDO": "091", "PARTIDO_NOMBRE": "Roque Pérez", "DENOMINACION": "SEC 062-02 - Roque Perez (Tramo 1)", "CLASE": "DE TIERRA", "TRANSITABIlIDAD": "TEMPORARIO", "TIPO": "CAMINO", "TRAMO_NUM": "1", "LON_INI": null, "LAT_INI": null, "LON_FIN": null, "LAT_FIN": null, "LONGITUD_KM_ORIG": 5.335, "LONGITUD_KM_WGS84": 5.2959, "N_VERTICES": 14, "N_LINEAS": 1, "DIFF_PCT": -0.7, "ALERTA": "" }, "geometry": { "type": "MultiLineString", "coordinates": [ [ [ -59.3287803, -35.3997974, 0.0 ], [ -59.3223918, -35.3960406, 0.0 ], [ -59.3131878, -35.3905385, 0.0 ], [ -59.3077708, -35.3873055, 0.0 ], [ -59.2975052, -35.3812206, 0.0 ], [ -59.2963989, -35.3807458, 0.0 ], [ -59.2928431, -35.3795965, 0.0 ], [ -59.2895421, -35.3785827, 0.0 ], [ -59.2889115, -35.3783905, 0.0 ], [ -59.2883452, -35.378137, 0.0 ], [ -59.2854079, -35.376169, 0.0 ], [ -59.2824707, -35.3740872, 0.0 ], [ -59.2819082, -35.37354, 0.0 ], [ -59.281233, -35.3727435, 0.0 ] ] ] } },
{ "type": "Feature", "properties": { "NOMEMCLATURA": "091-02", "PARTIDO": "091", "PARTIDO_NOMBRE": "Roque Pérez", "DENOMINACION": "SEC 091-01 - RP 30", "CLASE": "DE TIERRA", "TRANSITABIlIDAD": "TEMPORARIO", "TIPO": "CAMINO", "TRAMO_NUM": null, "LON_INI": null, "LAT_INI": null, "LON_FIN": null, "LAT_FIN": null, "LONGITUD_KM_ORIG": 11.14, "LONGITUD_KM_WGS84": 11.0988, "N_VERTICES": 19, "N_LINEAS": 1, "DIFF_PCT": -0.4, "ALERTA": "" }, "geometry": { "type": "MultiLineString", "coordinates": [ [ [ -59.4228457, -35.4570923, 0.0 ], [ -59.407224, -35.4686152, 0.0 ], [ -59.406918, -35.4689825, 0.0 ], [ -59.4070518, -35.4693585, 0.0 ], [ -59.4128504, -35.4748288, 0.0 ], [ -59.4130356, -35.4752116, 0.0 ], [ -59.4128371, -35.4755115, 0.0 ], [ -59.4095702, -35.4780225, 0.0 ], [ -59.4093306, -35.4783465, 0.0 ], [ -59.4091877, -35.4787405, 0.0 ], [ -59.4091171, -35.4796674, 0.0 ], [ -59.4088833, -35.4801527, 0.0 ], [ -59.4086683, -35.4803562, 0.0 ], [ -59.3978767, -35.4886237, 0.0 ], [ -59.3876302, -35.496401, 0.0 ], [ -59.3676534, -35.5117013, 0.0 ], [ -59.3610608, -35.5168347, 0.0 ], [ -59.3562861, -35.5204615, 0.0 ], [ -59.3478138, -35.5264264, 0.0 ] ] ] } },
{ "type": "Feature", "properties": { "NOMEMCLATURA": "091-03", "PARTIDO": "091", "PARTIDO_NOMBRE": "Roque Pérez", "DENOMINACION": "SEC 091-04 - SEC 036-05 (Tramo 3)", "CLASE": "DE TIERRA", "TRANSITABIlIDAD": "TEMPORARIO (TRAZA ANULADA)", "TIPO": "CAMINO", "TRAMO_NUM": "3", "LON_INI": null, "LAT_INI": null, "LON_FIN": null, "LAT_FIN": null, "LONGITUD_KM_ORIG": 7.625, "LONGITUD_KM_WGS84": 7.4332, "N_VERTICES": 10, "N_LINEAS": 1, "DIFF_PCT": -2.5, "ALERTA": "" }, "geometry": { "type": "MultiLineString", "coordinates": [ [ [ -59.1610227, -35.5795512, 0.0 ], [ -59.1685764, -35.5854842, 0.0 ], [ -59.1691483, -35.5858221, 0.0 ], [ -59.1702539, -35.58669, 0.0 ], [ -59.1777001, -35.5925675, 0.0 ], [ -59.1757605, -35.5941983, 0.0 ], [ -59.1776814, -35.5957969, 0.0 ], [ -59.1544079, -35.6149764, 0.0 ], [ -59.1534, -35.6141222, 0.0 ], [ -59.1400735, -35.6250848, 0.0 ] ] ] } },
{ "type": "Feature", "properties": { "NOMEMCLATURA": "091-03", "PARTIDO": "091", "PARTIDO_NOMBRE": "Roque Pérez", "DENOMINACION": "RP 30 - SEC 091-04 (Tramo 1) ", "CLASE": "DE TIERRA", "TRANSITABIlIDAD": "TEMPORARIO", "TIPO": "CAMINO", "TRAMO_NUM": "1", "LON_INI": null, "LAT_INI": null, "LON_FIN": null, "LAT_FIN": null, "LONGITUD_KM_ORIG": 16.373, "LONGITUD_KM_WGS84": 16.3627, "N_VERTICES": 25, "N_LINEAS": 1, "DIFF_PCT": -0.1, "ALERTA": "" }, "geometry": { "type": "MultiLineString", "coordinates": [ [ [ -59.3227581, -35.4754604, 0.0 ], [ -59.3131047, -35.4825823, 0.0 ], [ -59.3103511, -35.4842434, 0.0 ], [ -59.3075707, -35.4857909, 0.0 ], [ -59.3071343, -35.4859597, 0.0 ], [ -59.3064189, -35.4860762, 0.0 ], [ -59.2992051, -35.4874978, 0.0 ], [ -59.258854671669944, -35.510676247289858, 0.0 ], [ -59.258681732256527, -35.510757166224124, 0.0 ], [ -59.258444028015518, -35.510769962906259, 0.0 ], [ -59.257719018442046, -35.51067995798067, 0.0 ], [ -59.2572625, -35.5117033, 0.0 ], [ -59.2496751, -35.5095385, 0.0 ], [ -59.2493073, -35.5097794, 0.0 ], [ -59.2331693, -35.5223749, 0.0 ], [ -59.2463373, -35.5337642, 0.0 ], [ -59.2466533, -35.5340523, 0.0 ], [ -59.2467093, -35.5343753, 0.0 ], [ -59.2466581, -35.535196, 0.0 ], [ -59.2466202, -35.5361564, 0.0 ], [ -59.2467004, -35.5369858, 0.0 ], [ -59.2460346, -35.5491297, 0.0 ], [ -59.245903, -35.5495064, 0.0 ], [ -59.2455889, -35.5498351, 0.0 ], [ -59.222867588583455, -35.566130009132628, 0.0 ] ] ] } },
{ "type": "Feature", "properties": { "NOMEMCLATURA": "091-03", "PARTIDO": "091", "PARTIDO_NOMBRE": "Roque Pérez", "DENOMINACION": "SEC 091-04 - SEC 036-05 (Tramo 2)", "CLASE": "DE TIERRA", "TRANSITABIlIDAD": "TEMPORARIO", "TIPO": "CAMINO", "TRAMO_NUM": "2", "LON_INI": null, "LAT_INI": null, "LON_FIN": null, "LAT_FIN": null, "LONGITUD_KM_ORIG": 7.496, "LONGITUD_KM_WGS84": 7.6154, "N_VERTICES": 7, "N_LINEAS": 1, "DIFF_PCT": 1.6, "ALERTA": "" }, "geometry": { "type": "MultiLineString", "coordinates": [ [ [ -59.2204417, -35.56413, 0.0 ], [ -59.202917987851912, -35.578372779479828, 0.0 ], [ -59.20026393717567, -35.580481340045928, 0.0 ], [ -59.200080112439302, -35.580538932148812, 0.0 ], [ -59.199821018738021, -35.580487311355171, 0.0 ], [ -59.1797963, -35.5640216, 0.0 ], [ -59.1610227, -35.5795512, 0.0 ] ] ] } },
{ "type": "Feature", "properties": { "NOMEMCLATURA": "091-04", "PARTIDO": "091", "PARTIDO_NOMBRE": "Roque Pérez", "DENOMINACION": "RP 20 - RP 30", "CLASE": "DE TIERRA", "TRANSITABIlIDAD": "TEMPORARIO", "TIPO": "CAMINO", "TRAMO_NUM": null, "LON_INI": null, "LAT_INI": null, "LON_FIN": null, "LAT_FIN": null, "LONGITUD_KM_ORIG": 19.574, "LONGITUD_KM_WGS84": 18.0143, "N_VERTICES": 30, "N_LINEAS": 1, "DIFF_PCT": -8.0, "ALERTA": "" }, "geometry": { "type": "MultiLineString", "coordinates": [ [ [ -59.1254816, -35.4856806, 0.0 ], [ -59.127692, -35.4875064, 0.0 ], [ -59.1304388, -35.4898513, 0.0 ], [ -59.1335881, -35.4924975, 0.0 ], [ -59.1398927, -35.4977372, 0.0 ], [ -59.152472, -35.5080496, 0.0 ], [ -59.1768139, -35.528029, 0.0 ], [ -59.1773006, -35.5286033, 0.0 ], [ -59.177787, -35.5291016, 0.0 ], [ -59.1782735, -35.5294864, 0.0 ], [ -59.1802979, -35.5309195, 0.0 ], [ -59.1809707, -35.5312999, 0.0 ], [ -59.1816114, -35.5315579, 0.0 ], [ -59.181911, -35.5316463, 0.0 ], [ -59.1827077, -35.5315322, 0.0 ], [ -59.1837564, -35.5313134, 0.0 ], [ -59.18403, -35.5313559, 0.0 ], [ -59.1841728, -35.5315532, 0.0 ], [ -59.1833554, -35.5331213, 0.0 ], [ -59.1835472, -35.5336146, 0.0 ], [ -59.1983209, -35.5457191, 0.0 ], [ -59.2004067, -35.5475218, 0.0 ], [ -59.2092846, -35.5548215, 0.0 ], [ -59.21484, -35.5594835, 0.0 ], [ -59.2205034, -35.5641802, 0.0 ], [ -59.2357414, -35.5767517, 0.0 ], [ -59.250614, -35.5889679, 0.0 ], [ -59.2539691, -35.5917457, 0.0 ], [ -59.257126, -35.5943533, 0.0 ], [ -59.2636012, -35.5996118, 0.0 ] ] ] } },
{ "type": "Feature", "properties": { "NOMEMCLATURA": "091-04", "PARTIDO": "091", "PARTIDO_NOMBRE": "Roque Pérez", "DENOMINACION": "SEC 073-07 - RP 20", "CLASE": "DE TIERRA", "TRANSITABIlIDAD": "TEMPORARIO", "TIPO": "CAMINO", "TRAMO_NUM": null, "LON_INI": null, "LAT_INI": null, "LON_FIN": null, "LAT_FIN": null, "LONGITUD_KM_ORIG": 4.518, "LONGITUD_KM_WGS84": 4.3431, "N_VERTICES": 9, "N_LINEAS": 1, "DIFF_PCT": -3.9, "ALERTA": "" }, "geometry": { "type": "MultiLineString", "coordinates": [ [ [ -59.0830624, -35.4476213, 0.0 ], [ -59.0830758, -35.4479921, 0.0 ], [ -59.0831483, -35.4482974, 0.0 ], [ -59.0831993, -35.4491729, 0.0 ], [ -59.0831564, -35.4496333, 0.0 ], [ -59.0838189, -35.4507232, 0.0 ], [ -59.086497, -35.4529174, 0.0 ], [ -59.1002765, -35.4644575, 0.0 ], [ -59.1144464, -35.4764416, 0.0 ] ] ] } },
{ "type": "Feature", "properties": { "NOMEMCLATURA": "091-05", "PARTIDO": "091", "PARTIDO_NOMBRE": "Roque Pérez", "DENOMINACION": "SEC 091-04 - SEC 091-03", "CLASE": "DE TIERRA", "TRANSITABIlIDAD": "TEMPORARIO", "TIPO": "CAMINO", "TRAMO_NUM": null, "LON_INI": null, "LAT_INI": null, "LON_FIN": null, "LAT_FIN": null, "LONGITUD_KM_ORIG": 11.215, "LONGITUD_KM_WGS84": 11.2848, "N_VERTICES": 16, "N_LINEAS": 1, "DIFF_PCT": 0.6, "ALERTA": "" }, "geometry": { "type": "MultiLineString", "coordinates": [ [ [ -59.1282284, -35.4879629, 0.0 ], [ -59.1459103, -35.490762, 0.0 ], [ -59.1612758, -35.4932006, 0.0 ], [ -59.1643411, -35.4937821, 0.0 ], [ -59.174949, -35.4954639, 0.0 ], [ -59.184847, -35.4970385, 0.0 ], [ -59.1866557, -35.497224, 0.0 ], [ -59.1987843, -35.4991823, 0.0 ], [ -59.2050338, -35.5003626, 0.0 ], [ -59.2241375, -35.5040475, 0.0 ], [ -59.2396163, -35.5070138, 0.0 ], [ -59.2446349, -35.5080142, 0.0 ], [ -59.2474179, -35.5088026, 0.0 ], [ -59.2489998, -35.5092382, 0.0 ], [ -59.2492704, -35.5093927, 0.0 ], [ -59.2496751, -35.5095385, 0.0 ] ] ] } },
{ "type": "Feature", "properties": { "NOMEMCLATURA": "091-06", "PARTIDO": "091", "PARTIDO_NOMBRE": "Roque Pérez", "DENOMINACION": "RP 30 (La Reforma) - SEC 093-14", "CLASE": "DE TIERRA", "TRANSITABIlIDAD": "TEMPORARIO", "TIPO": "CAMINO", "TRAMO_NUM": null, "LON_INI": null, "LAT_INI": null, "LON_FIN": null, "LAT_FIN": null, "LONGITUD_KM_ORIG": 4.746, "LONGITUD_KM_WGS84": 4.7215, "N_VERTICES": 2, "N_LINEAS": 1, "DIFF_PCT": -0.5, "ALERTA": "" }, "geometry": { "type": "MultiLineString", "coordinates": [ [ [ -59.229045899668741, -35.661272937762803, 0.0 ], [ -59.255054742728269, -35.698158012365923, 0.0 ] ] ] } },
{ "type": "Feature", "properties": { "NOMEMCLATURA": "091-07", "PARTIDO": "091", "PARTIDO_NOMBRE": "Roque Pérez", "DENOMINACION": "RP 30 - SEC 093-03", "CLASE": "DE TIERRA", "TRANSITABIlIDAD": "TEMPORARIO", "TIPO": "CAMINO", "TRAMO_NUM": null, "LON_INI": null, "LAT_INI": null, "LON_FIN": null, "LAT_FIN": null, "LONGITUD_KM_ORIG": 10.811, "LONGITUD_KM_WGS84": 11.1677, "N_VERTICES": 11, "N_LINEAS": 1, "DIFF_PCT": 3.3, "ALERTA": "" }, "geometry": { "type": "MultiLineString", "coordinates": [ [ [ -59.330887765856581, -35.581208633615475, 0.0 ], [ -59.350853160506681, -35.599677995184059, 0.0 ], [ -59.350908511580911, -35.599849383884063, 0.0 ], [ -59.350789674661762, -35.599973497255327, 0.0 ], [ -59.348774588692272, -35.601441844479695, 0.0 ], [ -59.348664127816726, -35.601608773576316, 0.0 ], [ -59.348776180607558, -35.601784034031695, 0.0 ], [ -59.367945130974043, -35.618615537884331, 0.0 ], [ -59.368701572326756, -35.619289607158706, 0.0 ], [ -59.368930741290761, -35.619290807749948, 0.0 ], [ -59.413046841484267, -35.586081534692525, 0.0 ] ] ] } },
{ "type": "Feature", "properties": { "NOMEMCLATURA": "091-08", "PARTIDO": "091", "PARTIDO_NOMBRE": "Roque Pérez", "DENOMINACION": "RN 205 - SEC 091-01", "CLASE": "DE TIERRA", "TRANSITABIlIDAD": "TEMPORARIO", "TIPO": "CAMINO", "TRAMO_NUM": null, "LON_INI": null, "LAT_INI": null, "LON_FIN": null, "LAT_FIN": null, "LONGITUD_KM_ORIG": 6.736, "LONGITUD_KM_WGS84": 6.6629, "N_VERTICES": 9, "N_LINEAS": 1, "DIFF_PCT": -1.1, "ALERTA": "" }, "geometry": { "type": "MultiLineString", "coordinates": [ [ [ -59.506087629130647, -35.434696117985801, 0.0 ], [ -59.504512208905872, -35.435919420857275, 0.0 ], [ -59.469568638270225, -35.461494183696487, 0.0 ], [ -59.468813002948643, -35.461784931401482, 0.0 ], [ -59.468001828341229, -35.461907898456317, 0.0 ], [ -59.465835757252421, -35.46201952507645, 0.0 ], [ -59.464848337015361, -35.462439325828704, 0.0 ], [ -59.4507249, -35.4727618, 0.0 ], [ -59.4504196, -35.4730439, 0.0 ] ] ] } },
{ "type": "Feature", "properties": { "NOMEMCLATURA": "091-09", "PARTIDO": "091", "PARTIDO_NOMBRE": "Roque Pérez", "DENOMINACION": "RN 205 - SEC 091-10", "CLASE": "DE TIERRA", "TRANSITABIlIDAD": "TEMPORARIO", "TIPO": "CAMINO", "TRAMO_NUM": null, "LON_INI": null, "LAT_INI": null, "LON_FIN": null, "LAT_FIN": null, "LONGITUD_KM_ORIG": 14.859, "LONGITUD_KM_WGS84": 14.6599, "N_VERTICES": 27, "N_LINEAS": 1, "DIFF_PCT": -1.3, "ALERTA": "" }, "geometry": { "type": "MultiLineString", "coordinates": [ [ [ -59.574096531695012, -35.459085164194875, 0.0 ], [ -59.574048990948725, -35.456946289075653, 0.0 ], [ -59.574069534458197, -35.456768135914196, 0.0 ], [ -59.574249792931916, -35.456456876900205, 0.0 ], [ -59.574924245855023, -35.455368512548006, 0.0 ], [ -59.575161908411779, -35.454909526856056, 0.0 ], [ -59.577981598872903, -35.448865085874736, 0.0 ], [ -59.578259179716966, -35.447844821296364, 0.0 ], [ -59.578635447474305, -35.446275518751719, 0.0 ], [ -59.579441831745619, -35.442824755121919, 0.0 ], [ -59.580181830797009, -35.439143395720023, 0.0 ], [ -59.580476276865056, -35.438638256672242, 0.0 ], [ -59.581800771028021, -35.436876629105569, 0.0 ], [ -59.611572980901386, -35.414138087105854, 0.0 ], [ -59.61174231017241, -35.41378574172974, 0.0 ], [ -59.61157859617154, -35.413421631858569, 0.0 ], [ -59.59985533830173, -35.403192325927414, 0.0 ], [ -59.599691681255472, -35.402831764285672, 0.0 ], [ -59.599941719745075, -35.402451185936059, 0.0 ], [ -59.61773896389424, -35.388933208529494, 0.0 ], [ -59.61774738864208, -35.388762136336901, 0.0 ], [ -59.617677260634856, -35.3886335902951, 0.0 ], [ -59.611720915575766, -35.381101061607957, 0.0 ], [ -59.638563218015278, -35.360643818445155, 0.0 ], [ -59.638760711342336, -35.360510737210795, 0.0 ], [ -59.63904512733405, -35.360401085050576, 0.0 ], [ -59.639158250622337, -35.36026638657907, 0.0 ] ] ] } },
{ "type": "Feature", "properties": { "NOMEMCLATURA": "091-10", "PARTIDO": "091", "PARTIDO_NOMBRE": "Roque Pérez", "DENOMINACION": "RP 30 - SEC 109-06", "CLASE": "DE TIERRA", "TRANSITABIlIDAD": "TEMPORARIO (APERTURA PARCIAL)", "TIPO": "CAMINO", "TRAMO_NUM": null, "LON_INI": null, "LAT_INI": null, "LON_FIN": null, "LAT_FIN": null, "LONGITUD_KM_ORIG": 11.282, "LONGITUD_KM_WGS84": 10.6649, "N_VERTICES": 17, "N_LINEAS": 1, "DIFF_PCT": -5.5, "ALERTA": "" }, "geometry": { "type": "MultiLineString", "coordinates": [ [ [ -59.606576316100664, -35.329649678606103, 0.0 ], [ -59.614760318958083, -35.337443277954236, 0.0 ], [ -59.614148901727347, -35.337947499630388, 0.0 ], [ -59.632515166619832, -35.354316273275153, 0.0 ], [ -59.63297575906968, -35.354453126912773, 0.0 ], [ -59.633348914026314, -35.354682392702145, 0.0 ], [ -59.633621595016919, -35.355000467345747, 0.0 ], [ -59.633771772892949, -35.355467882640248, 0.0 ], [ -59.6464777333764, -35.366786717984375, 0.0 ], [ -59.648208648773405, -35.365536871059355, 0.0 ], [ -59.64833083375342, -35.365458805981504, 0.0 ], [ -59.648430997795543, -35.365441274530525, 0.0 ], [ -59.648497228319719, -35.365471766093755, 0.0 ], [ -59.648668533471245, -35.365606827020848, 0.0 ], [ -59.653526289545269, -35.369884976465592, 0.0 ], [ -59.666589756218492, -35.374869355872633, 0.0 ], [ -59.68961516059229, -35.357173730037275, 0.0 ] ] ] } },
{ "type": "Feature", "properties": { "NOMEMCLATURA": "091-11", "PARTIDO": "091", "PARTIDO_NOMBRE": "Roque Pérez", "DENOMINACION": "RN 205 - RP 30", "CLASE": "DE TIERRA", "TRANSITABIlIDAD": "TEMPORARIO", "TIPO": "CAMINO", "TRAMO_NUM": null, "LON_INI": null, "LAT_INI": null, "LON_FIN": null, "LAT_FIN": null, "LONGITUD_KM_ORIG": 12.335, "LONGITUD_KM_WGS84": 12.3346, "N_VERTICES": 16, "N_LINEAS": 1, "DIFF_PCT": -0.0, "ALERTA": "" }, "geometry": { "type": "MultiLineString", "coordinates": [ [ [ -59.479678, -35.412892, 0.0 ], [ -59.487847, -35.407126, 0.0 ], [ -59.495918, -35.401941, 0.0 ], [ -59.500881, -35.398951, 0.0 ], [ -59.504988, -35.39665, 0.0 ], [ -59.519583, -35.379893, 0.0 ], [ -59.521901, -35.377168, 0.0 ], [ -59.524964, -35.37238, 0.0 ], [ -59.528889, -35.369443, 0.0 ], [ -59.530529, -35.367354, 0.0 ], [ -59.53474, -35.356836, 0.0 ], [ -59.534052, -35.354232, 0.0 ], [ -59.523926, -35.345573, 0.0 ], [ -59.501819, -35.33775, 0.0 ], [ -59.499903, -35.336924, 0.0 ], [ -59.498302, -35.33631, 0.0 ] ] ] } },
{ "type": "Feature", "properties": { "NOMEMCLATURA": "091-14", "PARTIDO": "091", "PARTIDO_NOMBRE": "Roque Pérez", "DENOMINACION": "RN 205 - Roque Perez", "CLASE": "DE TIERRA", "TRANSITABIlIDAD": "TEMPORARIO", "TIPO": "CAMINO", "TRAMO_NUM": null, "LON_INI": null, "LAT_INI": null, "LON_FIN": null, "LAT_FIN": null, "LONGITUD_KM_ORIG": 5.727, "LONGITUD_KM_WGS84": 5.7056, "N_VERTICES": 19, "N_LINEAS": 1, "DIFF_PCT": -0.4, "ALERTA": "" }, "geometry": { "type": "MultiLineString", "coordinates": [ [ [ -59.378024715267543, -35.380543219873381, 0.0 ], [ -59.376093805347317, -35.383167444484272, 0.0 ], [ -59.372848594393254, -35.387435192057865, 0.0 ], [ -59.369549973266366, -35.391809504360126, 0.0 ], [ -59.369290562661824, -35.392285405055958, 0.0 ], [ -59.368219386852189, -35.392885774840074, 0.0 ], [ -59.367884958427418, -35.393067597733015, 0.0 ], [ -59.367453033450403, -35.39319187704853, 0.0 ], [ -59.366696773556505, -35.393319801728907, 0.0 ], [ -59.361366253422197, -35.394026418366273, 0.0 ], [ -59.36085962444195, -35.394237609525163, 0.0 ], [ -59.357186585964392, -35.396994481818801, 0.0 ], [ -59.346434384318975, -35.405035334810712, 0.0 ], [ -59.346110079070456, -35.405299134780549, 0.0 ], [ -59.345793022052646, -35.405473860645543, 0.0 ], [ -59.345486846911065, -35.40551408480772, 0.0 ], [ -59.345153699532013, -35.405390195026243, 0.0 ], [ -59.338997903981209, -35.399873072869887, 0.0 ], [ -59.334325002535181, -35.395689074080146, 0.0 ] ] ] } }
]
}
