{
"type": "FeatureCollection",
"name": "caminos_secundarios_041_final",
"crs": { "type": "name", "properties": { "name": "urn:ogc:def:crs:OGC:1.3:CRS84" } },
"features": [
{ "type": "Feature", "properties": { "NOMEMCLATURA": "041-01", "PARTIDO": "041", "PARTIDO_NOMBRE": "Desconocido", "DENOMINACION": "Tramo 1: Gral. Las Heras - 3-4 km", "CLASE": "PAVIMENTADO", "TRANSITABIlIDAD": "PERMANENTE", "TIPO": "CAMINO", "TRAMO_NUM": 1, "LON_INI": -58.946929019134245, "LAT_INI": -34.931283430097253, "LON_FIN": -58.915226645361479, "LAT_FIN": -34.953746255484788, "LONGITUD_KM_ORIG": 3.85, "LONGITUD_KM_WGS84": 3.8361, "N_VERTICES": 5, "N_LINEAS": 1, "DIFF_PCT": -0.4, "ALERTA": "" }, "geometry": { "type": "MultiLineString", "coordinates": [ [ [ -58.946929019134245, -34.931283430097253, 0.0 ], [ -58.943642209698403, -34.932899662883408, 0.0 ], [ -58.943061724616726, -34.932962811663849, 0.0 ], [ -58.942750171839165, -34.933136612319814, 0.0 ], [ -58.915226645361479, -34.953746255484788, 0.0 ] ] ] } },
{ "type": "Feature", "properties": { "NOMEMCLATURA": "041-01", "PARTIDO": "041", "PARTIDO_NOMBRE": "Desconocido", "DENOMINACION": "Tramo 2: de prog 3-4 km - Cañuelas", "CLASE": "DE TIERRA", "TRANSITABIlIDAD": "TEMPORARIO", "TIPO": "CAMINO", "TRAMO_NUM": 2, "LON_INI": -58.915226645361479, "LAT_INI": -34.953746255484788, "LON_FIN": -58.825259489648055, "LAT_FIN": -35.005673115303338, "LONGITUD_KM_ORIG": 11.081, "LONGITUD_KM_WGS84": 10.8591, "N_VERTICES": 14, "N_LINEAS": 1, "DIFF_PCT": -2.0, "ALERTA": "" }, "geometry": { "type": "MultiLineString", "coordinates": [ [ [ -58.915226645361479, -34.953746255484788, 0.0 ], [ -58.91509236222609, -34.953710300990949, 0.0 ], [ -58.908961876813507, -34.94824395665173, 0.0 ], [ -58.908567069759606, -34.9478995405725, 0.0 ], [ -58.908325444074521, -34.948001634304305, 0.0 ], [ -58.888329904455404, -34.962860000896917, 0.0 ], [ -58.877671591112083, -34.970008148832605, 0.0 ], [ -58.877042367899428, -34.970659999298789, 0.0 ], [ -58.876319997099365, -34.971591696208435, 0.0 ], [ -58.87588819481816, -34.971817615819091, 0.0 ], [ -58.874334223844563, -34.972283103045449, 0.0 ], [ -58.855054821292789, -34.985121138603738, 0.0 ], [ -58.833825, -34.99926, 0.0 ], [ -58.825259489648055, -35.005673115303338, 0.0 ] ] ] } },
{ "type": "Feature", "properties": { "NOMEMCLATURA": "041-02", "PARTIDO": "041", "PARTIDO_NOMBRE": "Desconocido", "DENOMINACION": "RP 48 - RN 205", "CLASE": "DE TIERRA", "TRANSITABIlIDAD": "TEMPORARIO", "TIPO": "CAMINO", "TRAMO_NUM": 3, "LON_INI": -59.000628195360811, "LAT_INI": -35.002781500204939, "LON_FIN": -58.925027299688203, "LAT_FIN": -35.095134654241527, "LONGITUD_KM_ORIG": 15.119, "LONGITUD_KM_WGS84": 15.4507, "N_VERTICES": 30, "N_LINEAS": 1, "DIFF_PCT": 2.2, "ALERTA": "" }, "geometry": { "type": "MultiLineString", "coordinates": [ [ [ -59.000628195360811, -35.002781500204939, 0.0 ], [ -59.000250754122902, -35.002948885307312, 0.0 ], [ -58.998014796902822, -34.999997963171303, 0.0 ], [ -58.997796705707188, -34.999891860893413, 0.0 ], [ -58.997547385332737, -34.999947970457974, 0.0 ], [ -58.990104078181083, -35.005805392138086, 0.0 ], [ -58.990467289488677, -35.006402130653797, 0.0 ], [ -58.990506855199953, -35.006554900573384, 0.0 ], [ -58.990449165099072, -35.006686803568286, 0.0 ], [ -58.982726617789005, -35.012657769734659, 0.0 ], [ -58.986341161689623, -35.015800007101127, 0.0 ], [ -58.976525710934979, -35.023215282046586, 0.0 ], [ -58.975147393763969, -35.024246660907671, 0.0 ], [ -58.974650749477298, -35.025746808776859, 0.0 ], [ -58.968837276846152, -35.030050108286417, 0.0 ], [ -58.977144381849847, -35.036968183557306, 0.0 ], [ -58.980434807166183, -35.040795844267471, 0.0 ], [ -58.983375038617993, -35.047863336811119, 0.0 ], [ -58.978603874320747, -35.052011336123698, 0.0 ], [ -58.977432409650604, -35.052847907032081, 0.0 ], [ -58.977288126679071, -35.05307334411544, 0.0 ], [ -58.977305562636154, -35.053239971082114, 0.0 ], [ -58.977209293960094, -35.053331425410796, 0.0 ], [ -58.96551704897621, -35.062129910295148, 0.0 ], [ -58.964407687931462, -35.061117554783536, 0.0 ], [ -58.932738733620162, -35.084950335503883, 0.0 ], [ -58.933649559821589, -35.085836873207306, 0.0 ], [ -58.928977972570692, -35.092083758621058, 0.0 ], [ -58.928568359538879, -35.092429141677336, 0.0 ], [ -58.925027299688203, -35.095134654241527, 0.0 ] ] ] } },
{ "type": "Feature", "properties": { "NOMEMCLATURA": "041-03", "PARTIDO": "041", "PARTIDO_NOMBRE": "Desconocido", "DENOMINACION": "RP 24 - SEC 041-07", "CLASE": "DE TIERRA", "TRANSITABIlIDAD": "TEMPORARIO", "TIPO": "CAMINO", "TRAMO_NUM": 4, "LON_INI": -59.103415313222058, "LAT_INI": -34.772445846636799, "LON_FIN": -58.951499016285339, "LAT_FIN": -34.83119959236226, "LONGITUD_KM_ORIG": 16.876, "LONGITUD_KM_WGS84": 16.9375, "N_VERTICES": 20, "N_LINEAS": 1, "DIFF_PCT": 0.4, "ALERTA": "" }, "geometry": { "type": "MultiLineString", "coordinates": [ [ [ -59.103415313222058, -34.772445846636799, 0.0 ], [ -59.103156993823696, -34.772392793483647, 0.0 ], [ -59.10249441241286, -34.77263162717432, 0.0 ], [ -59.101578641415522, -34.773353013350807, 0.0 ], [ -59.090524108997847, -34.78219515381285, 0.0 ], [ -59.090110583058767, -34.782325956749972, 0.0 ], [ -59.089463975976614, -34.782427935408798, 0.0 ], [ -59.053270340163621, -34.784894359030673, 0.0 ], [ -59.051475524295505, -34.785259497839938, 0.0 ], [ -59.050578244595428, -34.785589490729194, 0.0 ], [ -59.035951710022317, -34.792367728087527, 0.0 ], [ -59.035379426716318, -34.792339123098394, 0.0 ], [ -59.034850134906158, -34.792220591822009, 0.0 ], [ -59.027480767985104, -34.795649145026609, 0.0 ], [ -59.019867158264645, -34.794853916220674, 0.0 ], [ -59.009847187969775, -34.799490617979593, 0.0 ], [ -59.004944922336293, -34.803130399987388, 0.0 ], [ -58.996094083453031, -34.795433399870127, 0.0 ], [ -58.992779738429384, -34.798041725649114, 0.0 ], [ -58.951499016285339, -34.83119959236226, 0.0 ] ] ] } },
{ "type": "Feature", "properties": { "NOMEMCLATURA": "041-04", "PARTIDO": "041", "PARTIDO_NOMBRE": "Desconocido", "DENOMINACION": "RP 42 - Plomer", "CLASE": "DE TIERRA", "TRANSITABIlIDAD": "TEMPORARIO", "TIPO": "CAMINO", "TRAMO_NUM": 5, "LON_INI": -59.068175264923006, "LAT_INI": -34.833992209239831, "LON_FIN": -59.027505890978439, "LAT_FIN": -34.79568394714223, "LONGITUD_KM_ORIG": 5.887, "LONGITUD_KM_WGS84": 5.8831, "N_VERTICES": 6, "N_LINEAS": 1, "DIFF_PCT": -0.1, "ALERTA": "" }, "geometry": { "type": "MultiLineString", "coordinates": [ [ [ -59.068175264923006, -34.833992209239831, 0.0 ], [ -59.049050268760467, -34.816865507569354, 0.0 ], [ -59.048028743930928, -34.817657862567209, 0.0 ], [ -59.027910881254371, -34.799712222302588, 0.0 ], [ -59.02804593445935, -34.796441217005118, 0.0 ], [ -59.027505890978439, -34.79568394714223, 0.0 ] ] ] } },
{ "type": "Feature", "properties": { "NOMEMCLATURA": "041-05", "PARTIDO": "041", "PARTIDO_NOMBRE": "Desconocido", "DENOMINACION": "RP 42 - E. Fyn", "CLASE": "DE TIERRA", "TRANSITABIlIDAD": "TEMPORARIO", "TIPO": "CAMINO", "TRAMO_NUM": 6, "LON_INI": -59.085958222222338, "LAT_INI": -34.821688687484688, "LON_FIN": -59.132918546360692, "LAT_FIN": -34.821713498469911, "LONGITUD_KM_ORIG": 5.766, "LONGITUD_KM_WGS84": 5.803, "N_VERTICES": 6, "N_LINEAS": 1, "DIFF_PCT": 0.6, "ALERTA": "" }, "geometry": { "type": "MultiLineString", "coordinates": [ [ [ -59.085958222222338, -34.821688687484688, 0.0 ], [ -59.097922325925879, -34.83134603332239, 0.0 ], [ -59.105988652692595, -34.825752006157344, 0.0 ], [ -59.111463286310055, -34.830195527366527, 0.0 ], [ -59.115799446847909, -34.833664701759311, 0.0 ], [ -59.132918546360692, -34.821713498469911, 0.0 ] ] ] } },
{ "type": "Feature", "properties": { "NOMEMCLATURA": "041-06", "PARTIDO": "041", "PARTIDO_NOMBRE": "Desconocido", "DENOMINACION": "RP 42 - RP 24", "CLASE": "DE TIERRA", "TRANSITABIlIDAD": "TEMPORARIO", "TIPO": "CAMINO", "TRAMO_NUM": 7, "LON_INI": -59.113295378942389, "LAT_INI": -34.781120508585531, "LON_FIN": -59.123122263473689, "LAT_FIN": -34.789188647417213, "LONGITUD_KM_ORIG": 1.474, "LONGITUD_KM_WGS84": 1.2731, "N_VERTICES": 4, "N_LINEAS": 1, "DIFF_PCT": -13.6, "ALERTA": "REVISAR" }, "geometry": { "type": "MultiLineString", "coordinates": [ [ [ -59.113295378942389, -34.781120508585531, 0.0 ], [ -59.121193173721181, -34.787790665297713, 0.0 ], [ -59.122742171098828, -34.789091129844238, 0.0 ], [ -59.123122263473689, -34.789188647417213, 0.0 ] ] ] } },
{ "type": "Feature", "properties": { "NOMEMCLATURA": "041-07", "PARTIDO": "041", "PARTIDO_NOMBRE": "Desconocido", "DENOMINACION": "RP 42 - SEC 041-03", "CLASE": "DE TIERRA", "TRANSITABIlIDAD": "TEMPORARIO", "TIPO": "CAMINO", "TRAMO_NUM": 8, "LON_INI": -59.009675858198847, "LAT_INI": -34.87900394994589, "LON_FIN": -58.951500726127755, "LAT_FIN": -34.831208633416445, "LONGITUD_KM_ORIG": 7.57, "LONGITUD_KM_WGS84": 7.5578, "N_VERTICES": 6, "N_LINEAS": 1, "DIFF_PCT": -0.2, "ALERTA": "" }, "geometry": { "type": "MultiLineString", "coordinates": [ [ [ -59.009675858198847, -34.87900394994589, 0.0 ], [ -58.97836725973464, -34.852511458505141, 0.0 ], [ -58.961529357979401, -34.836037241429217, 0.0 ], [ -58.954680412431195, -34.832823878737429, 0.0 ], [ -58.951951806522182, -34.831605917590778, 0.0 ], [ -58.951500726127755, -34.831208633416445, 0.0 ] ] ] } },
{ "type": "Feature", "properties": { "NOMEMCLATURA": "041-08", "PARTIDO": "041", "PARTIDO_NOMBRE": "Desconocido", "DENOMINACION": "RP 24 - SEC 064-07", "CLASE": "DE TIERRA", "TRANSITABIlIDAD": "TEMPORARIO", "TIPO": "CAMINO", "TRAMO_NUM": 9, "LON_INI": -59.092035573113279, "LAT_INI": -34.753159781320754, "LON_FIN": -59.107951231419193, "LAT_FIN": -34.740346079608429, "LONGITUD_KM_ORIG": 2.021, "LONGITUD_KM_WGS84": 2.0374, "N_VERTICES": 3, "N_LINEAS": 1, "DIFF_PCT": 0.8, "ALERTA": "" }, "geometry": { "type": "MultiLineString", "coordinates": [ [ [ -59.092035573113279, -34.753159781320754, 0.0 ], [ -59.107634526194879, -34.740477653975873, 0.0 ], [ -59.107951231419193, -34.740346079608429, 0.0 ] ] ] } },
{ "type": "Feature", "properties": { "NOMEMCLATURA": "041-90", "PARTIDO": "041", "PARTIDO_NOMBRE": "Desconocido", "DENOMINACION": "SEC 041-03 - RP6 (Prolongación Cno. 041-04) Acc. a  Plomer desde RP6 (total acc. 5,000 km", "CLASE": "PAVIMENTADO", "TRANSITABIlIDAD": "PERMANENTE", "TIPO": "CAMINO", "TRAMO_NUM": 10, "LON_INI": -59.029563361195287, "LAT_INI": -34.794594067054348, "LON_FIN": -59.016245900684034, "LAT_FIN": -34.780094484045435, "LONGITUD_KM_ORIG": null, "LONGITUD_KM_WGS84": 2.0476, "N_VERTICES": 12, "N_LINEAS": 1, "DIFF_PCT": null, "ALERTA": "" }, "geometry": { "type": "MultiLineString", "coordinates": [ [ [ -59.029563361195287, -34.794594067054348, 0.0 ], [ -59.027282670133594, -34.791272180885656, 0.0 ], [ -59.02697519086361, -34.790746189083499, 0.0 ], [ -59.026796950059882, -34.790395741306412, 0.0 ], [ -59.026540744105013, -34.789852105462614, 0.0 ], [ -59.026283051877776, -34.789124919358173, 0.0 ], [ -59.0261448606812, -34.788780808620835, 0.0 ], [ -59.025962821543104, -34.78844386886302, 0.0 ], [ -59.025645766356483, -34.787958416022754, 0.0 ], [ -59.025117579411628, -34.78743967887219, 0.0 ], [ -59.022588114101922, -34.785143222626843, 0.0 ], [ -59.016245900684034, -34.780094484045435, 0.0 ] ] ] } }
]
}
