{
"type": "FeatureCollection",
"name": "caminos_secundarios_062_final",
"crs": { "type": "name", "properties": { "name": "urn:ogc:def:crs:OGC:1.3:CRS84" } },
"features": [
{ "type": "Feature", "properties": { "NOMEMCLATURA": "062-01", "PARTIDO": 62, "PARTIDO_NOMBRE": "Lobos", "DENOMINACION": "Lobos - C. Beguerie", "CLASE": "DE TIERRA", "TRANSITABIlIDAD": "TEMPORARIO", "TIPO": "CAMINO", "TRAMO_NUM": null, "LON_INI": -59.085962129095805, "LAT_INI": -35.209942813666792, "LON_FIN": -59.073086721230027, "LAT_FIN": -35.387702242446686, "LONGITUD_KM_ORIG": 23.135, "LONGITUD_KM_WGS84": 23.6862, "N_VERTICES": 50, "N_LINEAS": 3, "DIFF_PCT": 2.4, "ALERTA": "" }, "geometry": { "type": "MultiLineString", "coordinates": [ [ [ -59.085962129095805, -35.209942813666792 ], [ -59.086161341122541, -35.210122168049729 ], [ -59.08827293358614, -35.209310235864969 ], [ -59.088496997818638, -35.209343682021974 ], [ -59.088562716974899, -35.20946486112986 ], [ -59.085541360762811, -35.215717659161406 ], [ -59.085286757819695, -35.217254988196473 ], [ -59.084939518802528, -35.218539661467503 ], [ -59.083682612072195, -35.221102630672881 ], [ -59.082807519136225, -35.223204798114338 ], [ -59.082673422043356, -35.223656876326984 ], [ -59.082533318110855, -35.224642459073856 ], [ -59.080612861864665, -35.238432423736349 ], [ -59.080077537791645, -35.241959940655619 ], [ -59.079880344437861, -35.243880910066537 ], [ -59.079750901308785, -35.244373246386083 ], [ -59.07831374121735, -35.247076630261581 ], [ -59.073781617657417, -35.25517926735462 ], [ -59.072418792545839, -35.258411813668182 ], [ -59.071399213700452, -35.260671566475288 ], [ -59.068164523989559, -35.267906735641859 ], [ -59.068117597390518, -35.268397575051992 ], [ -59.068284435394894, -35.269045678419573 ], [ -59.068648131391221, -35.269637072786274 ], [ -59.071750215873607, -35.274143120639529 ], [ -59.071916542310838, -35.274500093717961 ], [ -59.071962909284295, -35.274962008532356 ], [ -59.071164389879577, -35.282035937860314 ], [ -59.069894471425471, -35.286963583178576 ], [ -59.06984686355127, -35.287513699195138 ], [ -59.069959194462719, -35.288077748486458 ], [ -59.073959905606252, -35.305914402863166 ], [ -59.0740614720454, -35.306067621400473 ], [ -59.074336147066781, -35.306442357340366 ], [ -59.074383410051539, -35.30682805555908 ], [ -59.0737486359344, -35.338937301968379 ], [ -59.078577655603979, -35.350106557005212 ], [ -59.087101857775004, -35.357784764023869 ], [ -59.07735280897267, -35.362368601632255 ], [ -59.076959982948466, -35.362365601766236 ], [ -59.075883517723099, -35.36156977083477 ], [ -59.075616192712069, -35.361440693400084 ], [ -59.075231004836695, -35.361674874406397 ], [ -59.071996069451309, -35.364300827014169 ] ], [ [ -59.071996069451309, -35.364300827014169 ], [ -59.071686017068345, -35.364404306210176 ], [ -59.056936604871645, -35.375403324890364 ] ], [ [ -59.071996069451309, -35.364300827014169 ], [ -59.071921309162207, -35.371170605211724 ], [ -59.073086721230027, -35.387702242446686 ] ] ] } },
{ "type": "Feature", "properties": { "NOMEMCLATURA": "062-02", "PARTIDO": 62, "PARTIDO_NOMBRE": "Lobos", "DENOMINACION": "RN 205 - Salvador Maria (Tramo 1)", "CLASE": "PAVIMENTADO", "TRANSITABIlIDAD": "PERMANENTE", "TIPO": "CAMINO", "TRAMO_NUM": 1.0, "LON_INI": -59.17572751783274, "LAT_INI": -35.250560393194618, "LON_FIN": -59.164388193994071, "LAT_FIN": -35.300646887812917, "LONGITUD_KM_ORIG": 7.221, "LONGITUD_KM_WGS84": 7.7063, "N_VERTICES": 20, "N_LINEAS": 1, "DIFF_PCT": 6.7, "ALERTA": "" }, "geometry": { "type": "MultiLineString", "coordinates": [ [ [ -59.17572751783274, -35.250560393194618 ], [ -59.175331662350338, -35.250909163223852 ], [ -59.169097790174419, -35.255516043603855 ], [ -59.166737638529717, -35.256613497021235 ], [ -59.165747109189162, -35.257051298037119 ], [ -59.15420406119847, -35.265457157242729 ], [ -59.152543536770125, -35.26724944480965 ], [ -59.15175869773558, -35.268243292148448 ], [ -59.150934214714987, -35.269075944067438 ], [ -59.141334385389648, -35.276287323229276 ], [ -59.145300334859371, -35.281185098346256 ], [ -59.152813005356016, -35.290706312740411 ], [ -59.15494413796327, -35.293372022702727 ], [ -59.156384528882505, -35.294923438379733 ], [ -59.157448317688058, -35.295938666209025 ], [ -59.158037099309141, -35.296440320905781 ], [ -59.159879416401729, -35.297845226129191 ], [ -59.161097659938626, -35.298666707561772 ], [ -59.164251453260782, -35.300633239413123 ], [ -59.164388193994071, -35.300646887812917 ] ] ] } },
{ "type": "Feature", "properties": { "NOMEMCLATURA": "062-02", "PARTIDO": 62, "PARTIDO_NOMBRE": "Lobos", "DENOMINACION": "Salvador Maria - Roque Pérez (Tramo 2)", "CLASE": "DE TIERRA", "TRANSITABIlIDAD": "TEMPORARIO", "TIPO": "CAMINO", "TRAMO_NUM": 2.0, "LON_INI": -59.164388193994071, "LAT_INI": -35.300646887812917, "LON_FIN": -59.280576151303315, "LAT_FIN": -35.372081223155611, "LONGITUD_KM_ORIG": 13.824, "LONGITUD_KM_WGS84": 13.397, "N_VERTICES": 27, "N_LINEAS": 1, "DIFF_PCT": -3.1, "ALERTA": "" }, "geometry": { "type": "MultiLineString", "coordinates": [ [ [ -59.164388193994071, -35.300646887812917 ], [ -59.164572393207393, -35.300566116863976 ], [ -59.165019607939449, -35.300022954207421 ], [ -59.165162034600655, -35.299985826918643 ], [ -59.168095436909979, -35.301798824642248 ], [ -59.170232981847505, -35.303028283560153 ], [ -59.17139528268531, -35.303781525869454 ], [ -59.171499970702691, -35.303899750641861 ], [ -59.171436617983161, -35.304033762132363 ], [ -59.171017564002632, -35.304540089445567 ], [ -59.171035713380363, -35.304659838607321 ], [ -59.171115620975698, -35.304738724666073 ], [ -59.171526116002461, -35.304945323106608 ], [ -59.171845005409644, -35.30514388247974 ], [ -59.172142192033611, -35.305317944046401 ], [ -59.17254219827187, -35.305667381770135 ], [ -59.188399103026576, -35.315269664683939 ], [ -59.19125824582963, -35.317124479071062 ], [ -59.20337387751043, -35.32445226344737 ], [ -59.232950819440767, -35.342305651480444 ], [ -59.275299061880389, -35.367876595084212 ], [ -59.278124062571855, -35.36964235091331 ], [ -59.27868190991817, -35.369987617665863 ], [ -59.279320037278005, -35.370607544234666 ], [ -59.280334399163692, -35.371651041001464 ], [ -59.280531644439144, -35.371853354083704 ], [ -59.280576151303315, -35.372081223155611 ] ] ] } },
{ "type": "Feature", "properties": { "NOMEMCLATURA": "062-03", "PARTIDO": 62, "PARTIDO_NOMBRE": "Lobos", "DENOMINACION": "RN 205 - SEC 062-02", "CLASE": "DE TIERRA", "TRANSITABIlIDAD": "TEMPORARIO", "TIPO": "CAMINO", "TRAMO_NUM": null, "LON_INI": -59.224551708270852, "LAT_INI": -35.277874666263465, "LON_FIN": -59.168377670980007, "LAT_FIN": -35.301961160074853, "LONGITUD_KM_ORIG": 6.064, "LONGITUD_KM_WGS84": 5.9856, "N_VERTICES": 15, "N_LINEAS": 1, "DIFF_PCT": -1.3, "ALERTA": "" }, "geometry": { "type": "MultiLineString", "coordinates": [ [ [ -59.224551708270852, -35.277874666263465 ], [ -59.206203546676974, -35.292112834820493 ], [ -59.205853559562158, -35.292252393942142 ], [ -59.185115970460238, -35.296979914279717 ], [ -59.183838321699362, -35.29716608667718 ], [ -59.178413687807335, -35.29780264507847 ], [ -59.176542703113554, -35.297921190355808 ], [ -59.174455393809474, -35.297978947059157 ], [ -59.169801528598136, -35.3005132018111 ], [ -59.169614957542073, -35.300573850571418 ], [ -59.169495473276967, -35.300703770493108 ], [ -59.169339824900547, -35.300897488810307 ], [ -59.168970046205324, -35.301321045570361 ], [ -59.168452916442028, -35.301883856043872 ], [ -59.168377670980007, -35.301961160074853 ] ] ] } },
{ "type": "Feature", "properties": { "NOMEMCLATURA": "062-04", "PARTIDO": 62, "PARTIDO_NOMBRE": "Lobos", "DENOMINACION": "RN 205 - J. S. Arevalo", "CLASE": "DE TIERRA", "TRANSITABIlIDAD": "TEMPORARIO", "TIPO": "CAMINO", "TRAMO_NUM": null, "LON_INI": -59.153073395697156, "LAT_INI": -35.232655408976484, "LON_FIN": -59.237698113369255, "LAT_FIN": -35.167565797789791, "LONGITUD_KM_ORIG": 12.289, "LONGITUD_KM_WGS84": 12.7417, "N_VERTICES": 23, "N_LINEAS": 1, "DIFF_PCT": 3.7, "ALERTA": "" }, "geometry": { "type": "MultiLineString", "coordinates": [ [ [ -59.153073395697156, -35.232655408976484 ], [ -59.157126076473084, -35.232031578172048 ], [ -59.164335051907031, -35.231615763906795 ], [ -59.170929089494557, -35.230763384544602 ], [ -59.176269224376163, -35.228348035236003 ], [ -59.178014681209334, -35.22772471693419 ], [ -59.17966492136236, -35.226817012386341 ], [ -59.182842957069525, -35.225364880541356 ], [ -59.198433651151923, -35.214015664090311 ], [ -59.198565011065384, -35.213775162883593 ], [ -59.1993981909986, -35.197757015980557 ], [ -59.19958258027166, -35.19736653555907 ], [ -59.200141021916963, -35.197234718777779 ], [ -59.216305866962919, -35.198733596954597 ], [ -59.217070491523323, -35.198886753991736 ], [ -59.242173388418522, -35.169472991500264 ], [ -59.242010062323772, -35.169289880858926 ], [ -59.240577652359192, -35.168878620067133 ], [ -59.239622837594681, -35.168684189655906 ], [ -59.237677085918236, -35.168299313623869 ], [ -59.237626635768763, -35.168179368073254 ], [ -59.23763100248167, -35.167987778941729 ], [ -59.237698113369255, -35.167565797789791 ] ] ] } },
{ "type": "Feature", "properties": { "NOMEMCLATURA": "062-05", "PARTIDO": 62, "PARTIDO_NOMBRE": "Lobos", "DENOMINACION": "RP 41 - SEC 109-07", "CLASE": "DE TIERRA", "TRANSITABIlIDAD": "TEMPORARIO", "TIPO": "CAMINO", "TRAMO_NUM": null, "LON_INI": -59.139454123594255, "LAT_INI": -35.164980974787817, "LON_FIN": -59.549934527267737, "LAT_FIN": -35.267457282586825, "LONGITUD_KM_ORIG": 39.728, "LONGITUD_KM_WGS84": 39.872, "N_VERTICES": 48, "N_LINEAS": 1, "DIFF_PCT": 0.4, "ALERTA": "" }, "geometry": { "type": "MultiLineString", "coordinates": [ [ [ -59.139454123594255, -35.164980974787817 ], [ -59.142201509426997, -35.167054236252987 ], [ -59.142807940020901, -35.167375064556609 ], [ -59.143827898729846, -35.167849141239486 ], [ -59.145575401644066, -35.168407741911977 ], [ -59.147114736320134, -35.168655726985229 ], [ -59.149388830420428, -35.16866748277458 ], [ -59.216413613490644, -35.167629012497486 ], [ -59.223917029565349, -35.167076001630527 ], [ -59.226382995215658, -35.166973205879053 ], [ -59.234212820692356, -35.166794287022526 ], [ -59.235743905613141, -35.166848419866554 ], [ -59.237130015549788, -35.166965139791763 ], [ -59.237638185486972, -35.167218181666634 ], [ -59.237698113369255, -35.167565797789791 ], [ -59.237893497230736, -35.167766054390206 ], [ -59.240271648472337, -35.168234097393352 ], [ -59.242821124782751, -35.168859845901771 ], [ -59.284550552391345, -35.181645889657752 ], [ -59.330236764120286, -35.195553262714448 ], [ -59.330517024742903, -35.195661736913593 ], [ -59.330629725843558, -35.195915379154954 ], [ -59.330448968628275, -35.196254209001914 ], [ -59.330532799020233, -35.196411353827003 ], [ -59.330745828108817, -35.196540628947737 ], [ -59.341025399664183, -35.199650175085722 ], [ -59.34169928445241, -35.199731122541969 ], [ -59.341957376602942, -35.199713469533542 ], [ -59.342115673722091, -35.199276045250578 ], [ -59.34239181141222, -35.199259548004406 ], [ -59.352389865892654, -35.202349664478263 ], [ -59.352444526247545, -35.202450529342372 ], [ -59.352273145054923, -35.20291753961105 ], [ -59.352379853232023, -35.20312349006231 ], [ -59.352491246282227, -35.203226775632373 ], [ -59.419701421409457, -35.22358786753572 ], [ -59.479386075866067, -35.241695583294671 ], [ -59.490462886018307, -35.24502668668903 ], [ -59.509552663765881, -35.250856194350824 ], [ -59.513745761129798, -35.252363708064564 ], [ -59.51662898374255, -35.253662589029048 ], [ -59.530597091132556, -35.261090082110428 ], [ -59.532960340135311, -35.262229874557427 ], [ -59.535654109959573, -35.26336665512386 ], [ -59.54003918499027, -35.264907872706246 ], [ -59.54245750002498, -35.265480248145444 ], [ -59.544292923689753, -35.265959336697811 ], [ -59.549934527267737, -35.267457282586825 ] ] ] } },
{ "type": "Feature", "properties": { "NOMEMCLATURA": "062-06", "PARTIDO": 62, "PARTIDO_NOMBRE": "Lobos", "DENOMINACION": "Elvira - SEC 075-03", "CLASE": "DE TIERRA", "TRANSITABIlIDAD": "TEMPORARIO", "TIPO": "CAMINO", "TRAMO_NUM": null, "LON_INI": -59.480067241116082, "LAT_INI": -35.24190045075126, "LON_FIN": -59.485927927319587, "LAT_FIN": -35.220710832151759, "LONGITUD_KM_ORIG": 2.402, "LONGITUD_KM_WGS84": 2.4137, "N_VERTICES": 7, "N_LINEAS": 1, "DIFF_PCT": 0.5, "ALERTA": "" }, "geometry": { "type": "MultiLineString", "coordinates": [ [ [ -59.480067241116082, -35.24190045075126 ], [ -59.480323045535293, -35.241271911612294 ], [ -59.480427500409633, -35.240865437759773 ], [ -59.480453481869006, -35.240433616113116 ], [ -59.480418326972419, -35.240090856415655 ], [ -59.485832230798522, -35.22095180102631 ], [ -59.485927927319587, -35.220710832151759 ] ] ] } },
{ "type": "Feature", "properties": { "NOMEMCLATURA": "062-07", "PARTIDO": 62, "PARTIDO_NOMBRE": "Lobos", "DENOMINACION": "A. Carboni - SEC 075-01 (GoogleMaps lo indica como 062-02)", "CLASE": "DE TIERRA", "TRANSITABIlIDAD": "TEMPORARIO", "TIPO": "CAMINO", "TRAMO_NUM": null, "LON_INI": -59.330629725843558, "LAT_INI": -35.195915379154954, "LON_FIN": -59.36056603641223, "LAT_FIN": -35.1580284030222, "LONGITUD_KM_ORIG": 4.991, "LONGITUD_KM_WGS84": 5.0427, "N_VERTICES": 6, "N_LINEAS": 1, "DIFF_PCT": 1.0, "ALERTA": "" }, "geometry": { "type": "MultiLineString", "coordinates": [ [ [ -59.330629725843558, -35.195915379154954 ], [ -59.341036003310116, -35.182355575704896 ], [ -59.350272416079555, -35.170213918203146 ], [ -59.35953367724246, -35.158166928536815 ], [ -59.360137246659548, -35.158132005787039 ], [ -59.36056603641223, -35.1580284030222 ] ] ] } },
{ "type": "Feature", "properties": { "NOMEMCLATURA": "062-08", "PARTIDO": 62, "PARTIDO_NOMBRE": "Lobos", "DENOMINACION": "A. Carboni - RN 205", "CLASE": "DE TIERRA", "TRANSITABIlIDAD": "TEMPORARIO", "TIPO": "CAMINO", "TRAMO_NUM": null, "LON_INI": -59.352273145054923, "LAT_INI": -35.20291753961105, "LON_FIN": -59.299749813020831, "LAT_FIN": -35.335833813105332, "LONGITUD_KM_ORIG": 16.872, "LONGITUD_KM_WGS84": 16.9996, "N_VERTICES": 33, "N_LINEAS": 1, "DIFF_PCT": 0.8, "ALERTA": "" }, "geometry": { "type": "MultiLineString", "coordinates": [ [ [ -59.352273145054923, -35.20291753961105 ], [ -59.351987583779611, -35.203621739642244 ], [ -59.352039724949343, -35.204202163240332 ], [ -59.352000947520921, -35.207784453034591 ], [ -59.3524030995709, -35.209120512724908 ], [ -59.353039011008526, -35.212210955757079 ], [ -59.35313857475019, -35.212668827383837 ], [ -59.349735268907573, -35.224041727264037 ], [ -59.349574280733989, -35.224491849093134 ], [ -59.34939588305285, -35.225183250236348 ], [ -59.34150640515746, -35.241333733587979 ], [ -59.346386757832676, -35.260945202113568 ], [ -59.346602803525812, -35.261687422311027 ], [ -59.346890855677998, -35.272758186779242 ], [ -59.348435271773326, -35.284301508029529 ], [ -59.349738278912639, -35.286040460708875 ], [ -59.348382125393911, -35.289645253283972 ], [ -59.348342987759992, -35.290017684712367 ], [ -59.348549609444269, -35.290658217949293 ], [ -59.348583895386746, -35.29089130399597 ], [ -59.348493281865203, -35.291242285304982 ], [ -59.34818283507591, -35.291956255058395 ], [ -59.345470336752001, -35.29656575462986 ], [ -59.345160310067115, -35.297542261063569 ], [ -59.345267237675927, -35.29837493195236 ], [ -59.345755298741288, -35.300146562247114 ], [ -59.345868347468823, -35.301182524431205 ], [ -59.345793035330672, -35.301554758573907 ], [ -59.345544430839219, -35.301957814215179 ], [ -59.343866674154597, -35.303750529151934 ], [ -59.33193745214264, -35.313403519794832 ], [ -59.32146797, -35.31901693 ], [ -59.299749813020831, -35.335833813105332 ] ] ] } },
{ "type": "Feature", "properties": { "NOMEMCLATURA": "062-09", "PARTIDO": 62, "PARTIDO_NOMBRE": "Lobos", "DENOMINACION": "RN 205 - Zapiola", "CLASE": "DE TIERRA", "TRANSITABIlIDAD": "TEMPORARIO", "TIPO": "CAMINO", "TRAMO_NUM": null, "LON_INI": -59.000013807701983, "LAT_INI": -35.11985458039765, "LON_FIN": -59.04186527978608, "LAT_FIN": -35.067670932082052, "LONGITUD_KM_ORIG": 9.169, "LONGITUD_KM_WGS84": 7.5887, "N_VERTICES": 17, "N_LINEAS": 1, "DIFF_PCT": -17.2, "ALERTA": "REVISAR" }, "geometry": { "type": "MultiLineString", "coordinates": [ [ [ -59.000013807701983, -35.11985458039765 ], [ -59.02042925955854, -35.104251736520226 ], [ -59.02066506512692, -35.103923344316556 ], [ -59.020799392829311, -35.103462859930453 ], [ -59.020666561467458, -35.10293669867859 ], [ -59.020418457953426, -35.102570520015988 ], [ -59.017466822883208, -35.099921192400487 ], [ -59.01712502155948, -35.099207011741171 ], [ -59.017126101700079, -35.098258473642666 ], [ -59.019461502441978, -35.092552222367097 ], [ -59.019955277093082, -35.091760111773361 ], [ -59.020736007241375, -35.091097354690405 ], [ -59.039469002324672, -35.077010469591123 ], [ -59.04009590785278, -35.076261673105058 ], [ -59.040716861941853, -35.075140180418849 ], [ -59.040830179489824, -35.074260277716633 ], [ -59.04186527978608, -35.067670932082052 ] ] ] } },
{ "type": "Feature", "properties": { "NOMEMCLATURA": "062-10", "PARTIDO": 62, "PARTIDO_NOMBRE": "Lobos", "DENOMINACION": "RN 205 - vías FF.CC. Roca (Tramo 1)", "CLASE": "PAVIMENTADO", "TRANSITABIlIDAD": "PERMANENTE", "TIPO": "CAMINO", "TRAMO_NUM": 1.0, "LON_INI": -59.063017926954274, "LAT_INI": -35.176862001048377, "LON_FIN": -59.092955929034837, "LAT_FIN": -35.177351917115949, "LONGITUD_KM_ORIG": 2.752, "LONGITUD_KM_WGS84": 2.7338, "N_VERTICES": 5, "N_LINEAS": 1, "DIFF_PCT": -0.7, "ALERTA": "" }, "geometry": { "type": "MultiLineString", "coordinates": [ [ [ -59.063017926954274, -35.176862001048377 ], [ -59.063418762424305, -35.176987903245454 ], [ -59.063852215957603, -35.176967964244653 ], [ -59.064173477510401, -35.176837058564651 ], [ -59.092955929034837, -35.177351917115949 ] ] ] } },
{ "type": "Feature", "properties": { "NOMEMCLATURA": "062-10", "PARTIDO": 62, "PARTIDO_NOMBRE": "Lobos", "DENOMINACION": "Vías FF.CC Roca - RP 41 (700 m cordón cuneta, entre Av República y calle Suipacha) (Tramo 2)", "CLASE": "MIXTO", "TRANSITABIlIDAD": "TEMPORARIO", "TIPO": "CAMINO", "TRAMO_NUM": 2.0, "LON_INI": -59.092955929034837, "LAT_INI": -35.177351917115949, "LON_FIN": -59.11286547151866, "LAT_FIN": -35.195588643119656, "LONGITUD_KM_ORIG": 3.542, "LONGITUD_KM_WGS84": 3.5955, "N_VERTICES": 6, "N_LINEAS": 1, "DIFF_PCT": 1.5, "ALERTA": "" }, "geometry": { "type": "MultiLineString", "coordinates": [ [ [ -59.092955929034837, -35.177351917115949 ], [ -59.108515562588003, -35.177632590391219 ], [ -59.108160433948825, -35.191845668701667 ], [ -59.108710130175297, -35.192051915944035 ], [ -59.109544392583942, -35.192653008813835 ], [ -59.11286547151866, -35.195588643119656 ] ] ] } }
]
}
