{
 "type": "FeatureCollection",
 "name": "mojones_rp51_final",
 "features": [
  {
   "type": "Feature",
   "properties": {
    "id": 1,
    "rtn": 51,
    "ruta_numer": "RP 51",
    "name": "0 km",
    "km_value": 0.0,
    "sentido_prog": "S",
    "tipo_mojon": "Cincuentakilométrico",
    "altitudeMo": "clampToSeafloor",
    "tessellate": -1,
    "extrude": 0,
    "visibility": 0,
    "referencia": "DVBA - Zona VI Saladillo - Div. Técnica (Ing. Luciano Lamaita)"
   },
   "geometry": {
    "type": "Point",
    "coordinates": [
     -59.99871498530226,
     -33.47874056847005
    ]
   }
  },
  {
   "type": "Feature",
   "properties": {
    "id": 2,
    "rtn": 51,
    "ruta_numer": "RP 51",
    "name": "50 km",
    "km_value": 50.0,
    "sentido_prog": "S",
    "tipo_mojon": "Cincuentakilométrico",
    "altitudeMo": "clampToSeafloor",
    "tessellate": -1,
    "extrude": 0,
    "visibility": 0,
    "referencia": "DVBA - Zona VI Saladillo - Div. Técnica (Ing. Luciano Lamaita)"
   },
   "geometry": {
    "type": "Point",
    "coordinates": [
     -60.16853678038583,
     -33.86313617116399
    ]
   }
  },
  {
   "type": "Feature",
   "properties": {
    "id": 3,
    "rtn": 51,
    "ruta_numer": "RP 51",
    "name": "100 km",
    "km_value": 100.0,
    "sentido_prog": "S",
    "tipo_mojon": "Cincuentakilométrico",
    "altitudeMo": "clampToSeafloor",
    "tessellate": -1,
    "extrude": 0,
    "visibility": 0,
    "referencia": "DVBA - Zona VI Saladillo - Div. Técnica (Ing. Luciano Lamaita)"
   },
   "geometry": {
    "type": "Point",
    "coordinates": [
     -59.91911184281189,
     -34.23322253795631
    ]
   }
  },
  {
   "type": "Feature",
   "properties": {
    "id": 4,
    "rtn": 51,
    "ruta_numer": "RP 51",
    "name": "150 km",
    "km_value": 150.0,
    "sentido_prog": "S",
    "tipo_mojon": "Cincuentakilométrico",
    "altitudeMo": "clampToSeafloor",
    "tessellate": -1,
    "extrude": 0,
    "visibility": 0,
    "referencia": "DVBA - Zona VI Saladillo - Div. Técnica (Ing. Luciano Lamaita)"
   },
   "geometry": {
    "type": "Point",
    "coordinates": [
     -60.00826196352997,
     -34.61866202299688
    ]
   }
  },
  {
   "type": "Feature",
   "properties": {
    "id": 5,
    "rtn": 51,
    "ruta_numer": "RP 51",
    "name": "200 km",
    "km_value": 200.0,
    "sentido_prog": "S",
    "tipo_mojon": "Cincuentakilométrico",
    "altitudeMo": "clampToSeafloor",
    "tessellate": -1,
    "extrude": 0,
    "visibility": 0,
    "referencia": "DVBA - Zona VI Saladillo - Div. Técnica (Ing. Luciano Lamaita)"
   },
   "geometry": {
    "type": "Point",
    "coordinates": [
     -60.110791033691925,
     -35.06320254758731
    ]
   }
  },
  {
   "type": "Feature",
   "properties": {
    "id": 6,
    "rtn": 51,
    "ruta_numer": "RP 51",
    "name": "250 km",
    "km_value": 250.0,
    "sentido_prog": "S",
    "tipo_mojon": "Cincuentakilométrico",
    "altitudeMo": "clampToSeafloor",
    "tessellate": -1,
    "extrude": 0,
    "visibility": 0,
    "referencia": "DVBA - Zona VI Saladillo - Div. Técnica (Ing. Luciano Lamaita)"
   },
   "geometry": {
    "type": "Point",
    "coordinates": [
     -60.05299673244827,
     -35.50217272023197
    ]
   }
  },
  {
   "type": "Feature",
   "properties": {
    "id": 7,
    "rtn": 51,
    "ruta_numer": "RP 51",
    "name": "300 km",
    "km_value": 300.0,
    "sentido_prog": "S",
    "tipo_mojon": "Cincuentakilométrico",
    "altitudeMo": "clampToSeafloor",
    "tessellate": -1,
    "extrude": 0,
    "visibility": 0,
    "referencia": "DVBA - Zona VI Saladillo - Div. Técnica (Ing. Luciano Lamaita)"
   },
   "geometry": {
    "type": "Point",
    "coordinates": [
     -59.83410356665031,
     -35.84181323995216
    ]
   }
  },
  {
   "type": "Feature",
   "properties": {
    "id": 8,
    "rtn": 51,
    "ruta_numer": "RP 51",
    "name": "350 km",
    "km_value": 350.0,
    "sentido_prog": "S",
    "tipo_mojon": "Cincuentakilométrico",
    "altitudeMo": "clampToSeafloor",
    "tessellate": -1,
    "extrude": 0,
    "visibility": 0,
    "referencia": "DVBA - Zona VI Saladillo - Div. Técnica (Ing. Luciano Lamaita)"
   },
   "geometry": {
    "type": "Point",
    "coordinates": [
     -59.977793667999165,
     -36.269283638870405
    ]
   }
  },
  {
   "type": "Feature",
   "properties": {
    "id": 9,
    "rtn": 51,
    "ruta_numer": "RP 51",
    "name": "400 km",
    "km_value": 400.0,
    "sentido_prog": "S",
    "tipo_mojon": "Cincuentakilométrico",
    "altitudeMo": "clampToSeafloor",
    "tessellate": -1,
    "extrude": 0,
    "visibility": 0,
    "referencia": "DVBA - Zona VI Saladillo - Div. Técnica (Ing. Luciano Lamaita)"
   },
   "geometry": {
    "type": "Point",
    "coordinates": [
     -59.91674968885197,
     -36.71486996786791
    ]
   }
  },
  {
   "type": "Feature",
   "properties": {
    "id": 10,
    "rtn": 51,
    "ruta_numer": "RP 51",
    "name": "450 km",
    "km_value": 450.0,
    "sentido_prog": "S",
    "tipo_mojon": "Cincuentakilométrico",
    "altitudeMo": "clampToSeafloor",
    "tessellate": -1,
    "extrude": 0,
    "visibility": 0,
    "referencia": "DVBA - Zona VI Saladillo - Div. Técnica (Ing. Luciano Lamaita)"
   },
   "geometry": {
    "type": "Point",
    "coordinates": [
     -60.25617441013196,
     -36.95735847752091
    ]
   }
  },
  {
   "type": "Feature",
   "properties": {
    "id": 11,
    "rtn": 51,
    "ruta_numer": "RP 51",
    "name": "500 km",
    "km_value": 500.0,
    "sentido_prog": "S",
    "tipo_mojon": "Cincuentakilométrico",
    "altitudeMo": "clampToSeafloor",
    "tessellate": -1,
    "extrude": 0,
    "visibility": 0,
    "referencia": "DVBA - Zona VI Saladillo - Div. Técnica (Ing. Luciano Lamaita)"
   },
   "geometry": {
    "type": "Point",
    "coordinates": [
     -60.70052884359338,
     -37.22427314788944
    ]
   }
  },
  {
   "type": "Feature",
   "properties": {
    "id": 12,
    "rtn": 51,
    "ruta_numer": "RP 51",
    "name": "550 km",
    "km_value": 550.0,
    "sentido_prog": "S",
    "tipo_mojon": "Cincuentakilométrico",
    "altitudeMo": "clampToSeafloor",
    "tessellate": -1,
    "extrude": 0,
    "visibility": 0,
    "referencia": "DVBA - Zona VI Saladillo - Div. Técnica (Ing. Luciano Lamaita)"
   },
   "geometry": {
    "type": "Point",
    "coordinates": [
     -61.06723443823549,
     -37.50595870549548
    ]
   }
  },
  {
   "type": "Feature",
   "properties": {
    "id": 13,
    "rtn": 51,
    "ruta_numer": "RP 51",
    "name": "600 km",
    "km_value": 600.0,
    "sentido_prog": "S",
    "tipo_mojon": "Cincuentakilométrico",
    "altitudeMo": "clampToSeafloor",
    "tessellate": -1,
    "extrude": 0,
    "visibility": 0,
    "referencia": "DVBA - Zona VI Saladillo - Div. Técnica (Ing. Luciano Lamaita)"
   },
   "geometry": {
    "type": "Point",
    "coordinates": [
     -61.25781449547867,
     -37.9130468593884
    ]
   }
  },
  {
   "type": "Feature",
   "properties": {
    "id": 14,
    "rtn": 51,
    "ruta_numer": "RP 51",
    "name": "650 km",
    "km_value": 650.0,
    "sentido_prog": "S",
    "tipo_mojon": "Cincuentakilométrico",
    "altitudeMo": "clampToSeafloor",
    "tessellate": -1,
    "extrude": 0,
    "visibility": 0,
    "referencia": "DVBA - Zona VI Saladillo - Div. Técnica (Ing. Luciano Lamaita)"
   },
   "geometry": {
    "type": "Point",
    "coordinates": [
     -61.5146344337406,
     -38.26295210472077
    ]
   }
  },
  {
   "type": "Feature",
   "properties": {
    "id": 15,
    "rtn": 51,
    "ruta_numer": "RP 51",
    "name": "700 km",
    "km_value": 700.0,
    "sentido_prog": "S",
    "tipo_mojon": "Cincuentakilométrico",
    "altitudeMo": "clampToSeafloor",
    "tessellate": -1,
    "extrude": 0,
    "visibility": 0,
    "referencia": "DVBA - Zona VI Saladillo - Div. Técnica (Ing. Luciano Lamaita)"
   },
   "geometry": {
    "type": "Point",
    "coordinates": [
     -61.91453515416755,
     -38.56973093599853
    ]
   }
  }
 ]
}