{
 "type": "FeatureCollection",
 "name": "mojones_rp30_final",
 "features": [
  {
   "type": "Feature",
   "properties": {
    "id": 1,
    "rtn": 30,
    "ruta_numer": "RP 30",
    "name": "550 km",
    "km_value": 550.0,
    "sentido_prog": "NO",
    "tipo_mojon": "Cincuentakilométrico",
    "altitudeMo": "clampToSeaFloor",
    "tessellate": -1,
    "extrude": 0,
    "visibility": 0,
    "referencia": "DVBA - Zona VI Saladillo - Div. Técnica (Ing. Luciano Lamaita)"
   },
   "geometry": {
    "type": "Point",
    "coordinates": [
     -60.632873658935544,
     -34.42331628166447
    ]
   }
  },
  {
   "type": "Feature",
   "properties": {
    "id": 2,
    "rtn": 30,
    "ruta_numer": "RP 30",
    "name": "500 km",
    "km_value": 500.0,
    "sentido_prog": "NO",
    "tipo_mojon": "Cincuentakilométrico",
    "altitudeMo": "clampToSeaFloor",
    "tessellate": -1,
    "extrude": 0,
    "visibility": 0,
    "referencia": "DVBA - Zona VI Saladillo - Div. Técnica (Ing. Luciano Lamaita)"
   },
   "geometry": {
    "type": "Point",
    "coordinates": [
     -60.26800507168562,
     -34.739651210308466
    ]
   }
  },
  {
   "type": "Feature",
   "properties": {
    "id": 3,
    "rtn": 30,
    "ruta_numer": "RP 30",
    "name": "450 km",
    "km_value": 450.0,
    "sentido_prog": "NO",
    "tipo_mojon": "Cincuentakilométrico",
    "altitudeMo": "clampToSeaFloor",
    "tessellate": -1,
    "extrude": 0,
    "visibility": 0,
    "referencia": "DVBA - Zona VI Saladillo - Div. Técnica (Ing. Luciano Lamaita)"
   },
   "geometry": {
    "type": "Point",
    "coordinates": [
     -59.83886018840873,
     -35.00116136548525
    ]
   }
  },
  {
   "type": "Feature",
   "properties": {
    "id": 4,
    "rtn": 30,
    "ruta_numer": "RP 30",
    "name": "400 km",
    "km_value": 400.0,
    "sentido_prog": "N(ESTA SOBRE LA RN 205)",
    "tipo_mojon": "Cincuentakilométrico",
    "altitudeMo": "clampToSeaFloor",
    "tessellate": -1,
    "extrude": 0,
    "visibility": 0,
    "referencia": "DVBA - Zona VI Saladillo - Div. Técnica (Ing. Luciano Lamaita)"
   },
   "geometry": {
    "type": "Point",
    "coordinates": [
     -59.53376805159525,
     -35.33750560118535
    ]
   }
  },
  {
   "type": "Feature",
   "properties": {
    "id": 5,
    "rtn": 30,
    "ruta_numer": "RP 30",
    "name": "350 km",
    "km_value": 350.0,
    "sentido_prog": "N",
    "tipo_mojon": "Cincuentakilométrico",
    "altitudeMo": "clampToSeaFloor",
    "tessellate": -1,
    "extrude": 0,
    "visibility": 0,
    "referencia": "DVBA - Zona VI Saladillo - Div. Técnica (Ing. Luciano Lamaita)"
   },
   "geometry": {
    "type": "Point",
    "coordinates": [
     -59.309366145869525,
     -35.59712335016154
    ]
   }
  },
  {
   "type": "Feature",
   "properties": {
    "id": 6,
    "rtn": 30,
    "ruta_numer": "RP 30",
    "name": "250 km",
    "km_value": 250.0,
    "sentido_prog": "N",
    "tipo_mojon": "Cincuentakilométrico",
    "altitudeMo": "clampToSeaFloor",
    "tessellate": -1,
    "extrude": 0,
    "visibility": 0,
    "referencia": "DVBA - Zona VI Saladillo - Div. Técnica (Ing. Luciano Lamaita)"
   },
   "geometry": {
    "type": "Point",
    "coordinates": [
     -59.13386022004624,
     -35.93159864471402
    ]
   }
  },
  {
   "type": "Feature",
   "properties": {
    "id": 7,
    "rtn": 30,
    "ruta_numer": "RP 30",
    "name": "100 km",
    "km_value": 100.0,
    "sentido_prog": "N",
    "tipo_mojon": "Cincuentakilométrico",
    "altitudeMo": "clampToSeaFloor",
    "tessellate": -1,
    "extrude": 0,
    "visibility": 0,
    "referencia": "DVBA - Zona VI Saladillo - Div. Técnica (Ing. Luciano Lamaita)"
   },
   "geometry": {
    "type": "Point",
    "coordinates": [
     -59.01860285324945,
     -36.33296956540091
    ]
   }
  },
  {
   "type": "Feature",
   "properties": {
    "id": 8,
    "rtn": 30,
    "ruta_numer": "RP 30",
    "name": "200 km",
    "km_value": 200.0,
    "sentido_prog": "N",
    "tipo_mojon": "Cincuentakilométrico",
    "altitudeMo": "clampToSeaFloor",
    "tessellate": -1,
    "extrude": 0,
    "visibility": 0,
    "referencia": "DVBA - Zona VI Saladillo - Div. Técnica (Ing. Luciano Lamaita)"
   },
   "geometry": {
    "type": "Point",
    "coordinates": [
     -59.089947306682845,
     -36.76459496834173
    ]
   }
  },
  {
   "type": "Feature",
   "properties": {
    "id": 9,
    "rtn": 30,
    "ruta_numer": "RP 30",
    "name": "150 km",
    "km_value": 150.0,
    "sentido_prog": "N",
    "tipo_mojon": "Cincuentakilométrico",
    "altitudeMo": "clampToSeaFloor",
    "tessellate": -1,
    "extrude": 0,
    "visibility": 0,
    "referencia": "DVBA - Zona VI Saladillo - Div. Técnica (Ing. Luciano Lamaita)"
   },
   "geometry": {
    "type": "Point",
    "coordinates": [
     -59.02813102739538,
     -37.16858983154504
    ]
   }
  },
  {
   "type": "Feature",
   "properties": {
    "id": 10,
    "rtn": 30,
    "ruta_numer": "RP 30",
    "name": "300 km",
    "km_value": 300.0,
    "sentido_prog": "N",
    "tipo_mojon": "Cincuentakilométrico",
    "altitudeMo": "clampToSeaFloor",
    "tessellate": -1,
    "extrude": 0,
    "visibility": 0,
    "referencia": "DVBA - Zona VI Saladillo - Div. Técnica (Ing. Luciano Lamaita)"
   },
   "geometry": {
    "type": "Point",
    "coordinates": [
     -59.1892954131785,
     -37.5507934791888
    ]
   }
  },
  {
   "type": "Feature",
   "properties": {
    "id": 11,
    "rtn": 30,
    "ruta_numer": "RP 30",
    "name": "50 km",
    "km_value": 50.0,
    "sentido_prog": "N",
    "tipo_mojon": "Cincuentakilométrico",
    "altitudeMo": "clampToSeaFloor",
    "tessellate": -1,
    "extrude": 0,
    "visibility": 0,
    "referencia": "DVBA - Zona VI Saladillo - Div. Técnica (Ing. Luciano Lamaita)"
   },
   "geometry": {
    "type": "Point",
    "coordinates": [
     -58.90424522019558,
     -37.838829278191085
    ]
   }
  },
  {
   "type": "Feature",
   "properties": {
    "id": 12,
    "rtn": 30,
    "ruta_numer": "RP 30",
    "name": "0 km",
    "km_value": 0.0,
    "sentido_prog": "NO",
    "tipo_mojon": "Cincuentakilométrico",
    "altitudeMo": "clampToSeaFloor",
    "tessellate": -1,
    "extrude": 0,
    "visibility": 0,
    "referencia": "DVBA - Zona VI Saladillo - Div. Técnica (Ing. Luciano Lamaita)"
   },
   "geometry": {
    "type": "Point",
    "coordinates": [
     -58.765816,
     -38.174741
    ]
   }
  }
 ]
}