{
"type": "FeatureCollection",
"name": "mojones_rp40_final",
"features": [
{ "type": "Feature", "properties": { "id": 1, "rtn": 40, "ruta_numer": "RP 40", "name": "200 km", "km_value": 200.0, "sentido_prog": "O", "tipo_mojon": "Cincuentakilométrico", "altitudeMo": "clampToSeaFloor", "tessellate": -1, "extrude": 0, "visibility": 0, "referencia": "DVBA - Zona VI Saladillo - Div. Técnica (Ing. Luciano Lamaita)" }, "geometry": { "type": "Point", "coordinates": [ -60.439284656777176, -35.469988045607046 ] } },
{ "type": "Feature", "properties": { "id": 2, "rtn": 40, "ruta_numer": "RP 40", "name": "150 km", "km_value": 150.0, "sentido_prog": "SO", "tipo_mojon": "Cincuentakilométrico", "altitudeMo": "clampToSeaFloor", "tessellate": -1, "extrude": 0, "visibility": 0, "referencia": "DVBA - Zona VI Saladillo - Div. Técnica (Ing. Luciano Lamaita)" }, "geometry": { "type": "Point", "coordinates": [ -59.972797169721538, -35.334497735890253 ] } },
{ "type": "Feature", "properties": { "id": 3, "rtn": 40, "ruta_numer": "RP 40", "name": "100 km", "km_value": 100.0, "sentido_prog": "O", "tipo_mojon": "Cincuentakilométrico", "altitudeMo": "clampToSeaFloor", "tessellate": -1, "extrude": 0, "visibility": 0, "referencia": "DVBA - Zona VI Saladillo - Div. Técnica (Ing. Luciano Lamaita)" }, "geometry": { "type": "Point", "coordinates": [ -59.541422820740323, -35.16269145713526 ] } },
{ "type": "Feature", "properties": { "id": 4, "rtn": 40, "ruta_numer": "RP 40", "name": "50 km", "km_value": 50.0, "sentido_prog": "SO", "tipo_mojon": "Cincuentakilométrico", "altitudeMo": "clampToSeaFloor", "tessellate": -1, "extrude": 0, "visibility": 0, "referencia": "DVBA - Zona VI Saladillo - Div. Técnica (Ing. Luciano Lamaita)" }, "geometry": { "type": "Point", "coordinates": [ -59.090603557803533, -34.945232770255004 ] } },
{ "type": "Feature", "properties": { "id": 5, "rtn": 40, "ruta_numer": "RP 40", "name": "0 km", "km_value": 0.0, "sentido_prog": "SO", "tipo_mojon": "Cincuentakilométrico", "altitudeMo": "clampToSeaFloor", "tessellate": -1, "extrude": 0, "visibility": 0, "referencia": "DVBA - Zona VI Saladillo - Div. Técnica (Ing. Luciano Lamaita)" }, "geometry": { "type": "Point", "coordinates": [ -58.734234544333951, -34.663751664208192 ] } }
]
}
