{
 "type": "FeatureCollection",
 "name": "mojones_rp30",
 "xy_coordinate_resolution": 1e-06,
 "features": [
  {
   "type": "Feature",
   "properties": {
    "id": 1,
    "rtn": 30,
    "ruta_numer": "RP 30",
    "name": "550 km",
    "km_value": 550.0,
    "sentido_prog": "NO",
    "tipo_mojon": "Cincuentakilométrico",
    "altitudeMo": "clampToSeaFloor",
    "tessellate": -1,
    "extrude": 0,
    "visibility": 0,
    "referencia": "DVBA - Zona VI Saladillo - Div. Técnica (Ing. Luciano Lamaita)"
   },
   "geometry": {
    "type": "Point",
    "coordinates": [
     -60.632874,
     -34.423316
    ]
   }
  },
  {
   "type": "Feature",
   "properties": {
    "id": 2,
    "rtn": 30,
    "ruta_numer": "RP 30",
    "name": "500 km",
    "km_value": 500.0,
    "sentido_prog": "NO",
    "tipo_mojon": "Cincuentakilométrico",
    "altitudeMo": "clampToSeaFloor",
    "tessellate": -1,
    "extrude": 0,
    "visibility": 0,
    "referencia": "DVBA - Zona VI Saladillo - Div. Técnica (Ing. Luciano Lamaita)"
   },
   "geometry": {
    "type": "Point",
    "coordinates": [
     -60.268005,
     -34.739651
    ]
   }
  },
  {
   "type": "Feature",
   "properties": {
    "id": 3,
    "rtn": 30,
    "ruta_numer": "RP 30",
    "name": "450 km",
    "km_value": 450.0,
    "sentido_prog": "NO",
    "tipo_mojon": "Cincuentakilométrico",
    "altitudeMo": "clampToSeaFloor",
    "tessellate": -1,
    "extrude": 0,
    "visibility": 0,
    "referencia": "DVBA - Zona VI Saladillo - Div. Técnica (Ing. Luciano Lamaita)"
   },
   "geometry": {
    "type": "Point",
    "coordinates": [
     -59.83886,
     -35.001161
    ]
   }
  },
  {
   "type": "Feature",
   "properties": {
    "id": 4,
    "rtn": 30,
    "ruta_numer": "RP 30",
    "name": "400 km",
    "km_value": 400.0,
    "sentido_prog": "N(ESTA SOBRE LA RN 205)",
    "tipo_mojon": "Cincuentakilométrico",
    "altitudeMo": "clampToSeaFloor",
    "tessellate": -1,
    "extrude": 0,
    "visibility": 0,
    "referencia": "DVBA - Zona VI Saladillo - Div. Técnica (Ing. Luciano Lamaita)"
   },
   "geometry": {
    "type": "Point",
    "coordinates": [
     -59.533768,
     -35.337506
    ]
   }
  },
  {
   "type": "Feature",
   "properties": {
    "id": 5,
    "rtn": 30,
    "ruta_numer": "RP 30",
    "name": "350 km",
    "km_value": 350.0,
    "sentido_prog": "N",
    "tipo_mojon": "Cincuentakilométrico",
    "altitudeMo": "clampToSeaFloor",
    "tessellate": -1,
    "extrude": 0,
    "visibility": 0,
    "referencia": "DVBA - Zona VI Saladillo - Div. Técnica (Ing. Luciano Lamaita)"
   },
   "geometry": {
    "type": "Point",
    "coordinates": [
     -59.309366,
     -35.597123
    ]
   }
  },
  {
   "type": "Feature",
   "properties": {
    "id": 6,
    "rtn": 30,
    "ruta_numer": "RP 30",
    "name": "250 km",
    "km_value": 250.0,
    "sentido_prog": "N",
    "tipo_mojon": "Cincuentakilométrico",
    "altitudeMo": "clampToSeaFloor",
    "tessellate": -1,
    "extrude": 0,
    "visibility": 0,
    "referencia": "DVBA - Zona VI Saladillo - Div. Técnica (Ing. Luciano Lamaita)"
   },
   "geometry": {
    "type": "Point",
    "coordinates": [
     -59.13386,
     -35.931599
    ]
   }
  },
  {
   "type": "Feature",
   "properties": {
    "id": 7,
    "rtn": 30,
    "ruta_numer": "RP 30",
    "name": "100 km",
    "km_value": 100.0,
    "sentido_prog": "N",
    "tipo_mojon": "Cincuentakilométrico",
    "altitudeMo": "clampToSeaFloor",
    "tessellate": -1,
    "extrude": 0,
    "visibility": 0,
    "referencia": "DVBA - Zona VI Saladillo - Div. Técnica (Ing. Luciano Lamaita)"
   },
   "geometry": {
    "type": "Point",
    "coordinates": [
     -59.018603,
     -36.33297
    ]
   }
  },
  {
   "type": "Feature",
   "properties": {
    "id": 8,
    "rtn": 30,
    "ruta_numer": "RP 30",
    "name": "200 km",
    "km_value": 200.0,
    "sentido_prog": "N",
    "tipo_mojon": "Cincuentakilométrico",
    "altitudeMo": "clampToSeaFloor",
    "tessellate": -1,
    "extrude": 0,
    "visibility": 0,
    "referencia": "DVBA - Zona VI Saladillo - Div. Técnica (Ing. Luciano Lamaita)"
   },
   "geometry": {
    "type": "Point",
    "coordinates": [
     -59.089947,
     -36.764595
    ]
   }
  },
  {
   "type": "Feature",
   "properties": {
    "id": 9,
    "rtn": 30,
    "ruta_numer": "RP 30",
    "name": "150 km",
    "km_value": 150.0,
    "sentido_prog": "N",
    "tipo_mojon": "Cincuentakilométrico",
    "altitudeMo": "clampToSeaFloor",
    "tessellate": -1,
    "extrude": 0,
    "visibility": 0,
    "referencia": "DVBA - Zona VI Saladillo - Div. Técnica (Ing. Luciano Lamaita)"
   },
   "geometry": {
    "type": "Point",
    "coordinates": [
     -59.028131,
     -37.16859
    ]
   }
  },
  {
   "type": "Feature",
   "properties": {
    "id": 10,
    "rtn": 30,
    "ruta_numer": "RP 30",
    "name": "300 km",
    "km_value": 300.0,
    "sentido_prog": "N",
    "tipo_mojon": "Cincuentakilométrico",
    "altitudeMo": "clampToSeaFloor",
    "tessellate": -1,
    "extrude": 0,
    "visibility": 0,
    "referencia": "DVBA - Zona VI Saladillo - Div. Técnica (Ing. Luciano Lamaita)"
   },
   "geometry": {
    "type": "Point",
    "coordinates": [
     -59.189295,
     -37.550793
    ]
   }
  },
  {
   "type": "Feature",
   "properties": {
    "id": 11,
    "rtn": 30,
    "ruta_numer": "RP 30",
    "name": "50 km",
    "km_value": 50.0,
    "sentido_prog": "N",
    "tipo_mojon": "Cincuentakilométrico",
    "altitudeMo": "clampToSeaFloor",
    "tessellate": -1,
    "extrude": 0,
    "visibility": 0,
    "referencia": "DVBA - Zona VI Saladillo - Div. Técnica (Ing. Luciano Lamaita)"
   },
   "geometry": {
    "type": "Point",
    "coordinates": [
     -58.904245,
     -37.838829
    ]
   }
  },
  {
   "type": "Feature",
   "properties": {
    "id": 12,
    "rtn": 30,
    "ruta_numer": "RP 30",
    "name": "0 km",
    "km_value": 0.0,
    "sentido_prog": "NO",
    "tipo_mojon": "Cincuentakilométrico",
    "altitudeMo": "clampToSeaFloor",
    "tessellate": -1,
    "extrude": 0,
    "visibility": 0,
    "referencia": "DVBA - Zona VI Saladillo - Div. Técnica (Ing. Luciano Lamaita)"
   },
   "geometry": {
    "type": "Point",
    "coordinates": [
     -58.765816,
     -38.174741
    ]
   }
  }
 ]
}