{
"type": "FeatureCollection",
"name": "mojones_rp51_final",
"features": [
{ "type": "Feature", "properties": { "id": 1, "rtn": 51, "ruta_numer": "RP 51", "name": "0 km", "km_value": 0.0, "sentido_prog": "S", "tipo_mojon": "Cincuentakilométrico", "altitudeMo": "clampToSeafloor", "tessellate": -1, "extrude": 0, "visibility": 0, "referencia": "DVBA - Zona VI Saladillo - Div. Técnica (Ing. Luciano Lamaita)" }, "geometry": { "type": "Point", "coordinates": [ -59.998714985302257, -33.478740568470052 ] } },
{ "type": "Feature", "properties": { "id": 2, "rtn": 51, "ruta_numer": "RP 51", "name": "50 km", "km_value": 50.0, "sentido_prog": "S", "tipo_mojon": "Cincuentakilométrico", "altitudeMo": "clampToSeafloor", "tessellate": -1, "extrude": 0, "visibility": 0, "referencia": "DVBA - Zona VI Saladillo - Div. Técnica (Ing. Luciano Lamaita)" }, "geometry": { "type": "Point", "coordinates": [ -60.168536780385828, -33.863136171163987 ] } },
{ "type": "Feature", "properties": { "id": 3, "rtn": 51, "ruta_numer": "RP 51", "name": "100 km", "km_value": 100.0, "sentido_prog": "S", "tipo_mojon": "Cincuentakilométrico", "altitudeMo": "clampToSeafloor", "tessellate": -1, "extrude": 0, "visibility": 0, "referencia": "DVBA - Zona VI Saladillo - Div. Técnica (Ing. Luciano Lamaita)" }, "geometry": { "type": "Point", "coordinates": [ -59.919111842811887, -34.233222537956308 ] } },
{ "type": "Feature", "properties": { "id": 4, "rtn": 51, "ruta_numer": "RP 51", "name": "150 km", "km_value": 150.0, "sentido_prog": "S", "tipo_mojon": "Cincuentakilométrico", "altitudeMo": "clampToSeafloor", "tessellate": -1, "extrude": 0, "visibility": 0, "referencia": "DVBA - Zona VI Saladillo - Div. Técnica (Ing. Luciano Lamaita)" }, "geometry": { "type": "Point", "coordinates": [ -60.008261963529968, -34.61866202299688 ] } },
{ "type": "Feature", "properties": { "id": 5, "rtn": 51, "ruta_numer": "RP 51", "name": "200 km", "km_value": 200.0, "sentido_prog": "S", "tipo_mojon": "Cincuentakilométrico", "altitudeMo": "clampToSeafloor", "tessellate": -1, "extrude": 0, "visibility": 0, "referencia": "DVBA - Zona VI Saladillo - Div. Técnica (Ing. Luciano Lamaita)" }, "geometry": { "type": "Point", "coordinates": [ -60.110791033691925, -35.063202547587309 ] } },
{ "type": "Feature", "properties": { "id": 6, "rtn": 51, "ruta_numer": "RP 51", "name": "250 km", "km_value": 250.0, "sentido_prog": "S", "tipo_mojon": "Cincuentakilométrico", "altitudeMo": "clampToSeafloor", "tessellate": -1, "extrude": 0, "visibility": 0, "referencia": "DVBA - Zona VI Saladillo - Div. Técnica (Ing. Luciano Lamaita)" }, "geometry": { "type": "Point", "coordinates": [ -60.052996732448271, -35.502172720231968 ] } },
{ "type": "Feature", "properties": { "id": 7, "rtn": 51, "ruta_numer": "RP 51", "name": "300 km", "km_value": 300.0, "sentido_prog": "S", "tipo_mojon": "Cincuentakilométrico", "altitudeMo": "clampToSeafloor", "tessellate": -1, "extrude": 0, "visibility": 0, "referencia": "DVBA - Zona VI Saladillo - Div. Técnica (Ing. Luciano Lamaita)" }, "geometry": { "type": "Point", "coordinates": [ -59.834103566650313, -35.84181323995216 ] } },
{ "type": "Feature", "properties": { "id": 8, "rtn": 51, "ruta_numer": "RP 51", "name": "350 km", "km_value": 350.0, "sentido_prog": "S", "tipo_mojon": "Cincuentakilométrico", "altitudeMo": "clampToSeafloor", "tessellate": -1, "extrude": 0, "visibility": 0, "referencia": "DVBA - Zona VI Saladillo - Div. Técnica (Ing. Luciano Lamaita)" }, "geometry": { "type": "Point", "coordinates": [ -59.977793667999165, -36.269283638870405 ] } },
{ "type": "Feature", "properties": { "id": 9, "rtn": 51, "ruta_numer": "RP 51", "name": "400 km", "km_value": 400.0, "sentido_prog": "S", "tipo_mojon": "Cincuentakilométrico", "altitudeMo": "clampToSeafloor", "tessellate": -1, "extrude": 0, "visibility": 0, "referencia": "DVBA - Zona VI Saladillo - Div. Técnica (Ing. Luciano Lamaita)" }, "geometry": { "type": "Point", "coordinates": [ -59.916749688851972, -36.714869967867912 ] } },
{ "type": "Feature", "properties": { "id": 10, "rtn": 51, "ruta_numer": "RP 51", "name": "450 km", "km_value": 450.0, "sentido_prog": "S", "tipo_mojon": "Cincuentakilométrico", "altitudeMo": "clampToSeafloor", "tessellate": -1, "extrude": 0, "visibility": 0, "referencia": "DVBA - Zona VI Saladillo - Div. Técnica (Ing. Luciano Lamaita)" }, "geometry": { "type": "Point", "coordinates": [ -60.256174410131962, -36.957358477520913 ] } },
{ "type": "Feature", "properties": { "id": 11, "rtn": 51, "ruta_numer": "RP 51", "name": "500 km", "km_value": 500.0, "sentido_prog": "S", "tipo_mojon": "Cincuentakilométrico", "altitudeMo": "clampToSeafloor", "tessellate": -1, "extrude": 0, "visibility": 0, "referencia": "DVBA - Zona VI Saladillo - Div. Técnica (Ing. Luciano Lamaita)" }, "geometry": { "type": "Point", "coordinates": [ -60.700528843593382, -37.224273147889441 ] } },
{ "type": "Feature", "properties": { "id": 12, "rtn": 51, "ruta_numer": "RP 51", "name": "550 km", "km_value": 550.0, "sentido_prog": "S", "tipo_mojon": "Cincuentakilométrico", "altitudeMo": "clampToSeafloor", "tessellate": -1, "extrude": 0, "visibility": 0, "referencia": "DVBA - Zona VI Saladillo - Div. Técnica (Ing. Luciano Lamaita)" }, "geometry": { "type": "Point", "coordinates": [ -61.067234438235488, -37.50595870549548 ] } },
{ "type": "Feature", "properties": { "id": 13, "rtn": 51, "ruta_numer": "RP 51", "name": "600 km", "km_value": 600.0, "sentido_prog": "S", "tipo_mojon": "Cincuentakilométrico", "altitudeMo": "clampToSeafloor", "tessellate": -1, "extrude": 0, "visibility": 0, "referencia": "DVBA - Zona VI Saladillo - Div. Técnica (Ing. Luciano Lamaita)" }, "geometry": { "type": "Point", "coordinates": [ -61.257814495478669, -37.913046859388402 ] } },
{ "type": "Feature", "properties": { "id": 14, "rtn": 51, "ruta_numer": "RP 51", "name": "650 km", "km_value": 650.0, "sentido_prog": "S", "tipo_mojon": "Cincuentakilométrico", "altitudeMo": "clampToSeafloor", "tessellate": -1, "extrude": 0, "visibility": 0, "referencia": "DVBA - Zona VI Saladillo - Div. Técnica (Ing. Luciano Lamaita)" }, "geometry": { "type": "Point", "coordinates": [ -61.514634433740603, -38.262952104720767 ] } },
{ "type": "Feature", "properties": { "id": 15, "rtn": 51, "ruta_numer": "RP 51", "name": "700 km", "km_value": 700.0, "sentido_prog": "S", "tipo_mojon": "Cincuentakilométrico", "altitudeMo": "clampToSeafloor", "tessellate": -1, "extrude": 0, "visibility": 0, "referencia": "DVBA - Zona VI Saladillo - Div. Técnica (Ing. Luciano Lamaita)" }, "geometry": { "type": "Point", "coordinates": [ -61.914535154167552, -38.569730935998528 ] } }
]
}
