{
"type": "FeatureCollection",
"name": "mojones_rp61_final",
"xy_coordinate_resolution": 1e-06,
"features": [
{ "type": "Feature", "properties": { "id": 1, "rtn": 61, "ruta_numer": "RP 61", "name": "0 km", "km_value": 0.0, "sentido_prog": "O", "tipo_mojon": "Cincuentakilométrico", "altitudeMo": "clampToSeafloor", "tessellate": -1, "extrude": 0, "visibility": 0, "referencia": "DVBA - Zona VI Saladillo - Div. Técnica (Ing. Luciano Lamaita)" }, "geometry": { "type": "Point", "coordinates": [ -58.618442, -35.88441 ] } },
{ "type": "Feature", "properties": { "id": 2, "rtn": 61, "ruta_numer": "RP 61", "name": "50 km", "km_value": 50.0, "sentido_prog": "O", "tipo_mojon": "Cincuentakilométrico", "altitudeMo": "clampToSeafloor", "tessellate": -1, "extrude": 0, "visibility": 0, "referencia": "DVBA - Zona VI Saladillo - Div. Técnica (Ing. Luciano Lamaita)" }, "geometry": { "type": "Point", "coordinates": [ -59.103197, -36.060634 ] } },
{ "type": "Feature", "properties": { "id": 3, "rtn": 61, "ruta_numer": "RP 61", "name": "100 km", "km_value": 100.0, "sentido_prog": "O", "tipo_mojon": "Cincuentakilométrico", "altitudeMo": "clampToSeafloor", "tessellate": -1, "extrude": 0, "visibility": 0, "referencia": "DVBA - Zona VI Saladillo - Div. Técnica (Ing. Luciano Lamaita)" }, "geometry": { "type": "Point", "coordinates": [ -59.557783, -36.01163 ] } },
{ "type": "Feature", "properties": { "id": 4, "rtn": 61, "ruta_numer": "RP 61", "name": "150 km", "km_value": 150.0, "sentido_prog": "O", "tipo_mojon": "Cincuentakilométrico", "altitudeMo": "clampToSeafloor", "tessellate": -1, "extrude": 0, "visibility": 0, "referencia": "DVBA - Zona VI Saladillo - Div. Técnica (Ing. Luciano Lamaita)" }, "geometry": { "type": "Point", "coordinates": [ -60.012783, -36.022292 ] } },
{ "type": "Feature", "properties": { "id": 5, "rtn": 61, "ruta_numer": "RP 61", "name": "200 km", "km_value": 200.0, "sentido_prog": "O", "tipo_mojon": "Cincuentakilométrico", "altitudeMo": "clampToSeafloor", "tessellate": -1, "extrude": 0, "visibility": 0, "referencia": "DVBA - Zona VI Saladillo - Div. Técnica (Ing. Luciano Lamaita)" }, "geometry": { "type": "Point", "coordinates": [ -60.420709, -35.791117 ] } },
{ "type": "Feature", "properties": { "id": 6, "rtn": 61, "ruta_numer": "RP 61", "name": "250 km", "km_value": 250.0, "sentido_prog": "O", "tipo_mojon": "Cincuentakilométrico", "altitudeMo": "clampToSeafloor", "tessellate": -1, "extrude": 0, "visibility": 0, "referencia": "DVBA - Zona VI Saladillo - Div. Técnica (Ing. Luciano Lamaita)" }, "geometry": { "type": "Point", "coordinates": [ -60.803813, -35.529913 ] } }
]
}
