{
"type": "FeatureCollection",
"name": "mojones_rp41_final",
"xy_coordinate_resolution": 1e-06,
"features": [
{ "type": "Feature", "properties": { "id": 1, "rtn": 41, "ruta_numer": "RP 41", "name": "300 km", "km_value": 300.0, "sentido_prog": "N", "tipo_mojon": "Cincuentakilométrico", "altitudeMo": "clampToSeaFloor", "tessellate": -1, "extrude": 0, "visibility": 0, "referencia": "DVBA - Zona VI Saladillo - Div. Técnica (Ing. Luciano Lamaita)" }, "geometry": { "type": "Point", "coordinates": [ -59.503117, -34.079351 ] } },
{ "type": "Feature", "properties": { "id": 2, "rtn": 41, "ruta_numer": "RP 41", "name": "250 km", "km_value": 250.0, "sentido_prog": "N", "tipo_mojon": "Cincuentakilométrico", "altitudeMo": "clampToSeaFloor", "tessellate": -1, "extrude": 0, "visibility": 0, "referencia": "DVBA - Zona VI Saladillo - Div. Técnica (Ing. Luciano Lamaita)" }, "geometry": { "type": "Point", "coordinates": [ -59.442063, -34.497902 ] } },
{ "type": "Feature", "properties": { "id": 3, "rtn": 41, "ruta_numer": "RP 41", "name": "200 km", "km_value": 200.0, "sentido_prog": "N", "tipo_mojon": "Cincuentakilométrico", "altitudeMo": "clampToSeaFloor", "tessellate": -1, "extrude": 0, "visibility": 0, "referencia": "DVBA - Zona VI Saladillo - Div. Técnica (Ing. Luciano Lamaita)" }, "geometry": { "type": "Point", "coordinates": [ -59.323365, -34.933717 ] } },
{ "type": "Feature", "properties": { "id": 4, "rtn": 41, "ruta_numer": "RP 41", "name": "150 km", "km_value": 150.0, "sentido_prog": "NO", "tipo_mojon": "Cincuentakilométrico", "altitudeMo": "clampToSeaFloor", "tessellate": -1, "extrude": 0, "visibility": 0, "referencia": "DVBA - Zona VI Saladillo - Div. Técnica (Ing. Luciano Lamaita)" }, "geometry": { "type": "Point", "coordinates": [ -58.995794, -35.256845 ] } },
{ "type": "Feature", "properties": { "id": 5, "rtn": 41, "ruta_numer": "RP 41", "name": "100 km", "km_value": 100.0, "sentido_prog": "N", "tipo_mojon": "Cincuentakilométrico", "altitudeMo": "clampToSeaFloor", "tessellate": -1, "extrude": 0, "visibility": 0, "referencia": "DVBA - Zona VI Saladillo - Div. Técnica (Ing. Luciano Lamaita)" }, "geometry": { "type": "Point", "coordinates": [ -58.63032, -35.5828 ] } },
{ "type": "Feature", "properties": { "id": 6, "rtn": 41, "ruta_numer": "RP 41", "name": "50 km", "km_value": 50.0, "sentido_prog": "NO", "tipo_mojon": "Cincuentakilométrico", "altitudeMo": "clampToSeaFloor", "tessellate": -1, "extrude": 0, "visibility": 0, "referencia": "DVBA - Zona VI Saladillo - Div. Técnica (Ing. Luciano Lamaita)" }, "geometry": { "type": "Point", "coordinates": [ -58.311769, -35.912293 ] } },
{ "type": "Feature", "properties": { "id": 7, "rtn": 41, "ruta_numer": "RP 41", "name": "0 km", "km_value": 0.0, "sentido_prog": "NO", "tipo_mojon": "Cincuentakilométrico", "altitudeMo": "clampToSeaFloor", "tessellate": -1, "extrude": 0, "visibility": 0, "referencia": "DVBA - Zona VI Saladillo - Div. Técnica (Ing. Luciano Lamaita)" }, "geometry": { "type": "Point", "coordinates": [ -57.82031, -36.073293 ] } }
]
}
