{"type": "FeatureCollection", "name": "rp40_traza_completa", "xy_coordinate_resolution": 1e-06, "features": [{"type": "Feature", "properties": {"fid": 1, "es_gap": 0}, "geometry": {"type": "LineString", "coordinates": [[-58.734235, -34.663752], [-58.735289, -34.663592], [-58.740187, -34.665136], [-58.740918, -34.665286], [-58.741007, -34.665325], [-58.74367, -34.667516], [-58.759303, -34.680323], [-58.763061, -34.685361], [-58.764973, -34.686993], [-58.789939, -34.720528], [-58.790685, -34.721942], [-58.794578, -34.727199], [-58.795674, -34.728362], [-58.827466, -34.771181], [-58.827536, -34.771636], [-58.82719, -34.775066], [-58.827234, -34.775352], [-58.827327, -34.775574], [-58.836362, -34.787742], [-58.836748, -34.788181], [-58.836973, -34.788391], [-58.837438, -34.788702], [-58.838094, -34.789051], [-58.841152, -34.790442], [-58.841658, -34.790765], [-58.842671, -34.791731], [-58.88844, -34.853426], [-58.888803, -34.854463], [-58.888831, -34.855225], [-58.888597, -34.855961], [-58.888168, -34.85646], [-58.887089, -34.85752], [-58.886936, -34.857938], [-58.886972, -34.85836], [-58.887161, -34.858571], [-58.887375, -34.858675], [-58.887756, -34.858641], [-58.889015, -34.858049], [-58.893184, -34.854767], [-58.893184, -34.854767], [-58.89459, -34.853503], [-58.895405, -34.852958], [-58.895621, -34.852867], [-58.895845, -34.852924], [-58.89594, -34.853113], [-58.895303, -34.853813], [-58.895148, -34.854285], [-58.895284, -34.854804], [-58.895285, -34.855182], [-58.895133, -34.855518], [-58.893748, -34.857428], [-58.893627, -34.857673], [-58.893499, -34.858121], [-58.893479, -34.858572], [-58.893534, -34.858878], [-58.893654, -34.859206], [-58.89386, -34.859545], [-58.903961, -34.873213], [-58.913608, -34.886055], [-58.914031, -34.886481], [-58.914406, -34.88679], [-58.914811, -34.887056], [-58.914985, -34.887154], [-58.915274, -34.887302], [-58.91555, -34.887426], [-58.920851, -34.889411], [-58.921253, -34.889579], [-58.921596, -34.889772], [-58.922222, -34.890207], [-58.942801, -34.908722], [-58.962539, -34.926347], [-58.963406, -34.926901], [-58.964657, -34.927361], [-58.96521, -34.927461], [-58.976694, -34.929561], [-58.989956, -34.931942], [-59.000744, -34.933915], [-59.001068, -34.934001], [-59.001655, -34.934219], [-59.002457, -34.93461], [-59.002995, -34.934979], [-59.009494, -34.940109], [-59.009698, -34.940257], [-59.010037, -34.940463], [-59.010659, -34.940773], [-59.011077, -34.940928], [-59.011445, -34.941042], [-59.011894, -34.941145], [-59.01241, -34.941218], [-59.028726, -34.942779], [-59.042219, -34.944162], [-59.042971, -34.94422], [-59.043585, -34.944214], [-59.044158, -34.944171], [-59.044601, -34.944116], [-59.045756, -34.943883], [-59.058783, -34.940087], [-59.05934, -34.939985], [-59.059714, -34.939955], [-59.060086, -34.939963], [-59.060633, -34.940025], [-59.061171, -34.940133], [-59.080597, -34.945073], [-59.080952, -34.945142], [-59.081409, -34.945196], [-59.081821, -34.945225], [-59.096797, -34.945228], [-59.097527, -34.945286], [-59.115122, -34.948454], [-59.142737, -34.953625], [-59.152336, -34.955402], [-59.1531, -34.955525], [-59.153682, -34.955571], [-59.171659, -34.954913], [-59.172321, -34.954914], [-59.173022, -34.955025], [-59.173384, -34.955141], [-59.200218, -34.967053], [-59.200704, -34.967303], [-59.200989, -34.967472], [-59.201346, -34.96773], [-59.210451, -34.975682], [-59.211096, -34.976028], [-59.226164, -34.983466], [-59.226723, -34.983753], [-59.227203, -34.984077], [-59.227766, -34.984556], [-59.243746, -34.998526], [-59.244559, -34.998979], [-59.245293, -34.999239], [-59.247431, -34.999653], [-59.249643, -35.000098], [-59.251271, -35.000518], [-59.280134, -35.010661], [-59.280311, -35.010763], [-59.280626, -35.01088], [-59.281759, -35.01129], [-59.282146, -35.011489], [-59.282554, -35.011798], [-59.28295, -35.012278], [-59.283189, -35.012844], [-59.283242, -35.01319], [-59.283224, -35.013512], [-59.282873, -35.016113], [-59.282896, -35.01666], [-59.283088, -35.017125], [-59.283288, -35.017393], [-59.283578, -35.01765], [-59.287618, -35.020086], [-59.288154, -35.020524], [-59.288578, -35.020966], [-59.289023, -35.02154], [-59.293301, -35.029787], [-59.293512, -35.030069], [-59.293824, -35.030147], [-59.294142, -35.030065], [-59.294592, -35.029781], [-59.294848, -35.029784], [-59.294933, -35.029916], [-59.29435, -35.030848], [-59.294338, -35.031063], [-59.294519, -35.031298], [-59.299238, -35.033677], [-59.300901, -35.034904], [-59.312672, -35.040765], [-59.312822, -35.040972], [-59.312822, -35.040972], [-59.312758, -35.041208], [-59.31218, -35.042307], [-59.312158, -35.042728], [-59.312322, -35.042907], [-59.378809, -35.076728], [-59.384491, -35.079622], [-59.384698, -35.07976], [-59.38477, -35.079852], [-59.38482, -35.080531], [-59.384891, -35.080659], [-59.385027, -35.080752], [-59.396703, -35.083926], [-59.397388, -35.084097], [-59.397712, -35.084155], [-59.398016, -35.084183], [-59.398454, -35.084155], [-59.404355, -35.083298], [-59.404507, -35.083298], [-59.404698, -35.083336], [-59.445901, -35.10418], [-59.45342, -35.107968], [-59.463708, -35.112384], [-59.479118, -35.118895], [-59.4794, -35.11898], [-59.480614, -35.11923], [-59.491343, -35.121215], [-59.491593, -35.1213], [-59.491778, -35.121415], [-59.498096, -35.127775], [-59.498146, -35.128025], [-59.497792, -35.131356], [-59.497792, -35.131356], [-59.497792, -35.131356]]}}, {"type": "Feature", "properties": {"fid": 2, "es_gap": 0}, "geometry": {"type": "LineString", "coordinates": [[-59.497793, -35.131358], [-59.497788, -35.131526], [-59.497859, -35.131683], [-59.498093, -35.131907], [-59.502062, -35.135251]]}}, {"type": "Feature", "properties": {"fid": 3, "es_gap": 1}, "geometry": {"type": "LineString", "coordinates": [[-59.50194, -35.135148], [-59.520935, -35.150958], [-59.521315, -35.151034], [-59.524064, -35.148863], [-59.524292, -35.148725], [-59.524521, -35.148682], [-59.524711, -35.148731], [-59.555749, -35.174745], [-59.556134, -35.174898], [-59.557203, -35.17573], [-59.557287, -35.175792], [-59.557472, -35.175799], [-59.56843, -35.173599], [-59.569632, -35.173457], [-59.578461, -35.17156], [-59.581264, -35.17074], [-59.581612, -35.170562], [-59.590812, -35.163342], [-59.591121, -35.163201], [-59.591772, -35.163116], [-59.592234, -35.163163], [-59.592513, -35.163275], [-59.592867, -35.163513], [-59.599763, -35.169514], [-59.600053, -35.169665], [-59.600232, -35.169682], [-59.604763, -35.166347], [-59.605165, -35.166188], [-59.605407, -35.166264], [-59.613273, -35.173027], [-59.613438, -35.173119], [-59.613675, -35.173038], [-59.63354, -35.159556], [-59.633591, -35.159534], [-59.633686, -35.159544], [-59.672845, -35.193239], [-59.672914, -35.193443], [-59.672834, -35.193618], [-59.664617, -35.205199], [-59.664415, -35.205368], [-59.662183, -35.206413], [-59.661831, -35.206631], [-59.661356, -35.20709], [-59.65457, -35.215695], [-59.644767, -35.223594], [-59.644503, -35.223871], [-59.644266, -35.224302], [-59.644155, -35.224739], [-59.64248, -35.236396], [-59.642508, -35.236823], [-59.642659, -35.236996], [-59.642965, -35.237183], [-59.646037, -35.238172], [-59.646222, -35.238333], [-59.646216, -35.238452], [-59.646175, -35.238554], [-59.641159, -35.242539], [-59.641089, -35.242685], [-59.641113, -35.242863], [-59.643233, -35.244617], [-59.643323, -35.24474], [-59.643339, -35.245009], [-59.643237, -35.24513], [-59.629919, -35.255434], [-59.630914, -35.261658], [-59.631347, -35.261889], [-59.631365, -35.262755], [-59.631089, -35.262933], [-59.631306, -35.264824], [-59.631389, -35.264895], [-59.63552, -35.264564], [-59.635677, -35.264624], [-59.636942, -35.265744], [-59.637387, -35.265868]]}}, {"type": "Feature", "properties": {"fid": 4, "es_gap": 0}, "geometry": {"type": "LineString", "coordinates": [[-59.637387, -35.265868], [-59.63742, -35.265876], [-59.637913, -35.265859], [-59.639802, -35.265592], [-59.665853, -35.263262], [-59.666177, -35.263237], [-59.667695, -35.263166], [-59.668594, -35.263164], [-59.669837, -35.263223], [-59.686765, -35.265095], [-59.687075, -35.26518], [-59.687277, -35.265269], [-59.688145, -35.265856], [-59.688413, -35.266018], [-59.688542, -35.266088], [-59.688741, -35.266127], [-59.688926, -35.26613], [-59.691024, -35.265638], [-59.691377, -35.265607], [-59.691758, -35.265608], [-59.751436, -35.272228], [-59.755376, -35.272666], [-59.757157, -35.272878], [-59.758469, -35.273047], [-59.762288, -35.273661], [-59.76423, -35.273993], [-59.764916, -35.274082], [-59.770948, -35.27388], [-59.770932, -35.273109], [-59.780462, -35.272749], [-59.780543, -35.272712], [-59.78075, -35.272303], [-59.780854, -35.272212], [-59.781039, -35.27214], [-59.781352, -35.272098], [-59.781848, -35.272048], [-59.789082, -35.271712], [-59.804462, -35.271153], [-59.805003, -35.271133], [-59.806238, -35.271136], [-59.807158, -35.27117], [-59.807715, -35.271209], [-59.810491, -35.271536], [-59.815224, -35.27234], [-59.857105, -35.279939], [-59.860026, -35.280627], [-59.86242, -35.280878], [-59.863308, -35.281059], [-59.865032, -35.28159], [-59.883959, -35.288439], [-59.884341, -35.288495], [-59.885275, -35.288273], [-59.885632, -35.288296], [-59.92745, -35.303707], [-59.927839, -35.303931], [-59.927909, -35.304167], [-59.92783, -35.30444], [-59.927836, -35.304727], [-59.927949, -35.304799], [-59.928202, -35.304868], [-59.928734, -35.304962], [-59.941974, -35.30989], [-59.942919, -35.310278], [-59.943851, -35.310739], [-59.945611, -35.31175], [-59.946319, -35.31236], [-59.946911, -35.313005], [-59.948587, -35.315335], [-59.952432, -35.318742], [-59.954408, -35.320411], [-59.95484, -35.320705], [-59.957408, -35.322043], [-59.95795, -35.32244], [-59.966887, -35.330245], [-59.96707, -35.330357], [-59.96725, -35.330361], [-59.967446, -35.33029], [-59.967572, -35.330225], [-59.967769, -35.330195], [-59.968006, -35.33027], [-60.003248, -35.361208], [-60.004708, -35.362104], [-60.007243, -35.363368], [-60.011199, -35.364933], [-60.037836, -35.37377], [-60.038504, -35.373922], [-60.039747, -35.373791], [-60.041534, -35.373833], [-60.046112, -35.376382], [-60.047096, -35.376848], [-60.048407, -35.377318], [-60.048679, -35.377462], [-60.048983, -35.378068], [-60.049195, -35.37825], [-60.103883, -35.396468], [-60.10684, -35.39713], [-60.123051, -35.399772], [-60.125515, -35.400689], [-60.127419, -35.401891], [-60.143287, -35.41555]]}}, {"type": "Feature", "properties": {"fid": 5, "es_gap": 1}, "geometry": {"type": "LineString", "coordinates": [[-60.143368, -35.415619], [-60.15331, -35.424154], [-60.155061, -35.425146], [-60.15539, -35.425736], [-60.165915, -35.424736], [-60.166899, -35.424733], [-60.167338, -35.424967], [-60.168659, -35.424842], [-60.169747, -35.424549], [-60.170724, -35.424443], [-60.171281, -35.424157], [-60.180152, -35.423291], [-60.180355, -35.423095], [-60.179749, -35.418795], [-60.179764, -35.418702], [-60.185584, -35.418099], [-60.185995, -35.418032], [-60.196502, -35.41568], [-60.197634, -35.41555], [-60.199146, -35.415799], [-60.200045, -35.416235], [-60.22422, -35.436949]]}}, {"type": "Feature", "properties": {"fid": 6, "es_gap": 0}, "geometry": {"type": "LineString", "coordinates": [[-60.224241, -35.436967], [-60.226245, -35.436337], [-60.226718, -35.436222], [-60.227335, -35.436229], [-60.234634, -35.438851], [-60.235028, -35.438963], [-60.235314, -35.438989], [-60.235981, -35.438826], [-60.240879, -35.436929], [-60.241735, -35.436704], [-60.246994, -35.4357], [-60.247634, -35.435624], [-60.253629, -35.436197], [-60.264195, -35.439655], [-60.26452, -35.439879], [-60.265996, -35.441109], [-60.266262, -35.441256], [-60.26668, -35.441421], [-60.277249, -35.444427], [-60.282667, -35.447107], [-60.285507, -35.448683], [-60.286448, -35.449098], [-60.287055, -35.449312], [-60.287579, -35.449439], [-60.291118, -35.449839], [-60.291971, -35.450024], [-60.292924, -35.450378], [-60.297006, -35.452127], [-60.305029, -35.45629], [-60.305992, -35.456611], [-60.30748, -35.456927], [-60.31285, -35.457454], [-60.313433, -35.457555], [-60.319529, -35.459457], [-60.320151, -35.459505], [-60.336897, -35.45906], [-60.337271, -35.459087], [-60.337796, -35.459258], [-60.342784, -35.462009], [-60.34307, -35.462094], [-60.343288, -35.462107], [-60.343932, -35.462072], [-60.34434, -35.462032], [-60.351303, -35.461138], [-60.352763, -35.461139], [-60.353673, -35.461238], [-60.354654, -35.461433], [-60.35703, -35.462097], [-60.361148, -35.462365], [-60.362837, -35.462696], [-60.365236, -35.462718], [-60.367821, -35.462551], [-60.368692, -35.462616], [-60.369725, -35.462726], [-60.373486, -35.462974], [-60.374701, -35.462668], [-60.384094, -35.462135], [-60.386327, -35.461804], [-60.386898, -35.46176], [-60.392008, -35.461924], [-60.395264, -35.462376], [-60.421946, -35.46523], [-60.422307, -35.46524], [-60.422681, -35.465191], [-60.42368, -35.464927], [-60.423922, -35.464914], [-60.42421, -35.464954], [-60.424319, -35.464981], [-60.427967, -35.466704], [-60.428452, -35.466846], [-60.432747, -35.467726], [-60.438659, -35.469673], [-60.439163, -35.469915], [-60.439859, -35.470377], [-60.456182, -35.484569], [-60.456808, -35.485007], [-60.457579, -35.485106], [-60.485036, -35.485898], [-60.486201, -35.486185], [-60.486897, -35.486467], [-60.487999, -35.48677], [-60.494324, -35.487027], [-60.498511, -35.487175], [-60.500603, -35.487239], [-60.502207, -35.487924], [-60.503883, -35.488865], [-60.506081, -35.489709], [-60.506766, -35.490075], [-60.505832, -35.489597], [-60.507443, -35.490436], [-60.507596, -35.490514], [-60.507806, -35.490544], [-60.508207, -35.49054], [-60.508655, -35.49044], [-60.509304, -35.490294], [-60.509986, -35.490273], [-60.510182, -35.490325], [-60.511762, -35.490763], [-60.512016, -35.490835], [-60.514128, -35.492372], [-60.517208, -35.494461], [-60.520229, -35.496012], [-60.522644, -35.496596], [-60.524268, -35.496801], [-60.542562, -35.497635], [-60.543577, -35.497475], [-60.544235, -35.496983], [-60.545131, -35.496443], [-60.545453, -35.496465], [-60.546691, -35.496767], [-60.560572, -35.500148], [-60.562003, -35.500531], [-60.565661, -35.502951], [-60.566101, -35.503201], [-60.566833, -35.503382], [-60.567984, -35.503433], [-60.569948, -35.503473], [-60.572216, -35.503028], [-60.573628, -35.503083], [-60.578059, -35.504018], [-60.582796, -35.505021], [-60.586751, -35.506515], [-60.590016, -35.509109], [-60.590717, -35.509832], [-60.634303, -35.547287], [-60.634641, -35.547453], [-60.634874, -35.547366], [-60.69899, -35.497731], [-60.704125, -35.493716], [-60.704486, -35.493494], [-60.70514, -35.493511], [-60.731778, -35.494491], [-60.733002, -35.494594], [-60.735832, -35.49501], [-60.739634, -35.495137], [-60.742875, -35.495249], [-60.747298, -35.495564], [-60.751586, -35.495951], [-60.754388, -35.496076], [-60.754806, -35.496147], [-60.755112, -35.496538], [-60.77447, -35.519892], [-60.775459, -35.520765], [-60.777355, -35.522002], [-60.789419, -35.529268], [-60.789785, -35.52956], [-60.796327, -35.535197], [-60.796731, -35.535443]]}}]}