{
"type": "FeatureCollection",
"name": "rp40_unificada_congaps",
"features": [
{ "type": "Feature", "properties": { "fid": 1, "fuente_geometria": "oficial_provincia", "layer": "Disuelto", "path": "MultiLineString?crs=wkt:GEOGCRS[\"unknown\",DATUM[\"World Geodetic System 1984\",ELLIPSOID[\"WGS 84\",6378137,298.257223563,LENGTHUNIT[\"metre\",1]],ID[\"EPSG\",6326]],PRIMEM[\"Greenwich\",0,ANGLEUNIT[\"degree\",0.0174532925199433],ID[\"EPSG\",8901]],CS[ellipsoidal,2],AXIS[\"longitude\",east,ORDER[1],ANGLEUNIT[\"degree\",0.0174532925199433,ID[\"EPSG\",9122]]],AXIS[\"latitude\",north,ORDER[2],ANGLEUNIT[\"degree\",0.0174532925199433,ID[\"EPSG\",9122]]]]&field=fid:long(0,0)&field=municipi_1:string(80,0)&field=rtn:string(80,0)&field=fdc:string(80,0)&field=sag:string(80,0)&uid={c2ce844c-3406-4a7f-81e1-d20d8f2ab7c0}" }, "geometry": { "type": "LineString", "coordinates": [ [ -60.79675493, -35.53545555 ], [ -60.79657351, -35.53536315 ], [ -60.79626361, -35.53515457 ], [ -60.79480282, -35.53387051 ], [ -60.79242574, -35.53185749 ], [ -60.79042699, -35.53010859 ], [ -60.78974171, -35.52952324 ], [ -60.78939193, -35.52924722 ], [ -60.78709813, -35.52786713 ], [ -60.78333858, -35.52560189 ], [ -60.77877953, -35.52286075 ], [ -60.77623827, -35.52132838 ], [ -60.77541021, -35.52072875 ], [ -60.77485818, -35.52025286 ], [ -60.77444891, -35.51987215 ], [ -60.77419193, -35.51957709 ], [ -60.77215511, -35.51715004 ], [ -60.76893808, -35.51324773 ], [ -60.76716776, -35.51112525 ], [ -60.76472168, -35.5081652 ], [ -60.76180921, -35.50462456 ], [ -60.75928699, -35.50158837 ], [ -60.75692656, -35.4987235 ], [ -60.7549754, -35.49637259 ], [ -60.75483264, -35.49615368 ], [ -60.75462324, -35.49609657 ], [ -60.75419494, -35.4960585 ], [ -60.75202487, -35.49598236 ], [ -60.7510826, -35.49591573 ], [ -60.74886495, -35.49569682 ], [ -60.74660922, -35.49550647 ], [ -60.74465806, -35.49534466 ], [ -60.74236426, -35.49522093 ], [ -60.73830966, -35.4950972 ], [ -60.73632043, -35.49505913 ], [ -60.73556852, -35.49498298 ], [ -60.73446445, -35.49480214 ], [ -60.73345556, -35.49466889 ], [ -60.73289067, -35.4945753 ], [ -60.73199124, -35.49449916 ], [ -60.72892173, -35.4943897 ], [ -60.72461491, -35.49424218 ], [ -60.72005586, -35.49407086 ], [ -60.71549205, -35.49393761 ], [ -60.71148504, -35.49379008 ], [ -60.70871059, -35.49370442 ], [ -60.70592186, -35.49356641 ], [ -60.70464647, -35.49347599 ], [ -60.70447515, -35.49349503 ], [ -60.70437841, -35.4935175 ], [ -60.70187998, -35.49547341 ], [ -60.69901035, -35.49771486 ], [ -60.69482726, -35.50095569 ], [ -60.69137228, -35.50362545 ], [ -60.68750328, -35.50662357 ], [ -60.68257779, -35.51047829 ], [ -60.67889439, -35.51329082 ], [ -60.67765362, -35.51425418 ], [ -60.67418436, -35.51692394 ], [ -60.67167165, -35.51887271 ], [ -60.66899476, -35.5209714 ], [ -60.66566827, -35.5235198 ], [ -60.66234179, -35.52611103 ], [ -60.65975769, -35.52808837 ], [ -60.65666677, -35.53048686 ], [ -60.65337598, -35.53305668 ], [ -60.65104173, -35.53488411 ], [ -60.64830059, -35.53700421 ], [ -60.64481706, -35.53967396 ], [ -60.64238287, -35.5415585 ], [ -60.63795707, -35.54500633 ], [ -60.63495895, -35.54730489 ], [ -60.63475907, -35.54744766 ], [ -60.63459489, -35.5474548 ], [ -60.63443071, -35.54739769 ], [ -60.63213215, -35.54539324 ], [ -60.62823459, -35.54206675 ], [ -60.62273804, -35.53734114 ], [ -60.61961954, -35.53468304 ], [ -60.61618122, -35.5317444 ], [ -60.61177922, -35.52792537 ], [ -60.60649681, -35.52344008 ], [ -60.60228517, -35.51978761 ], [ -60.59762142, -35.51577822 ], [ -60.59384998, -35.51256595 ], [ -60.59142293, -35.51048392 ], [ -60.59031648, -35.50946075 ], [ -60.58995956, -35.50904435 ], [ -60.58719938, -35.50678386 ], [ -60.58660452, -35.50642694 ], [ -60.58429644, -35.50553464 ], [ -60.58297584, -35.50505875 ], [ -60.58148868, -35.50474942 ], [ -60.57568279, -35.5035121 ], [ -60.5730059, -35.50295293 ], [ -60.57249431, -35.50297672 ], [ -60.57191135, -35.5030838 ], [ -60.57075731, -35.50336933 ], [ -60.57010296, -35.50347641 ], [ -60.56716432, -35.50341692 ], [ -60.56671222, -35.50336933 ], [ -60.56610546, -35.50320277 ], [ -60.5654749, -35.50284585 ], [ -60.56428517, -35.50203683 ], [ -60.5619771, -35.50051398 ], [ -60.56171536, -35.50044259 ], [ -60.5591265, -35.49977634 ], [ -60.55858988, -35.49967168 ], [ -60.5453199, -35.4964319 ], [ -60.5450535, -35.496448 ], [ -60.5448343, -35.4965346 ], [ -60.5435765, -35.4974754 ], [ -60.5433111, -35.4975975 ], [ -60.5429632, -35.4976526 ], [ -60.52378, -35.4967791 ], [ -60.5215162, -35.496414 ], [ -60.5202288, -35.4960122 ], [ -60.5164672, -35.49408 ], [ -60.5131692, -35.4916708 ], [ -60.5120105, -35.4908322 ], [ -60.5099935, -35.4902731 ], [ -60.5093175, -35.4902906 ], [ -60.508191, -35.4905439 ], [ -60.507845, -35.4905496 ], [ -60.5075847, -35.4905116 ], [ -60.5059594, -35.4896442 ], [ -60.5039317, -35.4888929 ], [ -60.5029463, -35.4883303 ], [ -60.5019683, -35.4877922 ], [ -60.5011844, -35.487473 ], [ -60.5010242, -35.4874078 ], [ -60.500812, -35.4873211 ], [ -60.5006149, -35.4872405 ], [ -60.5003681, -35.4872231 ], [ -60.4980185, -35.4871619 ], [ -60.4948213, -35.4870396 ], [ -60.4898075, -35.4869113 ], [ -60.4881265, -35.4868037 ], [ -60.4873647, -35.4866028 ], [ -60.4867913, -35.4864364 ], [ -60.486503, -35.4863204 ], [ -60.4860022, -35.4860961 ], [ -60.4852402, -35.4859037 ], [ -60.4570724, -35.485091 ], [ -60.4568894, -35.4850425 ], [ -60.4567398, -35.4849775 ], [ -60.4563629, -35.4847284 ], [ -60.4519226, -35.4808364 ], [ -60.446483, -35.4760574 ], [ -60.4399178, -35.4704184 ], [ -60.4395168, -35.470136 ], [ -60.4392008, -35.4699346 ], [ -60.4390132, -35.4698347 ], [ -60.4388907, -35.4697694 ], [ -60.4386587, -35.4696728 ], [ -60.4383945, -35.469593 ], [ -60.4328058, -35.4677381 ], [ -60.4284104, -35.4668369 ], [ -60.4279877, -35.4667139 ], [ -60.4277124, -35.4665862 ], [ -60.425098, -35.4653275 ], [ -60.4242953, -35.4649696 ], [ -60.4240109, -35.4649172 ], [ -60.4237535, -35.4649084 ], [ -60.422678, -35.4651923 ], [ -60.4223319, -35.4652405 ], [ -60.4219671, -35.4652318 ], [ -60.4012103, -35.4630079 ], [ -60.3953526, -35.4623877 ], [ -60.3919912, -35.4619219 ], [ -60.3869263, -35.4617579 ], [ -60.3863562, -35.4618002 ], [ -60.3841353, -35.4621327 ], [ -60.3751993, -35.4626203 ], [ -60.3746711, -35.4626713 ], [ -60.3735104, -35.4629762 ], [ -60.369643, -35.4627208 ], [ -60.368429, -35.4625867 ], [ -60.367847, -35.462549 ], [ -60.3651941, -35.4627209 ], [ -60.362837, -35.4626962 ], [ -60.361152, -35.4623647 ], [ -60.3570298, -35.4620965 ], [ -60.354631, -35.4614272 ], [ -60.3535899, -35.4612224 ], [ -60.3527094, -35.4611343 ], [ -60.3513646, -35.4611303 ], [ -60.3443411, -35.4620315 ], [ -60.3438404, -35.4620807 ], [ -60.343283, -35.4621068 ], [ -60.3430624, -35.4620929 ], [ -60.3427852, -35.4620098 ], [ -60.3381312, -35.45944 ], [ -60.3378135, -35.4592646 ], [ -60.3375363, -35.4591548 ], [ -60.3372937, -35.459089 ], [ -60.3369257, -35.4590592 ], [ -60.328164, -35.4593142 ], [ -60.3241492, -35.4594015 ], [ -60.3204112, -35.4595067 ], [ -60.319914, -35.4595031 ], [ -60.319563, -35.4594664 ], [ -60.3192645, -35.4593839 ], [ -60.31669224, -35.45855305 ], [ -60.3145237, -35.4578526 ], [ -60.3140421, -35.4577109 ], [ -60.3134308, -35.4575543 ], [ -60.3128998, -35.4574593 ], [ -60.3075265, -35.4569371 ], [ -60.3073602, -35.4569018 ], [ -60.305991, -35.4566114 ], [ -60.3050931, -35.4563206 ], [ -60.3043771, -35.4559738 ], [ -60.2969331, -35.4520891 ], [ -60.2962973, -35.4517958 ], [ -60.2926426, -35.4502605 ], [ -60.2920274, -35.450039 ], [ -60.2915407, -35.4499091 ], [ -60.2908739, -35.4497989 ], [ -60.2880604, -35.4495068 ], [ -60.2874628, -35.4494228 ], [ -60.2868973, -35.449269 ], [ -60.2861662, -35.4489901 ], [ -60.285348, -35.4486086 ], [ -60.283109, -35.4473382 ], [ -60.282452, -35.4469948 ], [ -60.2794829, -35.445596 ], [ -60.2787991, -35.4452733 ], [ -60.2772564, -35.444429 ], [ -60.2766101, -35.4442312 ], [ -60.2667147, -35.4414344 ], [ -60.2663036, -35.4412789 ], [ -60.265925, -35.4410704 ], [ -60.2644791, -35.4398442 ], [ -60.2642331, -35.4396698 ], [ -60.2639702, -35.4395647 ], [ -60.2542127, -35.4363507 ], [ -60.2536604, -35.4362 ], [ -60.2506701, -35.43587383 ], [ -60.24857123, -35.43568167 ], [ -60.24759565, -35.43562219 ], [ -60.24702458, -35.43569357 ], [ -60.24173028, -35.43670484 ], [ -60.24082608, -35.43694279 ], [ -60.23729258, -35.43832287 ], [ -60.23571024, -35.43892964 ], [ -60.23531763, -35.43898912 ], [ -60.23491312, -35.43895343 ], [ -60.23261694, -35.43810872 ], [ -60.22786992, -35.43637172 ], [ -60.22733454, -35.43622895 ], [ -60.22684675, -35.43619326 ], [ -60.22632327, -35.43631223 ], [ -60.224101885706567, -35.436961163982993 ], [ -60.201107505526664, -35.417139381549099 ], [ -60.200106250367547, -35.416264766470675 ], [ -60.199145668514269, -35.415799005775114 ], [ -60.197634371802216, -35.415550334791909 ], [ -60.196510085747292, -35.415677936432587 ], [ -60.192201478279721, -35.416543733694418 ], [ -60.186757948335362, -35.417836625530192 ], [ -60.185964595917014, -35.418039925629557 ], [ -60.185164011726101, -35.418164483742935 ], [ -60.179735624325701, -35.418704814788299 ], [ -60.18035592012901, -35.423102841672126 ], [ -60.180183965227819, -35.423287599253896 ], [ -60.171294341725165, -35.42415000531642 ], [ -60.170723999861934, -35.424442905453454 ], [ -60.169772603701517, -35.424541610857922 ], [ -60.168663024172169, -35.42484174906825 ], [ -60.167338961920144, -35.424966918985191 ], [ -60.166862636459939, -35.424714431249363 ], [ -60.165982429542282, -35.424728626136627 ], [ -60.159988516688884, -35.425340373525458 ], [ -60.155389808419393, -35.42573583508959 ], [ -60.155134992368005, -35.425187677858531 ], [ -60.153253540174504, -35.424122319546399 ], [ -60.143196791699907, -35.415471633791277 ], [ -60.129487368510524, -35.403547239702256 ], [ -60.126683216847979, -35.401302439343802 ], [ -60.124980509817682, -35.40040872139835 ], [ -60.123162263008915, -35.399790980975055 ], [ -60.116596104564536, -35.398679828155537 ], [ -60.107181915746331, -35.397205106093402 ], [ -60.104011438394679, -35.396511097118491 ], [ -60.0854034, -35.3902932 ], [ -60.059377467269634, -35.381628281190672 ], [ -60.0576464, -35.3810301 ], [ -60.0492272, -35.3782699 ], [ -60.0490723, -35.3781721 ], [ -60.0489633, -35.3780454 ], [ -60.0488539, -35.377766 ], [ -60.0487484, -35.3775384 ], [ -60.0486568, -35.377437 ], [ -60.048544, -35.3773674 ], [ -60.0470393, -35.3768279 ], [ -60.046315, -35.3764993 ], [ -60.0420851, -35.3740514 ], [ -60.0416364, -35.3738493 ], [ -60.041192, -35.3737809 ], [ -60.0403132, -35.3737545 ], [ -60.0397777, -35.3737868 ], [ -60.03955109, -35.37381639 ], [ -60.0390103, -35.373887 ], [ -60.0385142, -35.3739227 ], [ -60.0381136, -35.3738677 ], [ -60.0377376, -35.3737364 ], [ -60.0291951, -35.3708793 ], [ -60.0169545, -35.3667264 ], [ -60.0112007, -35.3649345 ], [ -60.0077125, -35.3635926 ], [ -60.0050612, -35.3623208 ], [ -60.0031224, -35.3611312 ], [ -60.0013171, -35.3596009 ], [ -59.9991374, -35.357753 ], [ -59.9891021, -35.3488719 ], [ -59.9888627, -35.3486544 ], [ -59.9887992, -35.3485985 ], [ -59.9830196, -35.3435096 ], [ -59.9753832, -35.3367839 ], [ -59.968357, -35.330572 ], [ -59.9680214, -35.3302752 ], [ -59.967798, -35.3301929 ], [ -59.9676005, -35.3302076 ], [ -59.9674917, -35.3302719 ], [ -59.967262, -35.3303595 ], [ -59.9671026, -35.3303753 ], [ -59.9669293, -35.3302818 ], [ -59.9595094, -35.3237885 ], [ -59.9591985, -35.323522 ], [ -59.9579586, -35.3224471 ], [ -59.9574663, -35.3220735 ], [ -59.9562542, -35.3214373 ], [ -59.9550047, -35.3208111 ], [ -59.9544717, -35.3204694 ], [ -59.9538998, -35.3199547 ], [ -59.952372, -35.3186921 ], [ -59.9508346, -35.3173464 ], [ -59.9496857, -35.316281 ], [ -59.9491771, -35.3158245 ], [ -59.94855447, -35.31530787 ], [ -59.94800482, -35.31455834 ], [ -59.94723387, -35.31343047 ], [ -59.94696261, -35.31306641 ], [ -59.94662971, -35.31267485 ], [ -59.94622022, -35.31225978 ], [ -59.9456622, -35.3117799 ], [ -59.9440059, -35.3108177 ], [ -59.943127, -35.3103691 ], [ -59.942405, -35.3100517 ], [ -59.9414501, -35.3096932 ], [ -59.93339528, -35.30667935 ], [ -59.92879379, -35.30497363 ], [ -59.92852907, -35.30492009 ], [ -59.92833277, -35.30489035 ], [ -59.92814241, -35.30485763 ], [ -59.92797858, -35.30481147 ], [ -59.9278786, -35.3047716 ], [ -59.9278402, -35.3047368 ], [ -59.9278178, -35.3046853 ], [ -59.9277998, -35.3045787 ], [ -59.927826, -35.3044488 ], [ -59.9278949, -35.3042853 ], [ -59.9279183, -35.3040897 ], [ -59.9278678, -35.3039537 ], [ -59.9277355, -35.3038475 ], [ -59.9275339, -35.3037356 ], [ -59.9257117, -35.3031028 ], [ -59.9204072, -35.3011351 ], [ -59.9133895, -35.2985547 ], [ -59.9067879, -35.2961114 ], [ -59.8974151, -35.2926424 ], [ -59.8890798, -35.2895926 ], [ -59.885665, -35.2883 ], [ -59.8854506, -35.2882747 ], [ -59.8852618, -35.2882729 ], [ -59.8848405, -35.2883932 ], [ -59.8843803, -35.2884975 ], [ -59.8841735, -35.288488 ], [ -59.883939, -35.2884339 ], [ -59.8825028, -35.2879345 ], [ -59.8648948, -35.2815403 ], [ -59.8643014, -35.2813535 ], [ -59.8633041, -35.2810575 ], [ -59.8627449, -35.280942 ], [ -59.8624311, -35.2808786 ], [ -59.8606851, -35.2807197 ], [ -59.8600957, -35.2806436 ], [ -59.859581, -35.2805217 ], [ -59.8570882, -35.2799348 ], [ -59.8558763, -35.2796952 ], [ -59.8549611, -35.2795303 ], [ -59.8435969, -35.2774823 ], [ -59.8413471, -35.2770898 ], [ -59.83762471, -35.27641326 ], [ -59.8353559, -35.2760009 ], [ -59.8302709, -35.2750766 ], [ -59.8288482, -35.2748245 ], [ -59.824808, -35.2741085 ], [ -59.8232525, -35.2738226 ], [ -59.822657, -35.2737132 ], [ -59.8183496, -35.2729036 ], [ -59.8152117, -35.272338 ], [ -59.8112578, -35.2716439 ], [ -59.8097052, -35.2714252 ], [ -59.8087638, -35.2713144 ], [ -59.8077219, -35.2712086 ], [ -59.8071453, -35.2711688 ], [ -59.8062198, -35.2711349 ], [ -59.8050291, -35.2711319 ], [ -59.7891351, -35.2717089 ], [ -59.7869998, -35.27183363 ], [ -59.78185303, -35.27204778 ], [ -59.7812994, -35.27210293 ], [ -59.78102814, -35.2721422 ], [ -59.78086039, -35.27220644 ], [ -59.78074974, -35.27230281 ], [ -59.78064624, -35.27250625 ], [ -59.780593483859974, -35.272626144495042 ], [ -59.780560026040988, -35.272690600603013 ], [ -59.780525615343095, -35.272734376515068 ], [ -59.78048019254603, -35.272747528320174 ], [ -59.77945472, -35.27281796 ], [ -59.77735187, -35.27290719 ], [ -59.77531149, -35.27298452 ], [ -59.77332761, -35.27305293 ], [ -59.771101165988519, -35.273102359410231 ], [ -59.770923632709426, -35.273108640499956 ], [ -59.7709303, -35.27327006 ], [ -59.77094815, -35.27365672 ], [ -59.770952727070622, -35.273880415345701 ], [ -59.770829643351298, -35.273891762192662 ], [ -59.76973070292955, -35.273944377047592 ], [ -59.768348232929554, -35.273996727047596 ], [ -59.766477742929553, -35.274065727047592 ], [ -59.765495496972598, -35.27408652102261 ], [ -59.765265522035065, -35.274088499412976 ], [ -59.764986130135824, -35.274089611286897 ], [ -59.764334788277573, -35.27401059333566 ], [ -59.760344488277575, -35.273329093335661 ], [ -59.760008888277575, -35.273278293335665 ], [ -59.758542088277572, -35.273056493335666 ], [ -59.758324388277572, -35.273028493335666 ], [ -59.756306688277576, -35.272769193335662 ], [ -59.725192288277576, -35.269313093335661 ], [ -59.692221488277575, -35.265650693335665 ], [ -59.691771188277571, -35.265608393335661 ], [ -59.691396488277576, -35.265604993335664 ], [ -59.691026288277577, -35.265637193335664 ], [ -59.690639088277571, -35.265728193335661 ], [ -59.689271788277573, -35.26604969333566 ], [ -59.688919788277573, -35.26613119333566 ], [ -59.688741588277573, -35.266126593335663 ], [ -59.6885436, -35.2660893 ], [ -59.688419, -35.2660218 ], [ -59.6881384, -35.2658519 ], [ -59.6874883, -35.2654061 ], [ -59.6872564, -35.2652548 ], [ -59.6870676, -35.2651769 ], [ -59.6867787, -35.2650971 ], [ -59.6860673, -35.264992 ], [ -59.6791933, -35.2642455 ], [ -59.6704486, -35.2632776 ], [ -59.6697977, -35.2632194 ], [ -59.6686245, -35.2631641 ], [ -59.6677431, -35.263164 ], [ -59.6669583, -35.2631901 ], [ -59.6660191, -35.2632471 ], [ -59.6629041, -35.2635203 ], [ -59.6590078, -35.2638686 ], [ -59.6457948, -35.2650547 ], [ -59.6416836, -35.2654322 ], [ -59.6404454, -35.2655319 ], [ -59.6397772, -35.2655943 ], [ -59.6391185, -35.2656872 ], [ -59.6379116, -35.2658592 ], [ -59.637424021360005, -35.265877290037693 ], [ -59.63697752, -35.26577527 ], [ -59.63600109, -35.26491397 ], [ -59.63567272, -35.26462129 ], [ -59.63553709, -35.26456419 ], [ -59.6354086, -35.26456419 ], [ -59.63526583, -35.26457132 ], [ -59.63485181, -35.26460702 ], [ -59.63256752, -35.26482117 ], [ -59.63148249, -35.26489969 ], [ -59.63136114, -35.26489255 ], [ -59.63131117, -35.26484972 ], [ -59.63128975, -35.26474978 ], [ -59.63118268, -35.26388604 ], [ -59.6310756, -35.26307226 ], [ -59.63108988, -35.26292236 ], [ -59.63111843, -35.2628367 ], [ -59.63118982, -35.26279387 ], [ -59.63124692, -35.26277959 ], [ -59.63133972, -35.26277245 ], [ -59.63138969, -35.26273676 ], [ -59.63141824, -35.2626511 ], [ -59.63141824, -35.26255116 ], [ -59.63136828, -35.26200151 ], [ -59.63133258, -35.26180877 ], [ -59.63124692, -35.2617588 ], [ -59.63112557, -35.26173739 ], [ -59.63099708, -35.26170883 ], [ -59.63090428, -35.26165173 ], [ -59.6308329, -35.26145185 ], [ -59.63061161, -35.25990996 ], [ -59.63056164, -35.25956018 ], [ -59.63039032, -35.25772562 ], [ -59.63009051, -35.25600526 ], [ -59.63001912, -35.25568404 ], [ -59.62991918, -35.25554127 ], [ -59.62991918, -35.25543419 ], [ -59.63024041, -35.2551558 ], [ -59.63272457, -35.25322843 ], [ -59.63544429, -35.25113689 ], [ -59.63784993, -35.24929518 ], [ -59.64051968, -35.24720364 ], [ -59.64326082, -35.24511209 ], [ -59.64333934, -35.24501215 ], [ -59.64334648, -35.24490508 ], [ -59.64333221, -35.24475517 ], [ -59.6432751, -35.24465524 ], [ -59.64313233, -35.24452674 ], [ -59.64144053, -35.24317045 ], [ -59.64112645, -35.24289919 ], [ -59.64108362, -35.24277784 ], [ -59.64108362, -35.24269932 ], [ -59.64111931, -35.24259224 ], [ -59.64120156, -35.24248223 ], [ -59.64316461, -35.24094748 ], [ -59.64589147, -35.23880597 ], [ -59.64616273, -35.23858468 ], [ -59.64622698, -35.23842049 ], [ -59.64621984, -35.23829914 ], [ -59.64607707, -35.23818493 ], [ -59.64295046, -35.23717841 ], [ -59.64275772, -35.23707134 ], [ -59.64260782, -35.23695712 ], [ -59.64250074, -35.23681436 ], [ -59.64247933, -35.23665731 ], [ -59.64247933, -35.23640033 ], [ -59.64260782, -35.23536526 ], [ -59.64296474, -35.23286683 ], [ -59.64339304, -35.22967597 ], [ -59.64374996, -35.22720609 ], [ -59.64413543, -35.22482187 ], [ -59.64425679, -35.22432219 ], [ -59.64439241, -35.22403665 ], [ -59.64450663, -35.22386533 ], [ -59.64473506, -35.22362025 ], [ -59.64553456, -35.22298255 ], [ -59.64871352, -35.22042225 ], [ -59.65147369, -35.21821411 ], [ -59.65374846, -35.21638668 ], [ -59.65459554, -35.21567285 ], [ -59.65498577, -35.21520647 ], [ -59.6555854, -35.21442601 ], [ -59.6573462, -35.21221787 ], [ -59.65929736, -35.20969564 ], [ -59.66073455, -35.20784918 ], [ -59.66141984, -35.20701161 ], [ -59.66180055, -35.20664993 ], [ -59.6622003, -35.20640247 ], [ -59.66286655, -35.20608838 ], [ -59.6644251, -35.20536264 ], [ -59.66459166, -35.20523177 ], [ -59.66480581, -35.20494624 ], [ -59.66629297, -35.20286421 ], [ -59.66888659, -35.19918794 ], [ -59.67080443, -35.19649915 ], [ -59.67279366, -35.19368187 ], [ -59.67288884, -35.19352958 ], [ -59.67292691, -35.19339633 ], [ -59.67289836, -35.19329164 ], [ -59.67277463, -35.1931679 ], [ -59.67225114, -35.19270153 ], [ -59.66910074, -35.18997943 ], [ -59.66586467, -35.18722877 ], [ -59.66229548, -35.18414499 ], [ -59.65955434, -35.18177504 ], [ -59.65626117, -35.1789768 ], [ -59.65270149, -35.1758835 ], [ -59.65235992, -35.17559188 ], [ -59.64990325, -35.17349452 ], [ -59.64645779, -35.17051543 ], [ -59.64319317, -35.16770767 ], [ -59.63974771, -35.16476666 ], [ -59.63742416, -35.16277862 ], [ -59.6346283, -35.16038131 ], [ -59.63377161, -35.15960507 ], [ -59.63369428, -35.15954558 ], [ -59.63361346, -35.15952623 ], [ -59.63354556, -35.15955153 ], [ -59.63345038, -35.15961102 ], [ -59.63056648, -35.16160262 ], [ -59.62797762, -35.16336771 ], [ -59.62642621, -35.16443371 ], [ -59.62467017, -35.1656282 ], [ -59.62281419, -35.16691786 ], [ -59.62096773, -35.16816946 ], [ -59.61920217, -35.16937823 ], [ -59.61730336, -35.17067265 ], [ -59.61563298, -35.17173865 ], [ -59.61366754, -35.1730426 ], [ -59.61357237, -35.17309019 ], [ -59.61350574, -35.17311874 ], [ -59.61342484, -35.17311874 ], [ -59.61337225, -35.17311017 ], [ -59.61084527, -35.17099007 ], [ -59.60804702, -35.16856302 ], [ -59.60584126, -35.16665708 ], [ -59.60539154, -35.16625019 ], [ -59.60519167, -35.16618594 ], [ -59.60502035, -35.16620022 ], [ -59.60489185, -35.16625019 ], [ -59.6031715, -35.16754223 ], [ -59.60050889, -35.16953384 ], [ -59.60027332, -35.16967661 ], [ -59.60015197, -35.16969089 ], [ -59.59998779, -35.16964806 ], [ -59.59980933, -35.16955526 ], [ -59.5976107, -35.16759934 ], [ -59.59504089, -35.1653793 ], [ -59.59289223, -35.16353046 ], [ -59.59252818, -35.16328062 ], [ -59.59220695, -35.16315213 ], [ -59.59188572, -35.1631093 ], [ -59.59152166, -35.16313071 ], [ -59.59113619, -35.16319496 ], [ -59.59084114, -35.16332107 ], [ -59.59041283, -35.16362564 ], [ -59.58973707, -35.16417768 ], [ -59.58788109, -35.16560535 ], [ -59.58549211, -35.16750892 ], [ -59.58372179, -35.16890805 ], [ -59.58160883, -35.17056415 ], [ -59.58140895, -35.17067836 ], [ -59.58107583, -35.17082113 ], [ -59.58030488, -35.17105908 ], [ -59.57853457, -35.17154449 ], [ -59.57436575, -35.1724582 ], [ -59.5722052, -35.17291506 ], [ -59.56962586, -35.17345757 ], [ -59.56891202, -35.17353372 ], [ -59.56842661, -35.17360034 ], [ -59.56561885, -35.1741619 ], [ -59.56334409, -35.17463779 ], [ -59.56000332, -35.17531355 ], [ -59.55751917, -35.17579896 ], [ -59.55733833, -35.17579896 ], [ -59.55726218, -35.17578945 ], [ -59.55716701, -35.17569427 ], [ -59.55702424, -35.17557054 ], [ -59.55676726, -35.17536114 ], [ -59.55640558, -35.17508513 ], [ -59.55612956, -35.17489477 ], [ -59.55592731, -35.17481625 ], [ -59.55574885, -35.17474486 ], [ -59.55546331, -35.17451881 ], [ -59.55335749, -35.17274612 ], [ -59.55094234, -35.17066409 ], [ -59.54866995, -35.16877242 ], [ -59.54719468, -35.16754699 ], [ -59.54513346, -35.16581062 ], [ -59.54202826, -35.16319321 ], [ -59.54179032, -35.16299096 ], [ -59.53941086, -35.1610517 ], [ -59.53912532, -35.16075426 ], [ -59.53881599, -35.16042114 ], [ -59.53704329, -35.15896967 ], [ -59.53455676, -35.15689954 ], [ -59.53059495, -35.15356829 ], [ -59.52716853, -35.15076053 ], [ -59.52476527, -35.14874988 ], [ -59.52456302, -35.1486785 ], [ -59.52438456, -35.1486904 ], [ -59.52428938, -35.14872609 ], [ -59.52408713, -35.14884506 ], [ -59.52131505, -35.15103417 ], [ -59.52121988, -35.15104606 ], [ -59.5211128, -35.15104606 ], [ -59.52097003, -35.15098658 ], [ -59.51654424, -35.14731031 ], [ -59.51251105, -35.14395527 ], [ -59.51029815, -35.1420636 ], [ -59.50668613, -35.13906548 ], [ -59.50373084, -35.1365956 ], [ -59.50171781, -35.13493949 ], [ -59.49874825, -35.13242678 ], [ -59.49793447, -35.1317415 ], [ -59.49783453, -35.13152734 ], [ -59.4977917, -35.13135602 ], [ -59.49780598, -35.13101338 ], [ -59.49805285, -35.12910267 ], [ -59.49814565, -35.12802478 ], [ -59.49809568, -35.12777493 ], [ -59.49667514, -35.12632584 ], [ -59.49424095, -35.12387738 ], [ -59.49286324, -35.12250681 ], [ -59.49177821, -35.12141464 ], [ -59.49159261, -35.12130042 ], [ -59.49134277, -35.12121476 ], [ -59.48883006, -35.1207579 ], [ -59.48598184, -35.12022966 ], [ -59.48362618, -35.11979422 ], [ -59.48061378, -35.11923029 ], [ -59.47940025, -35.11898045 ], [ -59.47911784, -35.11889468 ], [ -59.47790908, -35.11840927 ], [ -59.47393062, -35.11670557 ], [ -59.47105623, -35.11548729 ], [ -59.46774402, -35.11409768 ], [ -59.46370845, -35.11238447 ], [ -59.45852123, -35.11019537 ], [ -59.45341966, -35.10796819 ], [ -59.45063093, -35.10657859 ], [ -59.44590057, -35.10418009 ], [ -59.44100839, -35.1016769 ], [ -59.44051241, -35.1014294 ], [ -59.43622092, -35.09928792 ], [ -59.43096707, -35.09660389 ], [ -59.4281593, -35.09518573 ], [ -59.42573225, -35.09396744 ], [ -59.42158247, -35.09185448 ], [ -59.42012624, -35.09113113 ], [ -59.41946951, -35.09077897 ], [ -59.41705198, -35.08956068 ], [ -59.41257859, -35.08730495 ], [ -59.40771498, -35.08483983 ], [ -59.40469782, -35.08333601 ], [ -59.40450746, -35.08329794 ], [ -59.40435518, -35.08329794 ], [ -59.40379362, -35.08335505 ], [ -59.39845411, -35.08415455 ], [ -59.39801629, -35.0841831 ], [ -59.39771172, -35.08415455 ], [ -59.39738811, -35.08409744 ], [ -59.39670283, -35.08392612 ], [ -59.39182018, -35.08259362 ], [ -59.3873111, -35.08140865 ], [ -59.38502681, -35.08075192 ], [ -59.38489119, -35.08065912 ], [ -59.3848198, -35.08053063 ], [ -59.38479125, -35.08040928 ], [ -59.38477697, -35.08021654 ], [ -59.38477697, -35.07997383 ], [ -59.38476983, -35.07985248 ], [ -59.38469845, -35.07975968 ], [ -59.38449144, -35.07962167 ], [ -59.37880928, -35.07672825 ], [ -59.37354354, -35.07407753 ], [ -59.36864185, -35.07156482 ], [ -59.36277885, -35.06866188 ], [ -59.35921918, -35.06684397 ], [ -59.35600215, -35.06514979 ], [ -59.35266139, -35.06350083 ], [ -59.34839977, -35.06137359 ], [ -59.34411674, -35.05921066 ], [ -59.33936258, -35.05681216 ], [ -59.3361622, -35.05515917 ], [ -59.33373753, -35.05390684 ], [ -59.32988281, -35.05192951 ], [ -59.32510009, -35.04948104 ], [ -59.32193065, -35.04784635 ], [ -59.3174763, -35.04557635 ], [ -59.31409984, -35.04384172 ], [ -59.31232238, -35.04290659 ], [ -59.31224386, -35.04282093 ], [ -59.3121582, -35.04272813 ], [ -59.31213679, -35.0425925 ], [ -59.31213679, -35.04247115 ], [ -59.31217962, -35.04230697 ], [ -59.31275783, -35.04120765 ], [ -59.31282207, -35.04097209 ], [ -59.31277924, -35.04085074 ], [ -59.31267216, -35.04076508 ], [ -59.31063059, -35.03975142 ], [ -59.30646891, -35.03766702 ], [ -59.30272126, -35.03586814 ], [ -59.30090097, -35.03490446 ], [ -59.30048694, -35.03458324 ], [ -59.29967317, -35.0339622 ], [ -59.29923773, -35.03367666 ], [ -59.29646804, -35.03230609 ], [ -59.294519467819974, -35.031298477859771 ], [ -59.294338475328203, -35.031062514335154 ], [ -59.294350379271094, -35.030847524086539 ], [ -59.294921695091126, -35.029983059342619 ], [ -59.294922893680187, -35.029980125606627 ], [ -59.294924029912842, -35.029977175129972 ], [ -59.294925103443774, -35.029974208809286 ], [ -59.294926113946758, -35.029971227546092 ], [ -59.294927061114677, -35.029968232246361 ], [ -59.294927944659719, -35.029965223820405 ], [ -59.29492876431334, -35.029962203182528 ], [ -59.294929519826482, -35.029959171250688 ], [ -59.294930210969525, -35.029956128946324 ], [ -59.294930837532455, -35.029953077193987 ], [ -59.294931399324831, -35.029950016921141 ], [ -59.294931896175953, -35.029946949057816 ], [ -59.294932327934831, -35.029943874536357 ], [ -59.294932694470255, -35.029940794291122 ], [ -59.294932995670834, -35.029937709258206 ], [ -59.294933231445064, -35.029934620375194 ], [ -59.294933401721259, -35.029931528580782 ], [ -59.294933506447713, -35.0299284348146 ], [ -59.294933545592592, -35.029925340016867 ], [ -59.294933519144003, -35.029922245128098 ], [ -59.294933427109996, -35.029919151088841 ], [ -59.294933269518552, -35.029916058839405 ], [ -59.294933046417562, -35.029912969319525 ], [ -59.294932757874847, -35.029909883468136 ], [ -59.294932403978102, -35.029906802223046 ], [ -59.294931984834875, -35.029903726520651 ], [ -59.294931500572545, -35.029900657295663 ], [ -59.294930951338337, -35.029897595480861 ], [ -59.294930337299114, -35.029894542006737 ], [ -59.294929658641514, -35.029891497801238 ], [ -59.294928915571816, -35.02988846378954 ], [ -59.294928108315823, -35.029885440893665 ], [ -59.294927237118877, -35.029882430032337 ], [ -59.294926302245749, -35.029879432120509 ], [ -59.294925303980541, -35.029876448069288 ], [ -59.294924242626671, -35.029873478785554 ], [ -59.294923118506681, -35.029870525171667 ], [ -59.294921931962179, -35.029867588125263 ], [ -59.294920683353801, -35.029864668538913 ], [ -59.294919373061006, -35.029861767299892 ], [ -59.294918001481996, -35.029858885289883 ], [ -59.294916569033596, -35.029856023384774 ], [ -59.294915076151177, -35.029853182454303 ], [ -59.294913523288393, -35.029850363361831 ], [ -59.294911910917214, -35.029847566964101 ], [ -59.294910239527624, -35.02984479411095 ], [ -59.294908509627575, -35.029842045645054 ], [ -59.294906721742812, -35.029839322401692 ], [ -59.29490487641668, -35.029836625208461 ], [ -59.294902974209975, -35.029833954885056 ], [ -59.294901015700809, -35.029831312243005 ], [ -59.294899001484389, -35.029828698085403 ], [ -59.294896932172811, -35.029826113206717 ], [ -59.294894808395007, -35.029823558392501 ], [ -59.294892630796376, -35.02982103441915 ], [ -59.294890400038703, -35.029818542053746 ], [ -59.294888116799946, -35.029816082053728 ], [ -59.294885781773985, -35.029813655166663 ], [ -59.294883395670439, -35.029811262130117 ], [ -59.294880959214474, -35.029808903671352 ], [ -59.294878473146539, -35.029806580507113 ], [ -59.294875938222155, -35.029804293343389 ], [ -59.294873355211735, -35.029802042875275 ], [ -59.294870724900221, -35.029799829786711 ], [ -59.294868048087011, -35.029797654750247 ], [ -59.294865325585583, -35.029795518426894 ], [ -59.294862558223336, -35.029793421465882 ], [ -59.294859746841276, -35.02979136450449 ], [ -59.294856892293794, -35.029789348167832 ], [ -59.29485399544842, -35.029787373068686 ], [ -59.294851057185504, -35.029785439807284 ], [ -59.294848078397983, -35.029783548971167 ], [ -59.294845059991147, -35.029781701134958 ], [ -59.294842002882305, -35.029779896860212 ], [ -59.294838908000521, -35.029778136695271 ], [ -59.294835776286334, -35.029776421175029 ], [ -59.294832608691486, -35.029774750820877 ], [ -59.29482940617865, -35.029773126140412 ], [ -59.294826169721048, -35.029771547627391 ], [ -59.294822900302279, -35.029770015761549 ], [ -59.294819598915907, -35.029768531008386 ], [ -59.294816266565263, -35.029767093819146 ], [ -59.294812904263054, -35.029765704630591 ], [ -59.294809513031083, -35.029764363864906 ], [ -59.294806093899972, -35.029763071929544 ], [ -59.294802647908817, -35.029761829217151 ], [ -59.294799176104853, -35.029760636105365 ], [ -59.294795679543171, -35.029759492956792 ], [ -59.294792159286395, -35.02975840011883 ], [ -59.294788616404361, -35.029757357923607 ], [ -59.29478505197374, -35.029756366687842 ], [ -59.29478146707779, -35.029755426712768 ], [ -59.294777862805958, -35.029754538284067 ], [ -59.294774240253602, -35.029753701671723 ], [ -59.294770600521659, -35.029752917129976 ], [ -59.294766944716194, -35.029752184897276 ], [ -59.294763273948277, -35.029751505196124 ], [ -59.294759589333438, -35.029750878233102 ], [ -59.294755891991457, -35.029750304198735 ], [ -59.294752183045944, -35.029749783267462 ], [ -59.294748463624096, -35.029749315597641 ], [ -59.294744734856238, -35.029748901331359 ], [ -59.29474099787555, -35.029748540594504 ], [ -59.294737253817722, -35.029748233496747 ], [ -59.294733503820588, -35.029747980131397 ], [ -59.29472974902378, -35.02974778057542 ], [ -59.294725990568395, -35.029747634889517 ], [ -59.294722229596644, -35.029747543117921 ], [ -59.294718467251492, -35.029747505288526 ], [ -59.294714704676316, -35.029747521412865 ], [ -59.2947109430146, -35.029747591486 ], [ -59.294707183409521, -35.029747715486643 ], [ -59.294703427003626, -35.02974789337712 ], [ -59.294699674938492, -35.02974812510336 ], [ -59.294695928354415, -35.029748410594941 ], [ -59.294692188389959, -35.029748749765105 ], [ -59.294688456181731, -35.029749142510767 ], [ -59.294684732863956, -35.02974958871259 ], [ -59.294681019568173, -35.029750088234955 ], [ -59.294677317422838, -35.029750640926054 ], [ -59.294673627553088, -35.029751246617934 ], [ -59.294669951080238, -35.02975190512651 ], [ -59.294666289121608, -35.029752616251685 ], [ -59.294662642790087, -35.029753379777304 ], [ -59.294659013193808, -35.029754195471369 ], [ -59.29465540143579, -35.029755063085965 ], [ -59.294651808613693, -35.029755982357443 ], [ -59.294648235819359, -35.029756953006405 ], [ -59.294644684138589, -35.029757974737862 ], [ -59.294641154650762, -35.029759047241342 ], [ -59.294637648428477, -35.029760170190869 ], [ -59.294634166537307, -35.029761343245212 ], [ -59.294630710035399, -35.029762566047879 ], [ -59.294627279973227, -35.029763838227197 ], [ -59.294623877393157, -35.029765159396604 ], [ -59.294620503329256, -35.029766529154571 ], [ -59.294617158806936, -35.029767947084821 ], [ -59.294613844842608, -35.029769412756444 ], [ -59.294610562443381, -35.029770925724023 ], [ -59.294607312606793, -35.029772485527751 ], [ -59.294604096320505, -35.029774091693604 ], [ -59.29460091456194, -35.029775743733445 ], [ -59.29459776829804, -35.029777441145242 ], [ -59.294594658485003, -35.029779183413126 ], [ -59.294591586067881, -35.029780970007636 ], [ -59.294142, -35.0300655 ], [ -59.2940831, -35.0300904 ], [ -59.2940048, -35.0301154 ], [ -59.2939438, -35.0301295 ], [ -59.2938808, -35.0301404 ], [ -59.2938239, -35.030147 ], [ -59.293768, -35.030147 ], [ -59.2937151, -35.0301404 ], [ -59.2936633, -35.0301304 ], [ -59.2936033, -35.0301129 ], [ -59.2935556, -35.0300921 ], [ -59.2935119, -35.0300688 ], [ -59.2934742, -35.0300422 ], [ -59.2934407, -35.0300097 ], [ -59.29330111, -35.02978683 ], [ -59.29314644, -35.02949178 ], [ -59.2911358, -35.02555853 ], [ -59.2897226, -35.0228239 ], [ -59.2895768, -35.022547 ], [ -59.28923461, -35.02188226 ], [ -59.2891085, -35.02166811 ], [ -59.28902284, -35.02153962 ], [ -59.28891576, -35.02139448 ], [ -59.28871826, -35.02112798 ], [ -59.28857788, -35.02096617 ], [ -59.28844701, -35.0208234 ], [ -59.28829234, -35.02067826 ], [ -59.28815433, -35.02052359 ], [ -59.28802584, -35.02041652 ], [ -59.28786642, -35.02029041 ], [ -59.28761776, -35.02008577 ], [ -59.28744525, -35.01999059 ], [ -59.28661244, -35.01946414 ], [ -59.28616332, -35.01919645 ], [ -59.2851757, -35.0186435 ], [ -59.2840691, -35.0179586 ], [ -59.2835777, -35.0176504 ], [ -59.2834988, -35.0175875 ], [ -59.2834066, -35.017514 ], [ -59.2832877, -35.017393 ], [ -59.2831888, -35.0172735 ], [ -59.2830876, -35.0171246 ], [ -59.2830124, -35.0169863 ], [ -59.2829484, -35.0168349 ], [ -59.2828965, -35.0166601 ], [ -59.2828703, -35.016518 ], [ -59.2828575, -35.0163565 ], [ -59.2828733, -35.0161134 ], [ -59.2829306, -35.0156976 ], [ -59.2830294, -35.0150305 ], [ -59.2831675, -35.0139911 ], [ -59.2832036, -35.0136975 ], [ -59.2832244, -35.0135122 ], [ -59.2832381, -35.0133191 ], [ -59.2832415, -35.0131897 ], [ -59.2832337, -35.0130753 ], [ -59.2832167, -35.0129669 ], [ -59.2831891, -35.012844 ], [ -59.2831541, -35.0127202 ], [ -59.2831134, -35.0126053 ], [ -59.2830644, -35.0124904 ], [ -59.2830129, -35.0123871 ], [ -59.2829503, -35.0122778 ], [ -59.2828897, -35.0121846 ], [ -59.282818, -35.0120863 ], [ -59.2827524, -35.0120052 ], [ -59.2826975, -35.0119427 ], [ -59.2826292, -35.0118708 ], [ -59.2825543, -35.0117983 ], [ -59.2824603, -35.0117154 ], [ -59.2823502, -35.0116281 ], [ -59.2822597, -35.0115632 ], [ -59.2821457, -35.011489 ], [ -59.2819985, -35.0114044 ], [ -59.2818693, -35.0113392 ], [ -59.2817588, -35.0112896 ], [ -59.2815964, -35.0112261 ], [ -59.2806256, -35.0108795 ], [ -59.280311, -35.0107629 ], [ -59.2801344, -35.0106609 ], [ -59.2791986, -35.0103462 ], [ -59.2783427, -35.0100527 ], [ -59.2773894, -35.0097246 ], [ -59.2758999, -35.0092014 ], [ -59.2745267, -35.0087114 ], [ -59.2734207, -35.0083173 ], [ -59.2717386, -35.0077136 ], [ -59.2705828, -35.0073198 ], [ -59.2694442, -35.0069254 ], [ -59.2693113, -35.0068784 ], [ -59.2690863, -35.0067963 ], [ -59.2679135, -35.0063684 ], [ -59.2664639, -35.005862 ], [ -59.265002, -35.0053447 ], [ -59.2635293, -35.0048242 ], [ -59.2621004, -35.004311 ], [ -59.2606481, -35.0038075 ], [ -59.2592176, -35.0033014 ], [ -59.2577632, -35.002791 ], [ -59.2567456, -35.0024519 ], [ -59.2559758, -35.0021872 ], [ -59.2551783, -35.0018988 ], [ -59.2541519, -35.0015489 ], [ -59.2532292, -35.001226 ], [ -59.2512712, -35.0005185 ], [ -59.251066, -35.0004802 ], [ -59.2502127, -35.0002438 ], [ -59.2496428, -35.0000981 ], [ -59.248497, -34.9998609 ], [ -59.2474308, -34.999653 ], [ -59.24588, -34.9993661 ], [ -59.2456138, -34.9993162 ], [ -59.2452926, -34.9992392 ], [ -59.2449169, -34.9991226 ], [ -59.2445594, -34.9989786 ], [ -59.2442428, -34.9988272 ], [ -59.2439377, -34.9986497 ], [ -59.2437463, -34.9985261 ], [ -59.2393281, -34.9947205 ], [ -59.2376874, -34.9932737 ], [ -59.236879, -34.9925629 ], [ -59.2282767, -34.984999 ], [ -59.2277658, -34.9845559 ], [ -59.2274045, -34.984238 ], [ -59.2272032, -34.984077 ], [ -59.2270092, -34.983938 ], [ -59.2268734, -34.9838466 ], [ -59.2267231, -34.9837532 ], [ -59.2261641, -34.9834656 ], [ -59.224229, -34.982516 ], [ -59.2240902, -34.9824479 ], [ -59.2231521, -34.9819875 ], [ -59.2110958, -34.9760279 ], [ -59.2104511, -34.9756825 ], [ -59.2100117, -34.9753429 ], [ -59.2071782, -34.9728625 ], [ -59.2017263, -34.9680535 ], [ -59.2013461, -34.9677296 ], [ -59.2009892, -34.9674723 ], [ -59.2007038, -34.9673027 ], [ -59.2002182, -34.9670533 ], [ -59.1938593, -34.9642309 ], [ -59.1896074, -34.962353 ], [ -59.1865336, -34.9609954 ], [ -59.1864328, -34.9609509 ], [ -59.1771121, -34.9568058 ], [ -59.1741095, -34.9554481 ], [ -59.1733837, -34.955141 ], [ -59.1730218, -34.9550245 ], [ -59.1728161, -34.9549753 ], [ -59.1725304, -34.954941 ], [ -59.1723206, -34.9549144 ], [ -59.171659, -34.9549132 ], [ -59.1543126, -34.95556 ], [ -59.1536824, -34.9555712 ], [ -59.1534178, -34.9555525 ], [ -59.1530995, -34.955525 ], [ -59.1527219, -34.9554751 ], [ -59.1523365, -34.9554018 ], [ -59.1459281, -34.9542068 ], [ -59.1427369, -34.9536247 ], [ -59.1287787, -34.9510192 ], [ -59.1156582, -34.9485545 ], [ -59.1151223, -34.9484538 ], [ -59.0992602, -34.9455398 ], [ -59.0975267, -34.9452857 ], [ -59.0967973, -34.9452283 ], [ -59.0956816, -34.9452413 ], [ -59.0955206, -34.9452406 ], [ -59.0931255, -34.9452309 ], [ -59.0828384, -34.9452382 ], [ -59.0826008, -34.9452365 ], [ -59.0820631, -34.945243 ], [ -59.0818212, -34.9452255 ], [ -59.0814087, -34.9451961 ], [ -59.0809524, -34.9451416 ], [ -59.0805966, -34.9450731 ], [ -59.0611714, -34.9401334 ], [ -59.0606332, -34.9400247 ], [ -59.060086, -34.9399632 ], [ -59.0597137, -34.939955 ], [ -59.0593403, -34.9399851 ], [ -59.0587835, -34.940087 ], [ -59.0570966, -34.9405919 ], [ -59.0570067, -34.9406176 ], [ -59.0533064, -34.9416988 ], [ -59.0496731, -34.9427639 ], [ -59.0457561, -34.9438828 ], [ -59.0451114, -34.944029 ], [ -59.0446011, -34.9441162 ], [ -59.0441584, -34.9441709 ], [ -59.043585, -34.9442142 ], [ -59.0429708, -34.9442204 ], [ -59.0422188, -34.9441621 ], [ -59.0380937, -34.9437133 ], [ -59.03423468, -34.94334086 ], [ -59.032225, -34.9431469 ], [ -59.0287257, -34.9427791 ], [ -59.0124098, -34.9412175 ], [ -59.0118945, -34.941145 ], [ -59.0114445, -34.9410421 ], [ -59.0110768, -34.940928 ], [ -59.0106586, -34.9407731 ], [ -59.0103655, -34.940644 ], [ -59.010037, -34.9404632 ], [ -59.0096981, -34.9402566 ], [ -59.0094941, -34.9401091 ], [ -59.0029955, -34.934979 ], [ -59.0024566, -34.9346098 ], [ -59.0020829, -34.9344103 ], [ -59.0016547, -34.9342191 ], [ -59.0010676, -34.9340012 ], [ -59.0007442, -34.9339153 ], [ -59.0000062, -34.9337679 ], [ -58.9899565, -34.9319417 ], [ -58.9896394, -34.9318841 ], [ -58.9857024, -34.9311687 ], [ -58.9844238, -34.9309363 ], [ -58.98011, -34.9301524 ], [ -58.9768751, -34.9295902 ], [ -58.9766944, -34.9295609 ], [ -58.967779, -34.9279251 ], [ -58.9663404, -34.9276652 ], [ -58.9652098, -34.927461 ], [ -58.9646573, -34.9273611 ], [ -58.9642039, -34.927226 ], [ -58.9639315, -34.9271303 ], [ -58.9636819, -34.9270334 ], [ -58.9634055, -34.9269008 ], [ -58.9632019, -34.926785 ], [ -58.9630183, -34.92667 ], [ -58.9625385, -34.9263474 ], [ -58.9614411, -34.9253788 ], [ -58.9604039, -34.9244457 ], [ -58.9593631, -34.9235281 ], [ -58.958301, -34.9225859 ], [ -58.9581215, -34.9224186 ], [ -58.9574209, -34.9217792 ], [ -58.9572333, -34.921608 ], [ -58.9566828, -34.9211131 ], [ -58.9564554, -34.9209086 ], [ -58.9561593, -34.9206415 ], [ -58.9560062, -34.9205053 ], [ -58.9556944, -34.9202254 ], [ -58.9551365, -34.9197167 ], [ -58.9546712, -34.9193067 ], [ -58.9542842, -34.9189593 ], [ -58.9540693, -34.918774 ], [ -58.9538258, -34.9185476 ], [ -58.9535438, -34.9182943 ], [ -58.9533292, -34.9181015 ], [ -58.9530027, -34.9178081 ], [ -58.9525382, -34.9173908 ], [ -58.9520007, -34.916908 ], [ -58.9519771, -34.9168902 ], [ -58.951143, -34.916139 ], [ -58.9509354, -34.9159597 ], [ -58.9506719, -34.9157159 ], [ -58.950463, -34.9155283 ], [ -58.949346, -34.9145255 ], [ -58.9489531, -34.9141905 ], [ -58.9488345, -34.9140856 ], [ -58.9480047, -34.9133389 ], [ -58.9478465, -34.9131969 ], [ -58.9473256, -34.912741 ], [ -58.9466056, -34.9120913 ], [ -58.9464078, -34.9119107 ], [ -58.9428007, -34.9087222 ], [ -58.9352993, -34.9019677 ], [ -58.9319528, -34.8989576 ], [ -58.9309877, -34.8980727 ], [ -58.928153, -34.8955256 ], [ -58.9267023, -34.894216 ], [ -58.9247927, -34.8924741 ], [ -58.9237305, -34.8915392 ], [ -58.9226303, -34.8905441 ], [ -58.9222219, -34.8902074 ], [ -58.9217869, -34.8898914 ], [ -58.9215957, -34.8897715 ], [ -58.9214359, -34.8896745 ], [ -58.9212528, -34.889579 ], [ -58.9208515, -34.8894114 ], [ -58.9201659, -34.8891682 ], [ -58.9192349, -34.8888263 ], [ -58.9155504, -34.8874257 ], [ -58.9152744, -34.8873019 ], [ -58.914985, -34.887154 ], [ -58.9148115, -34.887056 ], [ -58.9145552, -34.8868883 ], [ -58.9144063, -34.8867897 ], [ -58.9141915, -34.8866211 ], [ -58.914031, -34.8864806 ], [ -58.9138421, -34.8863042 ], [ -58.9136083, -34.8860555 ], [ -58.9130268, -34.8853316 ], [ -58.909253, -34.880268 ], [ -58.906937, -34.8771565 ], [ -58.904105, -34.8734001 ], [ -58.9039613, -34.8732128 ], [ -58.8953941, -34.8616896 ], [ -58.8942564, -34.860155 ], [ -58.8938601, -34.8595453 ], [ -58.8936536, -34.8592059 ], [ -58.8935893, -34.8590551 ], [ -58.8935343, -34.858878 ], [ -58.8935021, -34.8587349 ], [ -58.8934793, -34.858572 ], [ -58.8934766, -34.8584114 ], [ -58.8934847, -34.8582639 ], [ -58.8934888, -34.8582239 ], [ -58.8934994, -34.8581208 ], [ -58.8935329, -34.8579525 ], [ -58.8935745, -34.8578105 ], [ -58.8936268, -34.857673 ], [ -58.8936872, -34.8575453 ], [ -58.8937475, -34.8574275 ], [ -58.8939487, -34.8571282 ], [ -58.8941002, -34.8569323 ], [ -58.8942424, -34.8567375 ], [ -58.8943188, -34.8566352 ], [ -58.8945709, -34.8562863 ], [ -58.8951329, -34.8555182 ], [ -58.8951932, -34.8554158 ], [ -58.8952308, -34.8553333 ], [ -58.8952616, -34.8552409 ], [ -58.89528521, -34.85518153 ], [ -58.89529568, -34.85512823 ], [ -58.89530234, -34.85504924 ], [ -58.8953071, -34.85498642 ], [ -58.89530852, -34.85492931 ], [ -58.89529853, -34.85486792 ], [ -58.89528425, -34.85480367 ], [ -58.89527062467581, -34.854740697882555 ], [ -58.89526122, -34.85467718 ], [ -58.89518841, -34.85444019 ], [ -58.89516985, -34.85438165 ], [ -58.89515843, -34.85432597 ], [ -58.89514843, -34.85428457 ], [ -58.89514701, -34.85421604 ], [ -58.89516271, -34.85413895 ], [ -58.89518127, -34.85407042 ], [ -58.8952084, -34.8540076 ], [ -58.89525551, -34.85391338 ], [ -58.89530262, -34.85381344 ], [ -58.895849274439968, -34.853233698345832 ], [ -58.895852343652813, -34.85322949296414 ], [ -58.895855323796354, -34.85322524427265 ], [ -58.895858213971557, -34.853220953553176 ], [ -58.895861013306465, -34.853216622100199 ], [ -58.895863720956569, -34.853212251220455 ], [ -58.895866336104987, -34.853207842232656 ], [ -58.895868857962761, -34.853203396466945 ], [ -58.89587128576909, -34.853198915264578 ], [ -58.895873618791519, -34.853194399977511 ], [ -58.895875856326214, -34.853189851967969 ], [ -58.89587799769815, -34.853185272608044 ], [ -58.895880042261304, -34.853180663279332 ], [ -58.895881989398852, -34.853176025372406 ], [ -58.895883838523375, -34.853171360286481 ], [ -58.895885589077032, -34.853166669429015 ], [ -58.895887240531692, -34.853161954215189 ], [ -58.895888792389158, -34.85315721606753 ], [ -58.895890244181238, -34.853152456415536 ], [ -58.895891595469998, -34.853147676695158 ], [ -58.895892845847733, -34.853142878348386 ], [ -58.895893994937254, -34.85313806282285 ], [ -58.895895042391906, -34.853133231571363 ], [ -58.895895987895692, -34.853128386051459 ], [ -58.895896831163391, -34.853123527725025 ], [ -58.895897571940594, -34.853118658057767 ], [ -58.895898210003857, -34.853113778518832 ], [ -58.895898745160679, -34.853108890580323 ], [ -58.895899177249632, -34.853103995716928 ], [ -58.895899506140374, -34.853099095405334 ], [ -58.895899731733707, -34.853094191123972 ], [ -58.895899853961566, -34.853089284352428 ], [ -58.895899872787133, -34.853084376571012 ], [ -58.895899788204723, -34.853079469260379 ], [ -58.895899600239865, -34.853074563901004 ], [ -58.895899308949318, -34.85306966197281 ], [ -58.895898914420933, -34.853064764954674 ], [ -58.89589841677379, -34.853059874323989 ], [ -58.895897816158033, -34.853054991556192 ], [ -58.895897112754881, -34.853050118124401 ], [ -58.895896306776564, -34.853045255498884 ], [ -58.895895398466251, -34.85304040514665 ], [ -58.895894388097993, -34.853035568530998 ], [ -58.895893275976647, -34.853030747111113 ], [ -58.89589206243771, -34.853025942341581 ], [ -58.895890747847353, -34.853021155671925 ], [ -58.89588933260216, -34.853016388546266 ], [ -58.895887817129136, -34.853011642402826 ], [ -58.895886201885496, -34.853006918673429 ], [ -58.895884487358579, -34.853002218783224 ], [ -58.895882674065625, -34.852997544150107 ], [ -58.895880762553737, -34.852992896184354 ], [ -58.8958787533996, -34.852988276288258 ], [ -58.895876647209384, -34.852983685855563 ], [ -58.895874444618521, -34.852979126271187 ], [ -58.895872146291531, -34.852974598910691 ], [ -58.895869752921804, -34.852970105139953 ], [ -58.895867265231423, -34.852965646314715 ], [ -58.895864683970913, -34.85296122378012 ], [ -58.895862009919028, -34.852956838870455 ], [ -58.895859243882541, -34.852952492908585 ], [ -58.895856386695911, -34.852948187205634 ], [ -58.895853439221177, -34.852943923060607 ], [ -58.895850402347556, -34.852939701759951 ], [ -58.89584727699129, -34.852935524577205 ], [ -58.895844064095236, -34.852931392772568 ], [ -58.895840764628737, -34.85292730759258 ], [ -58.895837379587213, -34.852923270269685 ], [ -58.895833909991921, -34.852919282021908 ], [ -58.895830356889604, -34.852915344052462 ], [ -58.895826721352215, -34.852911457549411 ], [ -58.895823004476576, -34.852907623685248 ], [ -58.895819207384037, -34.852903843616637 ], [ -58.895815331220156, -34.85290011848398 ], [ -58.895811377154345, -34.852896449411098 ], [ -58.895807346379527, -34.852892837504932 ], [ -58.895803240111718, -34.852889283855149 ], [ -58.895799059589791, -34.85288578953385 ], [ -58.895794806074967, -34.852882355595227 ], [ -58.895790480850472, -34.852878983075279 ], [ -58.895786085221218, -34.852875672991466 ], [ -58.895781620513326, -34.852872426342387 ], [ -58.89577708807375, -34.852869244107531 ], [ -58.895772489269902, -34.852866127246948 ], [ -58.89576782548918, -34.852863076700963 ], [ -58.895763098138623, -34.852860093389872 ], [ -58.895758308644432, -34.852857178213732 ], [ -58.895753458451537, -34.852854332052033 ], [ -58.895748549023217, -34.852851555763408 ], [ -58.895743581840591, -34.852848850185424 ], [ -58.895738558402201, -34.85284621613436 ], [ -58.895733480223591, -34.852843654404872 ], [ -58.895728348836776, -34.852841165769782 ], [ -58.895723165789867, -34.852838750979906 ], [ -58.895717932646541, -34.852836410763757 ], [ -58.895712650985551, -34.852834145827337 ], [ -58.895707322400355, -34.852831956853976 ], [ -58.895701948498541, -34.852829844504051 ], [ -58.895696530901319, -34.85282780941484 ], [ -58.895691071243164, -34.852825852200304 ], [ -58.895685571171178, -34.852823973450924 ], [ -58.895680032344679, -34.852822173733465 ], [ -58.895674456434662, -34.852820453590923 ], [ -58.895668845123346, -34.852818813542221 ], [ -58.895663200103591, -34.852817254082147 ], [ -58.895657523078448, -34.852815775681179 ], [ -58.895651815760601, -34.852814378785339 ], [ -58.895646079871888, -34.852813063816036 ], [ -58.895640317142771, -34.852811831170001 ], [ -58.895634529311799, -34.852810681219111 ], [ -58.895628718125117, -34.852809614310274 ], [ -58.895622885335868, -34.852808630765374 ], [ -58.895617032703754, -34.852807730881139 ], [ -58.895611161994466, -34.852806914929033 ], [ -58.89560527497909, -34.852806183155252 ], [ -58.895599373433718, -34.852805535780547 ], [ -58.895593459138766, -34.852804973000225 ], [ -58.895587533878512, -34.852804494984063 ], [ -58.895581599440533, -34.852804101876288 ], [ -58.895575657615183, -34.852803793795474 ], [ -58.895569710195055, -34.852803570834595 ], [ -58.895563758974426, -34.852803433060899 ], [ -58.895557805748695, -34.852803380515944 ], [ -58.895551852313886, -34.852803413215604 ], [ -58.895545900466097, -34.852803531149988 ], [ -58.895539952000924, -34.852803734283512 ], [ -58.895534008712964, -34.852804022554935 ], [ -58.895528072395223, -34.852804395877236 ], [ -58.89552214483863, -34.852804854137815 ], [ -58.895516227831479, -34.852805397198424 ], [ -58.895510323158852, -34.852806024895216 ], [ -58.89550443260211, -34.852806737038826 ], [ -58.895498557938382, -34.852807533414406 ], [ -58.895492700940004, -34.852808413781716 ], [ -58.895486863373932, -34.852809377875118 ], [ -58.89548104700134, -34.852810425403788 ], [ -58.895475253576919, -34.852811556051684 ], [ -58.895469484848519, -34.852812769477715 ], [ -58.89546374255648, -34.852814065315783 ], [ -58.895458028433204, -34.852815443174968 ], [ -58.895452344202567, -34.852816902639574 ], [ -58.895446691579458, -34.8528184432693 ], [ -58.8954410722692, -34.852820064599356 ], [ -58.89543548796707, -34.852821766140579 ], [ -58.895429940357815, -34.852823547379678 ], [ -58.895424431115075, -34.85282540777925 ], [ -58.895418961900937, -34.852827346778014 ], [ -58.895413534365403, -34.852829363791031 ], [ -58.895408150145904, -34.852831458209742 ], [ -58.895402810866806, -34.852833629402333 ], [ -58.895397518138921, -34.852835876713748 ], [ -58.895392273558997, -34.852838199466007 ], [ -58.895387078709277, -34.852840596958366 ], [ -58.895381935157012, -34.852843068467514 ], [ -58.895376844453928, -34.85284561324783 ], [ -58.889015073347622, -34.858048625670918 ], [ -58.887756337419255, -34.85864082745023 ], [ -58.887639267419253, -34.858666527450232 ], [ -58.887505067419255, -34.858686517450231 ], [ -58.887432257419256, -34.858686517450231 ], [ -58.887375147419256, -34.858675097450231 ], [ -58.887288057419255, -34.858646537450227 ], [ -58.887215247419256, -34.858609417450232 ], [ -58.887160997419251, -34.858570877450227 ], [ -58.887109597419254, -34.858522327450231 ], [ -58.887059637419256, -34.858472367450226 ], [ -58.887011087419253, -34.858409547450229 ], [ -58.88697193, -34.85835976 ], [ -58.8869478, -34.85825084 ], [ -58.88693495, -34.85816518 ], [ -58.88692781, -34.85808951 ], [ -58.88692924, -34.85800385 ], [ -58.88693638, -34.85793817 ], [ -58.88695351, -34.85785965 ], [ -58.88698492, -34.85777685 ], [ -58.88701347, -34.85770689 ], [ -58.8870886, -34.8575201 ], [ -58.8871986, -34.8573858 ], [ -58.8874494, -34.857147 ], [ -58.8881682, -34.8564603 ], [ -58.8883224, -34.8563095 ], [ -58.8884579, -34.8561599 ], [ -58.888533, -34.8560586 ], [ -58.8885974, -34.8559607 ], [ -58.8886483, -34.8558671 ], [ -58.8886895, -34.8557742 ], [ -58.8887288, -34.8556811 ], [ -58.888761, -34.8555832 ], [ -58.8887865, -34.8554885 ], [ -58.8888046, -34.8553952 ], [ -58.8888311, -34.8552253 ], [ -58.8888382, -34.8550626 ], [ -58.8888394, -34.8548656 ], [ -58.8888311, -34.8546938 ], [ -58.8888187, -34.8545776 ], [ -58.8888028, -34.8544629 ], [ -58.8887816, -34.8543453 ], [ -58.8887603, -34.8542407 ], [ -58.8887002, -34.854036 ], [ -58.8886311, -34.8538356 ], [ -58.8885126, -34.8535626 ], [ -58.88844, -34.8534261 ], [ -58.8883604, -34.8532896 ], [ -58.8882684, -34.85314 ], [ -58.8881764, -34.8529948 ], [ -58.8880719, -34.8528365 ], [ -58.887964, -34.852684 ], [ -58.8864121, -34.8505987 ], [ -58.8861608, -34.8502616 ], [ -58.8857962, -34.8497723 ], [ -58.8847756, -34.8483716 ], [ -58.8795618, -34.8413541 ], [ -58.8781197, -34.8394067 ], [ -58.8723127, -34.8315646 ], [ -58.8722867, -34.8315295 ], [ -58.8678485, -34.8255354 ], [ -58.8657313, -34.8226758 ], [ -58.8656362, -34.8225395 ], [ -58.8632112, -34.8194344 ], [ -58.8581441, -34.8125658 ], [ -58.8544105, -34.8075589 ], [ -58.8531082, -34.8057211 ], [ -58.8530067, -34.8055809 ], [ -58.8514805, -34.803485 ], [ -58.8505771, -34.8022177 ], [ -58.8499332, -34.8013748 ], [ -58.8493478, -34.8006109 ], [ -58.8480859, -34.7989139 ], [ -58.8474655, -34.7980927 ], [ -58.8469935, -34.7974679 ], [ -58.8467545, -34.7971517 ], [ -58.8461115, -34.7963004 ], [ -58.8453839, -34.7953374 ], [ -58.8446433, -34.794357 ], [ -58.843944, -34.7934313 ], [ -58.8435453, -34.7929035 ], [ -58.8430729, -34.7922699 ], [ -58.8426706, -34.7917307 ], [ -58.8424293, -34.7914717 ], [ -58.8420804, -34.791124 ], [ -58.8416582, -34.7907648 ], [ -58.8411523, -34.7904421 ], [ -58.8407209, -34.790247 ], [ -58.8392613, -34.7895731 ], [ -58.8389255, -34.7894186 ], [ -58.8380941, -34.789051 ], [ -58.8377707, -34.7888874 ], [ -58.8374377, -34.7887018 ], [ -58.8372154, -34.7885498 ], [ -58.8370786, -34.7884711 ], [ -58.836973, -34.788391 ], [ -58.836748, -34.788181 ], [ -58.8364785, -34.7878931 ], [ -58.8363615, -34.7877423 ], [ -58.8355258, -34.7866725 ], [ -58.8347503, -34.7856264 ], [ -58.8341841, -34.7848625 ], [ -58.8334777, -34.7839095 ], [ -58.8326841, -34.7828386 ], [ -58.8319723, -34.7818785 ], [ -58.8314453, -34.7811565 ], [ -58.8306903, -34.7801267 ], [ -58.8303574, -34.7796785 ], [ -58.8298674, -34.7790436 ], [ -58.8290919, -34.7779831 ], [ -58.8282834, -34.7769013 ], [ -58.8275109, -34.7758407 ], [ -58.8273268, -34.7755743 ], [ -58.8272339, -34.7753524 ], [ -58.8271897, -34.7750657 ], [ -58.8272015, -34.7748125 ], [ -58.8272398, -34.7745453 ], [ -58.8273037, -34.7738377 ], [ -58.8273844, -34.7729575 ], [ -58.8275362, -34.7716364 ], [ -58.8275335, -34.7715336 ], [ -58.8275263, -34.7714289 ], [ -58.82751, -34.7713363 ], [ -58.8274663, -34.771181 ], [ -58.8268081, -34.7703043 ], [ -58.8260189, -34.7692443 ], [ -58.8252063, -34.7681481 ], [ -58.8235732, -34.7660288 ], [ -58.8216665, -34.7634864 ], [ -58.8210531, -34.762635 ], [ -58.8174703, -34.757819 ], [ -58.8166088, -34.7566653 ], [ -58.8161945, -34.7561104 ], [ -58.8154866, -34.7551624 ], [ -58.8144426, -34.7537167 ], [ -58.8136715, -34.752722 ], [ -58.813599, -34.7526105 ], [ -58.8133186, -34.7522334 ], [ -58.8119864, -34.750442 ], [ -58.8110804, -34.7492514 ], [ -58.8106165, -34.7486221 ], [ -58.8100672, -34.7478648 ], [ -58.8094143, -34.7469862 ], [ -58.8088972, -34.7463046 ], [ -58.8079397, -34.7450031 ], [ -58.8070903, -34.7438633 ], [ -58.8062943, -34.7427734 ], [ -58.806195, -34.7426373 ], [ -58.8057209, -34.7419887 ], [ -58.8053071, -34.7414048 ], [ -58.8051669, -34.7411922 ], [ -58.8049039, -34.7408057 ], [ -58.8044635, -34.7401812 ], [ -58.8038564, -34.7393118 ], [ -58.8031182, -34.7383111 ], [ -58.801573, -34.7363129 ], [ -58.8009192, -34.7354341 ], [ -58.8007894, -34.7352534 ], [ -58.7997432, -34.7339093 ], [ -58.7995618, -34.7336622 ], [ -58.7989643, -34.7328006 ], [ -58.7982939, -34.7318992 ], [ -58.7973589, -34.730645 ], [ -58.7967152, -34.7297668 ], [ -58.7960471, -34.7288688 ], [ -58.795674, -34.728362 ], [ -58.7953525, -34.7280217 ], [ -58.7952697, -34.727928 ], [ -58.7952087, -34.7278376 ], [ -58.795044, -34.7276766 ], [ -58.7948228, -34.7274738 ], [ -58.7945775, -34.7271988 ], [ -58.79395, -34.7263408 ], [ -58.7932792, -34.7254613 ], [ -58.792633, -34.7245931 ], [ -58.7919611, -34.7236974 ], [ -58.7913254, -34.7228119 ], [ -58.7906846, -34.7219422 ], [ -58.7901917, -34.7209743 ], [ -58.7899393, -34.720528 ], [ -58.789611, -34.7201219 ], [ -58.7890011, -34.7193194 ], [ -58.7884368, -34.7185573 ], [ -58.7883096, -34.7184245 ], [ -58.7876582, -34.7175591 ], [ -58.7874701, -34.7173054 ], [ -58.7850406, -34.7140377 ], [ -58.7845551, -34.7133783 ], [ -58.7840501, -34.7126961 ], [ -58.7835639, -34.7120398 ], [ -58.7830454, -34.7113399 ], [ -58.7825386, -34.7106582 ], [ -58.7820067, -34.7099168 ], [ -58.781498, -34.7092497 ], [ -58.7811519, -34.708784 ], [ -58.7810048, -34.7085853 ], [ -58.7805426, -34.7079094 ], [ -58.7800365, -34.7072429 ], [ -58.7795579, -34.7065994 ], [ -58.7792659, -34.7062111 ], [ -58.7791799, -34.7060926 ], [ -58.7789741, -34.7058215 ], [ -58.7786352, -34.7053314 ], [ -58.7781156, -34.7046453 ], [ -58.7776575, -34.7040324 ], [ -58.777146, -34.7033409 ], [ -58.7766754, -34.7027079 ], [ -58.7761959, -34.7020681 ], [ -58.7757371, -34.7014398 ], [ -58.7752695, -34.7008198 ], [ -58.7747738, -34.7001509 ], [ -58.774286, -34.6994935 ], [ -58.7739523, -34.699044 ], [ -58.7737112, -34.6987195 ], [ -58.7733123, -34.6981639 ], [ -58.7728504, -34.6975447 ], [ -58.7724152, -34.6969674 ], [ -58.7719894, -34.6963836 ], [ -58.7714774, -34.6956892 ], [ -58.7710522, -34.6951132 ], [ -58.770522, -34.6944055 ], [ -58.7701028, -34.6938417 ], [ -58.7696167, -34.6931932 ], [ -58.769176, -34.6926077 ], [ -58.7686801, -34.6919584 ], [ -58.7685884, -34.6918252 ], [ -58.76824, -34.6913374 ], [ -58.7678089, -34.6907689 ], [ -58.7673605, -34.6901625 ], [ -58.7671469, -34.6898657 ], [ -58.7667321, -34.6892654 ], [ -58.7655376, -34.6876716 ], [ -58.7650593, -34.6870925 ], [ -58.7649729, -34.6869932 ], [ -58.7636143, -34.6859068 ], [ -58.7632059, -34.685519 ], [ -58.7630606, -34.6853606 ], [ -58.7607557, -34.6822892 ], [ -58.7599936, -34.6812232 ], [ -58.759751, -34.6809162 ], [ -58.7596847, -34.6808283 ], [ -58.7593032, -34.680323 ], [ -58.758706, -34.6798006 ], [ -58.7580515, -34.6792787 ], [ -58.7573594, -34.6787017 ], [ -58.7565931, -34.6780805 ], [ -58.7561768, -34.6777266 ], [ -58.7555656, -34.6772265 ], [ -58.755313, -34.6769992 ], [ -58.7550295, -34.676756 ], [ -58.7547217, -34.6765137 ], [ -58.7542286, -34.6761243 ], [ -58.7541641, -34.676071 ], [ -58.7535781, -34.6755705 ], [ -58.7531071, -34.6751806 ], [ -58.7529016, -34.6750105 ], [ -58.7499141, -34.6725959 ], [ -58.7488633, -34.6717287 ], [ -58.7477533, -34.6708025 ], [ -58.7468451, -34.6700632 ], [ -58.7463732, -34.6696911 ], [ -58.745715, -34.6691678 ], [ -58.7454157, -34.6689236 ], [ -58.74367, -34.6675156 ], [ -58.7428332, -34.6668265 ], [ -58.741975, -34.6661204 ], [ -58.7410071, -34.6653246 ], [ -58.7409177, -34.6652864 ], [ -58.7407537, -34.6652482 ], [ -58.7404319, -34.6651893 ], [ -58.7401867, -34.6651357 ], [ -58.7393124, -34.6648796 ], [ -58.738435, -34.6646 ], [ -58.736575, -34.6639947 ], [ -58.7355197, -34.6636576 ], [ -58.7352892, -34.6635916 ], [ -58.734234544333951, -34.663751664208192 ] ] } }
]
}
