{
"type": "FeatureCollection",
"name": "rp41_unificada",
"features": [
{ "type": "Feature", "properties": { "fid": 1, "id": null }, "geometry": { "type": "LineString", "coordinates": [ [ -57.820309679978855, -36.073292955025728 ], [ -57.820378394281185, -36.073557427565859 ], [ -57.820646707271294, -36.073750491958606 ], [ -57.821049176756418, -36.073790162665539 ], [ -57.822469272338118, -36.07373197895518 ], [ -57.824141320361733, -36.073679084635685 ], [ -57.825296375062969, -36.073560072286767 ], [ -57.826251831076455, -36.073382875789164 ], [ -57.8273708925717, -36.073065507929918 ], [ -57.836693132922534, -36.069629918889341 ], [ -57.843420590332592, -36.067122558266163 ], [ -57.850082605549936, -36.06471033844393 ], [ -57.851509245350904, -36.064191913124418 ], [ -57.85328927299247, -36.063906248733453 ], [ -57.855278715650698, -36.06382160723323 ], [ -57.8687336304708, -36.063715805229918 ], [ -57.884374314527271, -36.06353594149774 ], [ -57.944712016201173, -36.062879964401859 ], [ -57.946066669590138, -36.062853513597794 ], [ -57.946923962314585, -36.062901125038699 ], [ -57.94944348673372, -36.062853513597794 ], [ -57.954790113877728, -36.062790031631771 ], [ -57.96712596720257, -36.062652487196317 ], [ -57.973801070858457, -36.062578424708413 ], [ -57.975175356905268, -36.062462040657991 ], [ -57.976536554513523, -36.062250432852515 ], [ -57.981078242687246, -36.061075999187906 ], [ -57.991522816642927, -36.058441395037761 ], [ -58.010592671597124, -36.053605767548355 ], [ -58.012922413657414, -36.053023779219956 ], [ -58.01436214189691, -36.052706329226986 ], [ -58.025984675321297, -36.051013240974136 ], [ -58.027097192597282, -36.050886257887051 ], [ -58.031220050737666, -36.050304249450122 ], [ -58.032934636186532, -36.049976206434842 ], [ -58.034858636652061, -36.049732818798148 ], [ -58.035539235456177, -36.049711654620246 ], [ -58.036324541768643, -36.049595251540161 ], [ -58.03669101804779, -36.049574087325297 ], [ -58.037463235921699, -36.049500012528426 ], [ -58.03909929073933, -36.04912963749851 ], [ -58.04296038010893, -36.04866402070278 ], [ -58.044308489278635, -36.048505287074768 ], [ -58.045381741238991, -36.048367717671589 ], [ -58.046926176986837, -36.048081995835233 ], [ -58.047528245159725, -36.048081995835233 ], [ -58.048084503797718, -36.047976172669713 ], [ -58.049197021073702, -36.047796272961854 ], [ -58.05040770163874, -36.047526422629218 ], [ -58.051121021539217, -36.047447054708293 ], [ -58.051893239413133, -36.047341230689256 ], [ -58.052743987918291, -36.047134873442971 ], [ -58.054222981473416, -36.046986719188979 ], [ -58.05551219266971, -36.046912641957434 ], [ -58.056120805061873, -36.046769778528294 ], [ -58.056762138550376, -36.046621623587242 ], [ -58.058496356657038, -36.046425846987454 ], [ -58.060171676790297, -36.046219487341723 ], [ -58.062357446026617, -36.045997253272176 ], [ -58.063404521109916, -36.045854388181901 ], [ -58.065564113469165, -36.045521035296417 ], [ -58.066290521808199, -36.045404626019767 ], [ -58.067612454100832, -36.045224720435471 ], [ -58.068836223104412, -36.045039523081066 ], [ -58.07001418257309, -36.044891364883874 ], [ -58.072304659317766, -36.044568590703221 ], [ -58.076715463106062, -36.043975952696769 ], [ -58.077559667391952, -36.043854249696921 ], [ -58.078776892176265, -36.043658466215447 ], [ -58.080053014934009, -36.043494431031839 ], [ -58.084365655433274, -36.042944116951674 ], [ -58.090916418923015, -36.042033973685925 ], [ -58.100078325901706, -36.040742822167921 ], [ -58.134154075643131, -36.035990778915682 ], [ -58.142059492521867, -36.034879457943632 ], [ -58.143525397638442, -36.034688944202493 ], [ -58.144886595246717, -36.034434925164092 ], [ -58.146496473187263, -36.033704615865176 ], [ -58.189819204757839, -36.001744308892825 ], [ -58.196127832134614, -35.997042859214368 ], [ -58.197894771337651, -35.995359163808622 ], [ -58.201441738182254, -35.991578660159576 ], [ -58.209268624429747, -35.98500205824481 ], [ -58.217671401973035, -35.977948281749327 ], [ -58.224320328751865, -35.973330152655677 ], [ -58.236872141312645, -35.964379110278699 ], [ -58.243233122443527, -35.959410579012186 ], [ -58.2498296954682, -35.954219242298805 ], [ -58.250994566498342, -35.953435214854892 ], [ -58.268061890355767, -35.943019625595859 ], [ -58.277092912949037, -35.937477506331028 ], [ -58.2850375951434, -35.932528478671841 ], [ -58.29557378816888, -35.924547916424693 ], [ -58.303282878469496, -35.918739510813538 ], [ -58.311738009766977, -35.912315850266644 ], [ -58.316528378272956, -35.9087963959335 ], [ -58.326475591564076, -35.901258724645167 ], [ -58.338883431300943, -35.8919284045501 ], [ -58.343817772630878, -35.888280798643947 ], [ -58.346762671302606, -35.886700824164997 ], [ -58.373489262803226, -35.87604312595505 ], [ -58.378829345727958, -35.873943231243118 ], [ -58.411445734572084, -35.86099265066489 ], [ -58.412846197495959, -35.860356203944463 ], [ -58.413749299755288, -35.859804612653171 ], [ -58.414652402014617, -35.858977218519414 ], [ -58.426248758561911, -35.842363863025682 ], [ -58.426615234841051, -35.841865196386117 ], [ -58.427714663678508, -35.840676871757452 ], [ -58.429088949725305, -35.839446088196269 ], [ -58.430973684875198, -35.838024297208136 ], [ -58.45840705205709, -35.817649568528424 ], [ -58.459480304017418, -35.816641308125178 ], [ -58.474518919900994, -35.798522278712937 ], [ -58.475840852193649, -35.797152834334184 ], [ -58.477620879835207, -35.795762134103185 ], [ -58.478785750865377, -35.794891607067527 ], [ -58.498339878045563, -35.780643333754306 ], [ -58.498506755636967, -35.780470788712606 ], [ -58.498644184241627, -35.780239843224599 ], [ -58.498768524407772, -35.78009118830272 ], [ -58.499000844191883, -35.780038097191834 ], [ -58.499210259208517, -35.779963769577009 ], [ -58.502027545604484, -35.77787991352065 ], [ -58.508100581087469, -35.773470453331051 ], [ -58.508283819227046, -35.773231523158287 ], [ -58.508349261419745, -35.773085509921522 ], [ -58.508542315888235, -35.773064271610203 ], [ -58.50873209824708, -35.773069581188558 ], [ -58.508866254742117, -35.773011175807085 ], [ -58.513653351138494, -35.769445711511104 ], [ -58.513852949826244, -35.769254557756462 ], [ -58.513898759361112, -35.768840389711976 ], [ -58.514173616570474, -35.76853772708477 ], [ -58.514684065673578, -35.768442149173744 ], [ -58.51512907258396, -35.768346571147845 ], [ -58.515868569361537, -35.767858059443974 ], [ -58.517013807733875, -35.767061566536206 ], [ -58.517635508564574, -35.766530566833211 ], [ -58.517995440624446, -35.766127004688101 ], [ -58.518414270657757, -35.765484487047885 ], [ -58.522425877070539, -35.754736149783206 ], [ -58.52257639411377, -35.75407229676145 ], [ -58.525298789330272, -35.738664040217664 ], [ -58.525527837004738, -35.738100979534167 ], [ -58.525972843915135, -35.737479483402069 ], [ -58.53368847843501, -35.728884278825191 ], [ -58.535376887006798, -35.727380819544891 ], [ -58.538727527273295, -35.724681959259087 ], [ -58.539434302954511, -35.724182553826772 ], [ -58.540494466476325, -35.723576887718721 ], [ -58.554158796313097, -35.715819704147606 ], [ -58.554944102625548, -35.71539463116877 ], [ -58.555703232060928, -35.715086451841316 ], [ -58.557182225616053, -35.714725136629333 ], [ -58.563163642029281, -35.713067316420073 ], [ -58.564171451796938, -35.712589092643299 ], [ -58.564760431531283, -35.711983338406625 ], [ -58.565192350003137, -35.711069384704516 ], [ -58.569917276316424, -35.653277745527944 ], [ -58.570008895386216, -35.651714366122725 ], [ -58.569786391931004, -35.650097778368973 ], [ -58.56672369731244, -35.629408948866072 ], [ -58.566776051066597, -35.628483410782735 ], [ -58.567194881099908, -35.627536584874413 ], [ -58.567757683957169, -35.62693018486285 ], [ -58.588162559642555, -35.613151962934218 ], [ -58.590557743895552, -35.612002783904948 ], [ -58.601486590077258, -35.605235061427244 ], [ -58.601970862303254, -35.604915815095993 ], [ -58.620307764699156, -35.592261993248719 ], [ -58.620883655994973, -35.591825618882069 ], [ -58.630320420183011, -35.582799586423924 ], [ -58.636432720981624, -35.576966184617255 ], [ -58.640123660650197, -35.573666079381532 ], [ -58.641942953607376, -35.5713559248222 ], [ -58.645450655136351, -35.567342272094237 ], [ -58.649560424838221, -35.562572471089908 ], [ -58.654678004307748, -35.555960290802069 ], [ -58.659101896534587, -35.551328245439642 ], [ -58.666879701137567, -35.54302183874254 ], [ -58.683358045260647, -35.525397161147012 ], [ -58.69136816964771, -35.51693892357018 ], [ -58.694129830179861, -35.513955957184322 ], [ -58.702205396759645, -35.50533669228556 ], [ -58.703043056826267, -35.503781077449098 ], [ -58.703632036560599, -35.501745946793264 ], [ -58.707336064667686, -35.488734809345836 ], [ -58.707781071578083, -35.487903559429576 ], [ -58.709024473239474, -35.486582067503761 ], [ -58.71073905868834, -35.485452387823379 ], [ -58.712034814103902, -35.484748994340386 ], [ -58.727884913177022, -35.476382402854192 ], [ -58.738277133378546, -35.470541259806453 ], [ -58.752726769527776, -35.4633991397599 ], [ -58.755056511588059, -35.462162529191218 ], [ -58.756600947335897, -35.460829953418113 ], [ -58.765867561822887, -35.452066385255286 ], [ -58.779793660430478, -35.438919243314245 ], [ -58.77997035435078, -35.438719300613641 ], [ -58.779989987008584, -35.438468705061034 ], [ -58.780048884982016, -35.4382341042623 ], [ -58.780294293204676, -35.43809281026958 ], [ -58.7806967626898, -35.437972843477347 ], [ -58.781102504284569, -35.43769558620685 ], [ -58.785179552890106, -35.433859207317454 ], [ -58.78847129518315, -35.430729183932613 ], [ -58.792509078473039, -35.426820483068347 ], [ -58.793700126380259, -35.424538097981532 ], [ -58.794485432692724, -35.419439826705258 ], [ -58.795427800267689, -35.4164852415037 ], [ -58.79566339216148, -35.41597191127665 ], [ -58.796622120284603, -35.413683885349393 ], [ -58.797217644238223, -35.412670519774579 ], [ -58.797760814437666, -35.411817149406538 ], [ -58.801648080684359, -35.406296691544753 ], [ -58.804134884007127, -35.402786870519876 ], [ -58.808964517828748, -35.396044171610697 ], [ -58.809468422712577, -35.395254641506249 ], [ -58.809998504473498, -35.394000979849807 ], [ -58.810260273244303, -35.392923348721474 ], [ -58.810764178128146, -35.392096443784439 ], [ -58.810685647496904, -35.391749674674614 ], [ -58.810999770021894, -35.39143491373013 ], [ -58.811438232713009, -35.391333549774643 ], [ -58.811870151184863, -35.391274865321122 ], [ -58.812498396234837, -35.390752038304939 ], [ -58.813833416966006, -35.389610343039202 ], [ -58.815168437697182, -35.388650026096187 ], [ -58.818473268428775, -35.38692142678552 ], [ -58.827249066470507, -35.382397016193842 ], [ -58.829676971819836, -35.381132483429674 ], [ -58.831221407567689, -35.380214751037244 ], [ -58.832602237833747, -35.379227643497693 ], [ -58.836083762485657, -35.376474350003313 ], [ -58.85339322245607, -35.362797199641399 ], [ -58.859400815746383, -35.358100647887646 ], [ -58.861298639334827, -35.35658488424022 ], [ -58.868955375881292, -35.350542895718505 ], [ -58.878483759139108, -35.343080522848616 ], [ -58.884308114289837, -35.338457562706076 ], [ -58.892606184324812, -35.331752199027605 ], [ -58.894176796949729, -35.330438822199213 ], [ -58.897331110638106, -35.328100317948284 ], [ -58.914568584196545, -35.315573753235974 ], [ -58.920667796556643, -35.311472563624491 ], [ -58.923573429912743, -35.309528697994168 ], [ -58.925746110710548, -35.308086789466671 ], [ -58.931871499947718, -35.303622050448837 ], [ -58.939999420281659, -35.29768292486434 ], [ -58.949724130117609, -35.290429336779425 ], [ -58.956137465002683, -35.285675159878515 ], [ -58.963283752446046, -35.280439900563977 ], [ -58.973675972647563, -35.273142025431731 ], [ -58.986227785208342, -35.26396265156108 ], [ -59.000376387271125, -35.253435547043324 ], [ -59.013098349532953, -35.244008086041234 ], [ -59.015624418171342, -35.242201565308271 ], [ -59.017352092058765, -35.241292944995109 ], [ -59.039667879771102, -35.233435627097258 ], [ -59.045034139572905, -35.231564724935026 ], [ -59.047154466616526, -35.231169157237964 ], [ -59.049745977447657, -35.231308140702659 ], [ -59.051669977913178, -35.23138297785426 ], [ -59.053737951202642, -35.231094319889131 ], [ -59.055845189807727, -35.230303177979039 ], [ -59.057716836519106, -35.229084376696058 ], [ -59.085372707156154, -35.210137146643859 ], [ -59.087165823236276, -35.209270942945672 ], [ -59.090647347888172, -35.208618610603693 ], [ -59.094770206028578, -35.208190848845817 ], [ -59.09643243772328, -35.207848637816959 ], [ -59.097597308753414, -35.207281847627875 ], [ -59.099141744501239, -35.206116172351066 ], [ -59.10285886104689, -35.203282121379523 ], [ -59.106510535399792, -35.200447971504893 ], [ -59.113159462178622, -35.195421122816143 ], [ -59.116811136531567, -35.192608090894488 ], [ -59.121418266897969, -35.189067596695722 ], [ -59.125672009423788, -35.185794374186848 ], [ -59.127255710487233, -35.183900979409458 ], [ -59.129454568162139, -35.180531269426488 ], [ -59.137359985040874, -35.168163771593676 ], [ -59.139624284908464, -35.164632912325381 ], [ -59.142045646038547, -35.161048398389582 ], [ -59.142700067965592, -35.160310075899389 ], [ -59.143760231487413, -35.159314934982909 ], [ -59.145788939461248, -35.157613536829118 ], [ -59.149833266970411, -35.154467461606004 ], [ -59.151129022385973, -35.153033495801907 ], [ -59.153602737270226, -35.150154786665766 ], [ -59.160068425909451, -35.142449190484477 ], [ -59.163536862122804, -35.138403460437736 ], [ -59.164597025644625, -35.13714046649001 ], [ -59.166049842322678, -35.135834638586509 ], [ -59.172240673752547, -35.131189146594473 ], [ -59.177345164783539, -35.127314132570362 ], [ -59.184177329701903, -35.122111475737412 ], [ -59.188352541596494, -35.11892120492881 ], [ -59.196428108176256, -35.112775834569817 ], [ -59.201310095752042, -35.109092672714638 ], [ -59.208482560072468, -35.103610449134976 ], [ -59.213338370771176, -35.099894748124058 ], [ -59.221845855822814, -35.093405250294012 ], [ -59.223337937816474, -35.09243071014108 ], [ -59.225379734228873, -35.091156293906288 ], [ -59.227774918481884, -35.089710503476773 ], [ -59.243860609448717, -35.079964136352615 ], [ -59.247787141011003, -35.07729707034553 ], [ -59.25072549546347, -35.075310103057724 ], [ -59.258460762641171, -35.069927374488991 ], [ -59.264618872974701, -35.065760202501934 ], [ -59.267949880583366, -35.06358547556956 ], [ -59.270888235035819, -35.061512467639673 ], [ -59.273990194970025, -35.059412622997868 ], [ -59.278204672180216, -35.056428822288552 ], [ -59.279075053343199, -35.055609195464321 ], [ -59.279749107928055, -35.054730632085942 ], [ -59.281123393974866, -35.05224488937349 ], [ -59.283315707430468, -35.04803395429613 ], [ -59.289696321219182, -35.035908892019762 ], [ -59.290324566269156, -35.035040833567663 ], [ -59.292346730023723, -35.03265630456481 ], [ -59.2930600499242, -35.031498845180643 ], [ -59.293668662316378, -35.030486054772986 ], [ -59.294094036568957, -35.030089509078152 ], [ -59.294748458495995, -35.029644732563796 ], [ -59.295507587931368, -35.028969525036544 ], [ -59.296175098296963, -35.02823536449111 ], [ -59.300219425806119, -35.023589100689748 ], [ -59.302405195042468, -35.021064895126393 ], [ -59.303426093248667, -35.019875115163337 ], [ -59.305363182152732, -35.017243603395777 ], [ -59.310657455542582, -35.009739846217229 ], [ -59.312633809762239, -35.006882877720493 ], [ -59.313203156838782, -35.005869782375861 ], [ -59.313556544679379, -35.004577933605589 ], [ -59.314368027868916, -34.997727041968844 ], [ -59.314649429297539, -34.99506801246001 ], [ -59.31565723906521, -34.985921577983731 ], [ -59.31638364740423, -34.97928896963414 ], [ -59.316841742753169, -34.975540798970485 ], [ -59.317254028567213, -34.971958695891992 ], [ -59.317522341557307, -34.969363182015854 ], [ -59.318281470992687, -34.962455711422017 ], [ -59.318373090062458, -34.961425976489295 ], [ -59.318530151324964, -34.960031523141822 ], [ -59.319119131059296, -34.956266380579834 ], [ -59.319695022355077, -34.95228651194121 ], [ -59.320886070262326, -34.943671740987526 ], [ -59.321317988734165, -34.940581789391977 ], [ -59.321789172521619, -34.938317896789997 ], [ -59.322325798501808, -34.936719186168389 ], [ -59.323425227339271, -34.933543131684466 ], [ -59.328712956509818, -34.917596621491136 ], [ -59.331749474251332, -34.908280537145551 ], [ -59.334982318570923, -34.898630621038315 ], [ -59.338882673256158, -34.886789408558833 ], [ -59.341107707808106, -34.880164885339184 ], [ -59.341434918771633, -34.877942275753114 ], [ -59.342796116379901, -34.864648312719666 ], [ -59.34415731398817, -34.851771092924906 ], [ -59.344903354985021, -34.844735563522498 ], [ -59.345793368805829, -34.836840016650129 ], [ -59.345950430068321, -34.836002077430294 ], [ -59.348384879636946, -34.828632142077389 ], [ -59.355812568508938, -34.805911187056964 ], [ -59.357330827379684, -34.801225453322196 ], [ -59.357906718675473, -34.799312393712782 ], [ -59.358351725585869, -34.798269865012799 ], [ -59.364359318876183, -34.785049027765787 ], [ -59.372101130273172, -34.76890168397005 ], [ -59.377676805091646, -34.757031048929456 ], [ -59.382768207684087, -34.746008324453022 ], [ -59.389220807884769, -34.732230539275783 ], [ -59.395123693666747, -34.719590816258894 ], [ -59.402492484565329, -34.703570552892586 ], [ -59.403068375861132, -34.701246334888395 ], [ -59.403788239980862, -34.696597703014525 ], [ -59.404521192539185, -34.690743498814605 ], [ -59.404848403502704, -34.68866644818015 ], [ -59.404992376326653, -34.687105935438154 ], [ -59.404940022572497, -34.683984821705657 ], [ -59.404743695994362, -34.682768631740025 ], [ -59.404193981575659, -34.68139097904983 ], [ -59.399207286491546, -34.671310814984722 ], [ -59.398945517720726, -34.670514252121208 ], [ -59.398827721773849, -34.669400127699717 ], [ -59.399004415694172, -34.668108370482265 ], [ -59.399868252637866, -34.664948862743358 ], [ -59.400843341309155, -34.66132631464059 ], [ -59.400954593036758, -34.659663011421067 ], [ -59.40073863380082, -34.658581038978156 ], [ -59.40005803499669, -34.657127620927056 ], [ -59.399207286491531, -34.656034849087717 ], [ -59.397401081972887, -34.654231474889912 ], [ -59.396576510344786, -34.653219414868069 ], [ -59.395673408085479, -34.651679767945325 ], [ -59.395156414763122, -34.650506171713801 ], [ -59.394096251241294, -34.647814374483232 ], [ -59.393245502736143, -34.645671641413799 ], [ -59.392479829081502, -34.643571924638152 ], [ -59.392322767819003, -34.642931231239899 ], [ -59.392244237187768, -34.641595988753643 ], [ -59.392296590941925, -34.640271493111456 ], [ -59.392682699878883, -34.636922470742661 ], [ -59.392924835991884, -34.635807894721204 ], [ -59.393382931340817, -34.634811763380284 ], [ -59.394168237653268, -34.633724081983495 ], [ -59.39496663240427, -34.6329217731992 ], [ -59.396962619281773, -34.631370979862723 ], [ -59.39925964024571, -34.629507835643132 ], [ -59.401589382306, -34.627639264589767 ], [ -59.40568606356932, -34.624300502606047 ], [ -59.408100880480141, -34.622345648961286 ], [ -59.414592745996437, -34.617057081312751 ], [ -59.416006297358877, -34.615570620776232 ], [ -59.417275875897346, -34.61358324608247 ], [ -59.418185522375943, -34.611638912059036 ], [ -59.418499644900933, -34.610190057374361 ], [ -59.419226053239953, -34.604313588256858 ], [ -59.419716869685224, -34.599691838278055 ], [ -59.421614693273675, -34.582902164355431 ], [ -59.422223305665852, -34.575943408499327 ], [ -59.42241308802469, -34.573362351332818 ], [ -59.422766475865295, -34.571783502334334 ], [ -59.425240190749541, -34.560746887863388 ], [ -59.426319986929165, -34.555723881111476 ], [ -59.426385429121872, -34.554645943140031 ], [ -59.42629381005208, -34.553244602897045 ], [ -59.426136748789595, -34.552161242917052 ], [ -59.425986231746371, -34.551023969254253 ], [ -59.425894612676586, -34.550021430764822 ], [ -59.4259600548693, -34.548452918896352 ], [ -59.426176014105209, -34.547067644997412 ], [ -59.426477048191643, -34.545844057043688 ], [ -59.427085660583806, -34.544334760778078 ], [ -59.427923320650429, -34.542981761217412 ], [ -59.43357098188087, -34.535186761719579 ], [ -59.434382465070406, -34.53400073655007 ], [ -59.435409907495838, -34.532297143562829 ], [ -59.436214846466136, -34.530334733757414 ], [ -59.440880874806012, -34.515696069884619 ], [ -59.44124735108516, -34.514067595423832 ], [ -59.4425692833778, -34.504037216633748 ], [ -59.442595460254886, -34.502893892519523 ], [ -59.442490752746551, -34.501610330725249 ], [ -59.442045745836154, -34.497748739943361 ], [ -59.44174471174972, -34.494739163893655 ], [ -59.441823242380977, -34.493045555413261 ], [ -59.442281337729902, -34.488266589335332 ], [ -59.443171351550703, -34.477898635782907 ], [ -59.4435247393913, -34.476323370875882 ], [ -59.444205338195431, -34.474791235382426 ], [ -59.445134617331846, -34.473313021658001 ], [ -59.447097883112988, -34.470453628828018 ], [ -59.448544155571753, -34.468376461283491 ], [ -59.449964251153467, -34.466261473942531 ], [ -59.451875163180546, -34.463623060019387 ], [ -59.453000768895059, -34.461966589852928 ], [ -59.454139463048122, -34.460315482647445 ], [ -59.455500660656369, -34.458335190089983 ], [ -59.457293776736485, -34.455761279160271 ], [ -59.458301586504142, -34.454309709496968 ], [ -59.459924552883223, -34.452000096832322 ], [ -59.461809288033109, -34.449193939426607 ], [ -59.462712390292445, -34.447904154686242 ], [ -59.463831451787705, -34.445804839027005 ], [ -59.465415152851151, -34.442809580107358 ], [ -59.466717452485987, -34.440294559047508 ], [ -59.467195180492745, -34.438680803945871 ], [ -59.469629630061355, -34.426854644227582 ], [ -59.470663616706098, -34.42195312548732 ], [ -59.472810120626818, -34.411533744564245 ], [ -59.473857195710089, -34.405605455246842 ], [ -59.474550882952755, -34.400216718524483 ], [ -59.47540163145792, -34.394579231742796 ], [ -59.476579590926598, -34.386413922465273 ], [ -59.477364897239063, -34.381672061207389 ], [ -59.478189468867143, -34.37658425313213 ], [ -59.478961686741066, -34.371831032155448 ], [ -59.479760081492053, -34.366829056107498 ], [ -59.48580694009798, -34.329623569816981 ], [ -59.489301553188405, -34.306565825421707 ], [ -59.489288464749862, -34.304381875746024 ], [ -59.488725661892609, -34.302154621046668 ], [ -59.487691675247881, -34.30043548601018 ], [ -59.485898559167758, -34.298478440404764 ], [ -59.475833549929746, -34.288887176463668 ], [ -59.465977955708397, -34.279402967553402 ], [ -59.453504673778873, -34.267440740360897 ], [ -59.449159312183284, -34.26324382341376 ], [ -59.448822284890845, -34.263054524543158 ], [ -59.448403454857534, -34.262943649292509 ], [ -59.447945359508601, -34.262767871156619 ], [ -59.447821019342456, -34.262502851118796 ], [ -59.447830835671354, -34.262129658221149 ], [ -59.447526529475276, -34.261721307573659 ], [ -59.446862291219311, -34.261110130052913 ], [ -59.445363665006376, -34.259660593929517 ], [ -59.439045221300738, -34.253610674441859 ], [ -59.437880350270589, -34.252074461122 ], [ -59.437304458974793, -34.250754593475357 ], [ -59.437068867081052, -34.249110139246021 ], [ -59.437147397712302, -34.247779406049972 ], [ -59.439673466350719, -34.24004342648972 ], [ -59.442552922829726, -34.231505974940447 ], [ -59.444503100172341, -34.225608243722512 ], [ -59.451904612167226, -34.202608558514775 ], [ -59.452873156619269, -34.198408408862299 ], [ -59.453933320141083, -34.196979444267313 ], [ -59.456812776620097, -34.193287840307541 ], [ -59.4604251856574, -34.188480934882975 ], [ -59.466393513632092, -34.180230607289261 ], [ -59.472990086656736, -34.171243111925975 ], [ -59.475948073766993, -34.16710637675407 ], [ -59.476628672571124, -34.166001769193677 ], [ -59.481602279216688, -34.153026963310786 ], [ -59.485162334499833, -34.145878054940155 ], [ -59.490816539949535, -34.134156868967175 ], [ -59.499926093174018, -34.115499281463009 ], [ -59.500659045732327, -34.113202011607314 ], [ -59.501967889586417, -34.100847698226424 ], [ -59.502831726530125, -34.084535074479 ], [ -59.503237468124915, -34.077174396626368 ], [ -59.503787182543647, -34.075201322707308 ], [ -59.505541033308134, -34.072859592919386 ], [ -59.510252871182885, -34.069173405625875 ], [ -59.519336247530298, -34.061778864070426 ], [ -59.520854506401051, -34.059631940819997 ], [ -59.521692166467673, -34.056140363636999 ], [ -59.522346588394718, -34.051217212324779 ], [ -59.525186779558084, -34.03024181869138 ], [ -59.525422371451839, -34.027942235674651 ], [ -59.52544854832891, -34.024677154618338 ], [ -59.525788847730986, -33.999137935748706 ], [ -59.525134425803941, -33.995643868479299 ], [ -59.523275867531105, -33.986940629040866 ], [ -59.52217643869367, -33.981666162415664 ], [ -59.522150261816584, -33.978822589889532 ], [ -59.522438207464482, -33.961607177600769 ], [ -59.522647622481145, -33.951793050472489 ], [ -59.522778506866565, -33.945691219411373 ], [ -59.522883214374907, -33.939046023260062 ], [ -59.522886486484502, -33.937400931370682 ], [ -59.522650894590782, -33.935799243712893 ], [ -59.521571098411151, -33.931086306642058 ], [ -59.519935043593534, -33.923788341111859 ], [ -59.518194281267562, -33.916598364888848 ], [ -59.517487505586367, -33.913557104747994 ], [ -59.517369709639489, -33.912688153343822 ], [ -59.517356621200946, -33.911210915623165 ], [ -59.517539859340523, -33.909722789972612 ], [ -59.517840893426964, -33.908527925753873 ], [ -59.518456050038381, -33.90681163693165 ], [ -59.524463643328708, -33.894937882484619 ], [ -59.526989711967104, -33.891352617925087 ], [ -59.531034039476275, -33.885811458075977 ], [ -59.534502475689621, -33.88112835412894 ], [ -59.545470587186941, -33.86650150698307 ], [ -59.546085743798386, -33.865675547836027 ], [ -59.546596192901475, -33.864719164103889 ], [ -59.546936492303551, -33.863610615009016 ], [ -59.547093553566043, -33.862415104756671 ], [ -59.546936492303551, -33.861067418584014 ], [ -59.546609281340018, -33.859915347412063 ], [ -59.545771621273403, -33.858621965973342 ], [ -59.54405703582453, -33.85645904063891 ], [ -59.542450200650777, -33.854697540398305 ], [ -59.54117098971183, -33.853174488828152 ], [ -59.540667384563235, -33.852642197146793 ], [ -59.540317284727308, -33.85225080408842 ], [ -59.54033478971914, -33.851901903621616 ], [ -59.540420968140289, -33.851510507171163 ], [ -59.540469443502175, -33.851052011905502 ], [ -59.540237838995345, -33.849951613227333 ], [ -59.539831184570545, -33.847927468885949 ], [ -59.539938907596984, -33.846914260392296 ], [ -59.540165125952512, -33.846189574099093 ], [ -59.540649879571475, -33.845404490344947 ], [ -59.541263900822159, -33.844702158594004 ], [ -59.543070954590654, -33.843297477772801 ], [ -59.546227239265271, -33.84080567822965 ], [ -59.547261380319057, -33.839374090871338 ], [ -59.5477138170301, -33.837119292151961 ], [ -59.547218291108472, -33.835204456054896 ], [ -59.544869929132147, -33.831625208134135 ], [ -59.54163823833904, -33.827401502827406 ], [ -59.537135415833966, -33.82185309828521 ], [ -59.531684630696247, -33.815212437677324 ], [ -59.514125777387001, -33.79349692203661 ], [ -59.512946210247499, -33.792574830552176 ], [ -59.51077559126481, -33.791684062842393 ], [ -59.509095112052378, -33.791290152558041 ], [ -59.508217169386924, -33.791388630299032 ], [ -59.507538514320373, -33.791558727948498 ], [ -59.507080691458015, -33.791863112372504 ], [ -59.506849086951185, -33.792167495714345 ] ] } }
]
}
