{
 "type": "FeatureCollection",
 "name": "rp41_traza_completa",
 "xy_coordinate_resolution": 1e-06,
 "features": [
  {
   "type": "Feature",
   "properties": {
    "fid": 1,
    "id": null
   },
   "geometry": {
    "type": "LineString",
    "coordinates": [
     [
      -57.82031,
      -36.073293
     ],
     [
      -57.820378,
      -36.073557
     ],
     [
      -57.820647,
      -36.07375
     ],
     [
      -57.821049,
      -36.07379
     ],
     [
      -57.822469,
      -36.073732
     ],
     [
      -57.824141,
      -36.073679
     ],
     [
      -57.825296,
      -36.07356
     ],
     [
      -57.826252,
      -36.073383
     ],
     [
      -57.827371,
      -36.073066
     ],
     [
      -57.836693,
      -36.06963
     ],
     [
      -57.843421,
      -36.067123
     ],
     [
      -57.850083,
      -36.06471
     ],
     [
      -57.851509,
      -36.064192
     ],
     [
      -57.853289,
      -36.063906
     ],
     [
      -57.855279,
      -36.063822
     ],
     [
      -57.868734,
      -36.063716
     ],
     [
      -57.884374,
      -36.063536
     ],
     [
      -57.944712,
      -36.06288
     ],
     [
      -57.946067,
      -36.062854
     ],
     [
      -57.946924,
      -36.062901
     ],
     [
      -57.949443,
      -36.062854
     ],
     [
      -57.95479,
      -36.06279
     ],
     [
      -57.967126,
      -36.062652
     ],
     [
      -57.973801,
      -36.062578
     ],
     [
      -57.975175,
      -36.062462
     ],
     [
      -57.976537,
      -36.06225
     ],
     [
      -57.981078,
      -36.061076
     ],
     [
      -57.991523,
      -36.058441
     ],
     [
      -58.010593,
      -36.053606
     ],
     [
      -58.012922,
      -36.053024
     ],
     [
      -58.014362,
      -36.052706
     ],
     [
      -58.025985,
      -36.051013
     ],
     [
      -58.027097,
      -36.050886
     ],
     [
      -58.03122,
      -36.050304
     ],
     [
      -58.032935,
      -36.049976
     ],
     [
      -58.034859,
      -36.049733
     ],
     [
      -58.035539,
      -36.049712
     ],
     [
      -58.036325,
      -36.049595
     ],
     [
      -58.036691,
      -36.049574
     ],
     [
      -58.037463,
      -36.0495
     ],
     [
      -58.039099,
      -36.04913
     ],
     [
      -58.04296,
      -36.048664
     ],
     [
      -58.044308,
      -36.048505
     ],
     [
      -58.045382,
      -36.048368
     ],
     [
      -58.046926,
      -36.048082
     ],
     [
      -58.047528,
      -36.048082
     ],
     [
      -58.048085,
      -36.047976
     ],
     [
      -58.049197,
      -36.047796
     ],
     [
      -58.050408,
      -36.047526
     ],
     [
      -58.051121,
      -36.047447
     ],
     [
      -58.051893,
      -36.047341
     ],
     [
      -58.052744,
      -36.047135
     ],
     [
      -58.054223,
      -36.046987
     ],
     [
      -58.055512,
      -36.046913
     ],
     [
      -58.056121,
      -36.04677
     ],
     [
      -58.056762,
      -36.046622
     ],
     [
      -58.058496,
      -36.046426
     ],
     [
      -58.060172,
      -36.046219
     ],
     [
      -58.062357,
      -36.045997
     ],
     [
      -58.063405,
      -36.045854
     ],
     [
      -58.065564,
      -36.045521
     ],
     [
      -58.066291,
      -36.045405
     ],
     [
      -58.067612,
      -36.045225
     ],
     [
      -58.068836,
      -36.04504
     ],
     [
      -58.070014,
      -36.044891
     ],
     [
      -58.072305,
      -36.044569
     ],
     [
      -58.076715,
      -36.043976
     ],
     [
      -58.07756,
      -36.043854
     ],
     [
      -58.078777,
      -36.043658
     ],
     [
      -58.080053,
      -36.043494
     ],
     [
      -58.084366,
      -36.042944
     ],
     [
      -58.090916,
      -36.042034
     ],
     [
      -58.100078,
      -36.040743
     ],
     [
      -58.134154,
      -36.035991
     ],
     [
      -58.142059,
      -36.034879
     ],
     [
      -58.143525,
      -36.034689
     ],
     [
      -58.144887,
      -36.034435
     ],
     [
      -58.146496,
      -36.033705
     ],
     [
      -58.189819,
      -36.001744
     ],
     [
      -58.196128,
      -35.997043
     ],
     [
      -58.197895,
      -35.995359
     ],
     [
      -58.201442,
      -35.991579
     ],
     [
      -58.209269,
      -35.985002
     ],
     [
      -58.217671,
      -35.977948
     ],
     [
      -58.22432,
      -35.97333
     ],
     [
      -58.236872,
      -35.964379
     ],
     [
      -58.243233,
      -35.959411
     ],
     [
      -58.24983,
      -35.954219
     ],
     [
      -58.250995,
      -35.953435
     ],
     [
      -58.268062,
      -35.94302
     ],
     [
      -58.277093,
      -35.937478
     ],
     [
      -58.285038,
      -35.932528
     ],
     [
      -58.295574,
      -35.924548
     ],
     [
      -58.303283,
      -35.91874
     ],
     [
      -58.311738,
      -35.912316
     ],
     [
      -58.316528,
      -35.908796
     ],
     [
      -58.326476,
      -35.901259
     ],
     [
      -58.338883,
      -35.891928
     ],
     [
      -58.343818,
      -35.888281
     ],
     [
      -58.346763,
      -35.886701
     ],
     [
      -58.373489,
      -35.876043
     ],
     [
      -58.378829,
      -35.873943
     ],
     [
      -58.411446,
      -35.860993
     ],
     [
      -58.412846,
      -35.860356
     ],
     [
      -58.413749,
      -35.859805
     ],
     [
      -58.414652,
      -35.858977
     ],
     [
      -58.426249,
      -35.842364
     ],
     [
      -58.426615,
      -35.841865
     ],
     [
      -58.427715,
      -35.840677
     ],
     [
      -58.429089,
      -35.839446
     ],
     [
      -58.430974,
      -35.838024
     ],
     [
      -58.458407,
      -35.81765
     ],
     [
      -58.45948,
      -35.816641
     ],
     [
      -58.474519,
      -35.798522
     ],
     [
      -58.475841,
      -35.797153
     ],
     [
      -58.477621,
      -35.795762
     ],
     [
      -58.478786,
      -35.794892
     ],
     [
      -58.49834,
      -35.780643
     ],
     [
      -58.498507,
      -35.780471
     ],
     [
      -58.498644,
      -35.78024
     ],
     [
      -58.498769,
      -35.780091
     ],
     [
      -58.499001,
      -35.780038
     ],
     [
      -58.49921,
      -35.779964
     ],
     [
      -58.502028,
      -35.77788
     ],
     [
      -58.508101,
      -35.77347
     ],
     [
      -58.508284,
      -35.773232
     ],
     [
      -58.508349,
      -35.773086
     ],
     [
      -58.508542,
      -35.773064
     ],
     [
      -58.508732,
      -35.77307
     ],
     [
      -58.508866,
      -35.773011
     ],
     [
      -58.513653,
      -35.769446
     ],
     [
      -58.513853,
      -35.769255
     ],
     [
      -58.513899,
      -35.76884
     ],
     [
      -58.514174,
      -35.768538
     ],
     [
      -58.514684,
      -35.768442
     ],
     [
      -58.515129,
      -35.768347
     ],
     [
      -58.515869,
      -35.767858
     ],
     [
      -58.517014,
      -35.767062
     ],
     [
      -58.517636,
      -35.766531
     ],
     [
      -58.517995,
      -35.766127
     ],
     [
      -58.518414,
      -35.765484
     ],
     [
      -58.522426,
      -35.754736
     ],
     [
      -58.522576,
      -35.754072
     ],
     [
      -58.525299,
      -35.738664
     ],
     [
      -58.525528,
      -35.738101
     ],
     [
      -58.525973,
      -35.737479
     ],
     [
      -58.533688,
      -35.728884
     ],
     [
      -58.535377,
      -35.727381
     ],
     [
      -58.538728,
      -35.724682
     ],
     [
      -58.539434,
      -35.724183
     ],
     [
      -58.540494,
      -35.723577
     ],
     [
      -58.554159,
      -35.71582
     ],
     [
      -58.554944,
      -35.715395
     ],
     [
      -58.555703,
      -35.715086
     ],
     [
      -58.557182,
      -35.714725
     ],
     [
      -58.563164,
      -35.713067
     ],
     [
      -58.564171,
      -35.712589
     ],
     [
      -58.56476,
      -35.711983
     ],
     [
      -58.565192,
      -35.711069
     ],
     [
      -58.569917,
      -35.653278
     ],
     [
      -58.570009,
      -35.651714
     ],
     [
      -58.569786,
      -35.650098
     ],
     [
      -58.566724,
      -35.629409
     ],
     [
      -58.566776,
      -35.628483
     ],
     [
      -58.567195,
      -35.627537
     ],
     [
      -58.567758,
      -35.62693
     ],
     [
      -58.588163,
      -35.613152
     ],
     [
      -58.590558,
      -35.612003
     ],
     [
      -58.601487,
      -35.605235
     ],
     [
      -58.601971,
      -35.604916
     ],
     [
      -58.620308,
      -35.592262
     ],
     [
      -58.620884,
      -35.591826
     ],
     [
      -58.63032,
      -35.5828
     ],
     [
      -58.636433,
      -35.576966
     ],
     [
      -58.640124,
      -35.573666
     ],
     [
      -58.641943,
      -35.571356
     ],
     [
      -58.645451,
      -35.567342
     ],
     [
      -58.64956,
      -35.562572
     ],
     [
      -58.654678,
      -35.55596
     ],
     [
      -58.659102,
      -35.551328
     ],
     [
      -58.66688,
      -35.543022
     ],
     [
      -58.683358,
      -35.525397
     ],
     [
      -58.691368,
      -35.516939
     ],
     [
      -58.69413,
      -35.513956
     ],
     [
      -58.702205,
      -35.505337
     ],
     [
      -58.703043,
      -35.503781
     ],
     [
      -58.703632,
      -35.501746
     ],
     [
      -58.707336,
      -35.488735
     ],
     [
      -58.707781,
      -35.487904
     ],
     [
      -58.709024,
      -35.486582
     ],
     [
      -58.710739,
      -35.485452
     ],
     [
      -58.712035,
      -35.484749
     ],
     [
      -58.727885,
      -35.476382
     ],
     [
      -58.738277,
      -35.470541
     ],
     [
      -58.752727,
      -35.463399
     ],
     [
      -58.755057,
      -35.462163
     ],
     [
      -58.756601,
      -35.46083
     ],
     [
      -58.765868,
      -35.452066
     ],
     [
      -58.779794,
      -35.438919
     ],
     [
      -58.77997,
      -35.438719
     ],
     [
      -58.77999,
      -35.438469
     ],
     [
      -58.780049,
      -35.438234
     ],
     [
      -58.780294,
      -35.438093
     ],
     [
      -58.780697,
      -35.437973
     ],
     [
      -58.781103,
      -35.437696
     ],
     [
      -58.78518,
      -35.433859
     ],
     [
      -58.788471,
      -35.430729
     ],
     [
      -58.792509,
      -35.42682
     ],
     [
      -58.7937,
      -35.424538
     ],
     [
      -58.794485,
      -35.41944
     ],
     [
      -58.795428,
      -35.416485
     ],
     [
      -58.795663,
      -35.415972
     ],
     [
      -58.796622,
      -35.413684
     ],
     [
      -58.797218,
      -35.412671
     ],
     [
      -58.797761,
      -35.411817
     ],
     [
      -58.801648,
      -35.406297
     ],
     [
      -58.804135,
      -35.402787
     ],
     [
      -58.808965,
      -35.396044
     ],
     [
      -58.809468,
      -35.395255
     ],
     [
      -58.809999,
      -35.394001
     ],
     [
      -58.81026,
      -35.392923
     ],
     [
      -58.810764,
      -35.392096
     ],
     [
      -58.810686,
      -35.39175
     ],
     [
      -58.811,
      -35.391435
     ],
     [
      -58.811438,
      -35.391334
     ],
     [
      -58.81187,
      -35.391275
     ],
     [
      -58.812498,
      -35.390752
     ],
     [
      -58.813833,
      -35.38961
     ],
     [
      -58.815168,
      -35.38865
     ],
     [
      -58.818473,
      -35.386921
     ],
     [
      -58.827249,
      -35.382397
     ],
     [
      -58.829677,
      -35.381132
     ],
     [
      -58.831221,
      -35.380215
     ],
     [
      -58.832602,
      -35.379228
     ],
     [
      -58.836084,
      -35.376474
     ],
     [
      -58.853393,
      -35.362797
     ],
     [
      -58.859401,
      -35.358101
     ],
     [
      -58.861299,
      -35.356585
     ],
     [
      -58.868955,
      -35.350543
     ],
     [
      -58.878484,
      -35.343081
     ],
     [
      -58.884308,
      -35.338458
     ],
     [
      -58.892606,
      -35.331752
     ],
     [
      -58.894177,
      -35.330439
     ],
     [
      -58.897331,
      -35.3281
     ],
     [
      -58.914569,
      -35.315574
     ],
     [
      -58.920668,
      -35.311473
     ],
     [
      -58.923573,
      -35.309529
     ],
     [
      -58.925746,
      -35.308087
     ],
     [
      -58.931871,
      -35.303622
     ],
     [
      -58.939999,
      -35.297683
     ],
     [
      -58.949724,
      -35.290429
     ],
     [
      -58.956137,
      -35.285675
     ],
     [
      -58.963284,
      -35.28044
     ],
     [
      -58.973676,
      -35.273142
     ],
     [
      -58.986228,
      -35.263963
     ],
     [
      -59.000376,
      -35.253436
     ],
     [
      -59.013098,
      -35.244008
     ],
     [
      -59.015624,
      -35.242202
     ],
     [
      -59.017352,
      -35.241293
     ],
     [
      -59.039668,
      -35.233436
     ],
     [
      -59.045034,
      -35.231565
     ],
     [
      -59.047154,
      -35.231169
     ],
     [
      -59.049746,
      -35.231308
     ],
     [
      -59.05167,
      -35.231383
     ],
     [
      -59.053738,
      -35.231094
     ],
     [
      -59.055845,
      -35.230303
     ],
     [
      -59.057717,
      -35.229084
     ],
     [
      -59.085373,
      -35.210137
     ],
     [
      -59.087166,
      -35.209271
     ],
     [
      -59.090647,
      -35.208619
     ],
     [
      -59.09477,
      -35.208191
     ],
     [
      -59.096432,
      -35.207849
     ],
     [
      -59.097597,
      -35.207282
     ],
     [
      -59.099142,
      -35.206116
     ],
     [
      -59.102859,
      -35.203282
     ],
     [
      -59.106511,
      -35.200448
     ],
     [
      -59.113159,
      -35.195421
     ],
     [
      -59.116811,
      -35.192608
     ],
     [
      -59.121418,
      -35.189068
     ],
     [
      -59.125672,
      -35.185794
     ],
     [
      -59.127256,
      -35.183901
     ],
     [
      -59.129455,
      -35.180531
     ],
     [
      -59.13736,
      -35.168164
     ],
     [
      -59.139624,
      -35.164633
     ],
     [
      -59.142046,
      -35.161048
     ],
     [
      -59.1427,
      -35.16031
     ],
     [
      -59.14376,
      -35.159315
     ],
     [
      -59.145789,
      -35.157614
     ],
     [
      -59.149833,
      -35.154467
     ],
     [
      -59.151129,
      -35.153033
     ],
     [
      -59.153603,
      -35.150155
     ],
     [
      -59.160068,
      -35.142449
     ],
     [
      -59.163537,
      -35.138403
     ],
     [
      -59.164597,
      -35.13714
     ],
     [
      -59.16605,
      -35.135835
     ],
     [
      -59.172241,
      -35.131189
     ],
     [
      -59.177345,
      -35.127314
     ],
     [
      -59.184177,
      -35.122111
     ],
     [
      -59.188353,
      -35.118921
     ],
     [
      -59.196428,
      -35.112776
     ],
     [
      -59.20131,
      -35.109093
     ],
     [
      -59.208483,
      -35.10361
     ],
     [
      -59.213338,
      -35.099895
     ],
     [
      -59.221846,
      -35.093405
     ],
     [
      -59.223338,
      -35.092431
     ],
     [
      -59.22538,
      -35.091156
     ],
     [
      -59.227775,
      -35.089711
     ],
     [
      -59.243861,
      -35.079964
     ],
     [
      -59.247787,
      -35.077297
     ],
     [
      -59.250725,
      -35.07531
     ],
     [
      -59.258461,
      -35.069927
     ],
     [
      -59.264619,
      -35.06576
     ],
     [
      -59.26795,
      -35.063585
     ],
     [
      -59.270888,
      -35.061512
     ],
     [
      -59.27399,
      -35.059413
     ],
     [
      -59.278205,
      -35.056429
     ],
     [
      -59.279075,
      -35.055609
     ],
     [
      -59.279749,
      -35.054731
     ],
     [
      -59.281123,
      -35.052245
     ],
     [
      -59.283316,
      -35.048034
     ],
     [
      -59.289696,
      -35.035909
     ],
     [
      -59.290325,
      -35.035041
     ],
     [
      -59.292347,
      -35.032656
     ],
     [
      -59.29306,
      -35.031499
     ],
     [
      -59.293669,
      -35.030486
     ],
     [
      -59.294094,
      -35.03009
     ],
     [
      -59.294748,
      -35.029645
     ],
     [
      -59.295508,
      -35.02897
     ],
     [
      -59.296175,
      -35.028235
     ],
     [
      -59.300219,
      -35.023589
     ],
     [
      -59.302405,
      -35.021065
     ],
     [
      -59.303426,
      -35.019875
     ],
     [
      -59.305363,
      -35.017244
     ],
     [
      -59.310657,
      -35.00974
     ],
     [
      -59.312634,
      -35.006883
     ],
     [
      -59.313203,
      -35.00587
     ],
     [
      -59.313557,
      -35.004578
     ],
     [
      -59.314368,
      -34.997727
     ],
     [
      -59.314649,
      -34.995068
     ],
     [
      -59.315657,
      -34.985922
     ],
     [
      -59.316384,
      -34.979289
     ],
     [
      -59.316842,
      -34.975541
     ],
     [
      -59.317254,
      -34.971959
     ],
     [
      -59.317522,
      -34.969363
     ],
     [
      -59.318281,
      -34.962456
     ],
     [
      -59.318373,
      -34.961426
     ],
     [
      -59.31853,
      -34.960032
     ],
     [
      -59.319119,
      -34.956266
     ],
     [
      -59.319695,
      -34.952287
     ],
     [
      -59.320886,
      -34.943672
     ],
     [
      -59.321318,
      -34.940582
     ],
     [
      -59.321789,
      -34.938318
     ],
     [
      -59.322326,
      -34.936719
     ],
     [
      -59.323425,
      -34.933543
     ],
     [
      -59.328713,
      -34.917597
     ],
     [
      -59.331749,
      -34.908281
     ],
     [
      -59.334982,
      -34.898631
     ],
     [
      -59.338883,
      -34.886789
     ],
     [
      -59.341108,
      -34.880165
     ],
     [
      -59.341435,
      -34.877942
     ],
     [
      -59.342796,
      -34.864648
     ],
     [
      -59.344157,
      -34.851771
     ],
     [
      -59.344903,
      -34.844736
     ],
     [
      -59.345793,
      -34.83684
     ],
     [
      -59.34595,
      -34.836002
     ],
     [
      -59.348385,
      -34.828632
     ],
     [
      -59.355813,
      -34.805911
     ],
     [
      -59.357331,
      -34.801225
     ],
     [
      -59.357907,
      -34.799312
     ],
     [
      -59.358352,
      -34.79827
     ],
     [
      -59.364359,
      -34.785049
     ],
     [
      -59.372101,
      -34.768902
     ],
     [
      -59.377677,
      -34.757031
     ],
     [
      -59.382768,
      -34.746008
     ],
     [
      -59.389221,
      -34.732231
     ],
     [
      -59.395124,
      -34.719591
     ],
     [
      -59.402492,
      -34.703571
     ],
     [
      -59.403068,
      -34.701246
     ],
     [
      -59.403788,
      -34.696598
     ],
     [
      -59.404521,
      -34.690743
     ],
     [
      -59.404848,
      -34.688666
     ],
     [
      -59.404992,
      -34.687106
     ],
     [
      -59.40494,
      -34.683985
     ],
     [
      -59.404744,
      -34.682769
     ],
     [
      -59.404194,
      -34.681391
     ],
     [
      -59.399207,
      -34.671311
     ],
     [
      -59.398946,
      -34.670514
     ],
     [
      -59.398828,
      -34.6694
     ],
     [
      -59.399004,
      -34.668108
     ],
     [
      -59.399868,
      -34.664949
     ],
     [
      -59.400843,
      -34.661326
     ],
     [
      -59.400955,
      -34.659663
     ],
     [
      -59.400739,
      -34.658581
     ],
     [
      -59.400058,
      -34.657128
     ],
     [
      -59.399207,
      -34.656035
     ],
     [
      -59.397401,
      -34.654231
     ],
     [
      -59.396577,
      -34.653219
     ],
     [
      -59.395673,
      -34.65168
     ],
     [
      -59.395156,
      -34.650506
     ],
     [
      -59.394096,
      -34.647814
     ],
     [
      -59.393246,
      -34.645672
     ],
     [
      -59.39248,
      -34.643572
     ],
     [
      -59.392323,
      -34.642931
     ],
     [
      -59.392244,
      -34.641596
     ],
     [
      -59.392297,
      -34.640271
     ],
     [
      -59.392683,
      -34.636922
     ],
     [
      -59.392925,
      -34.635808
     ],
     [
      -59.393383,
      -34.634812
     ],
     [
      -59.394168,
      -34.633724
     ],
     [
      -59.394967,
      -34.632922
     ],
     [
      -59.396963,
      -34.631371
     ],
     [
      -59.39926,
      -34.629508
     ],
     [
      -59.401589,
      -34.627639
     ],
     [
      -59.405686,
      -34.624301
     ],
     [
      -59.408101,
      -34.622346
     ],
     [
      -59.414593,
      -34.617057
     ],
     [
      -59.416006,
      -34.615571
     ],
     [
      -59.417276,
      -34.613583
     ],
     [
      -59.418186,
      -34.611639
     ],
     [
      -59.4185,
      -34.61019
     ],
     [
      -59.419226,
      -34.604314
     ],
     [
      -59.419717,
      -34.599692
     ],
     [
      -59.421615,
      -34.582902
     ],
     [
      -59.422223,
      -34.575943
     ],
     [
      -59.422413,
      -34.573362
     ],
     [
      -59.422766,
      -34.571784
     ],
     [
      -59.42524,
      -34.560747
     ],
     [
      -59.42632,
      -34.555724
     ],
     [
      -59.426385,
      -34.554646
     ],
     [
      -59.426294,
      -34.553245
     ],
     [
      -59.426137,
      -34.552161
     ],
     [
      -59.425986,
      -34.551024
     ],
     [
      -59.425895,
      -34.550021
     ],
     [
      -59.42596,
      -34.548453
     ],
     [
      -59.426176,
      -34.547068
     ],
     [
      -59.426477,
      -34.545844
     ],
     [
      -59.427086,
      -34.544335
     ],
     [
      -59.427923,
      -34.542982
     ],
     [
      -59.433571,
      -34.535187
     ],
     [
      -59.434382,
      -34.534001
     ],
     [
      -59.43541,
      -34.532297
     ],
     [
      -59.436215,
      -34.530335
     ],
     [
      -59.440881,
      -34.515696
     ],
     [
      -59.441247,
      -34.514068
     ],
     [
      -59.442569,
      -34.504037
     ],
     [
      -59.442595,
      -34.502894
     ],
     [
      -59.442491,
      -34.50161
     ],
     [
      -59.442046,
      -34.497749
     ],
     [
      -59.441745,
      -34.494739
     ],
     [
      -59.441823,
      -34.493046
     ],
     [
      -59.442281,
      -34.488267
     ],
     [
      -59.443171,
      -34.477899
     ],
     [
      -59.443525,
      -34.476323
     ],
     [
      -59.444205,
      -34.474791
     ],
     [
      -59.445135,
      -34.473313
     ],
     [
      -59.447098,
      -34.470454
     ],
     [
      -59.448544,
      -34.468376
     ],
     [
      -59.449964,
      -34.466261
     ],
     [
      -59.451875,
      -34.463623
     ],
     [
      -59.453001,
      -34.461967
     ],
     [
      -59.454139,
      -34.460315
     ],
     [
      -59.455501,
      -34.458335
     ],
     [
      -59.457294,
      -34.455761
     ],
     [
      -59.458302,
      -34.45431
     ],
     [
      -59.459925,
      -34.452
     ],
     [
      -59.461809,
      -34.449194
     ],
     [
      -59.462712,
      -34.447904
     ],
     [
      -59.463831,
      -34.445805
     ],
     [
      -59.465415,
      -34.44281
     ],
     [
      -59.466717,
      -34.440295
     ],
     [
      -59.467195,
      -34.438681
     ],
     [
      -59.46963,
      -34.426855
     ],
     [
      -59.470664,
      -34.421953
     ],
     [
      -59.47281,
      -34.411534
     ],
     [
      -59.473857,
      -34.405605
     ],
     [
      -59.474551,
      -34.400217
     ],
     [
      -59.475402,
      -34.394579
     ],
     [
      -59.47658,
      -34.386414
     ],
     [
      -59.477365,
      -34.381672
     ],
     [
      -59.478189,
      -34.376584
     ],
     [
      -59.478962,
      -34.371831
     ],
     [
      -59.47976,
      -34.366829
     ],
     [
      -59.485807,
      -34.329624
     ],
     [
      -59.489302,
      -34.306566
     ],
     [
      -59.489288,
      -34.304382
     ],
     [
      -59.488726,
      -34.302155
     ],
     [
      -59.487692,
      -34.300435
     ],
     [
      -59.485899,
      -34.298478
     ],
     [
      -59.475834,
      -34.288887
     ],
     [
      -59.465978,
      -34.279403
     ],
     [
      -59.453505,
      -34.267441
     ],
     [
      -59.449159,
      -34.263244
     ],
     [
      -59.448822,
      -34.263055
     ],
     [
      -59.448403,
      -34.262944
     ],
     [
      -59.447945,
      -34.262768
     ],
     [
      -59.447821,
      -34.262503
     ],
     [
      -59.447831,
      -34.26213
     ],
     [
      -59.447527,
      -34.261721
     ],
     [
      -59.446862,
      -34.26111
     ],
     [
      -59.445364,
      -34.259661
     ],
     [
      -59.439045,
      -34.253611
     ],
     [
      -59.43788,
      -34.252074
     ],
     [
      -59.437304,
      -34.250755
     ],
     [
      -59.437069,
      -34.24911
     ],
     [
      -59.437147,
      -34.247779
     ],
     [
      -59.439673,
      -34.240043
     ],
     [
      -59.442553,
      -34.231506
     ],
     [
      -59.444503,
      -34.225608
     ],
     [
      -59.451905,
      -34.202609
     ],
     [
      -59.452873,
      -34.198408
     ],
     [
      -59.453933,
      -34.196979
     ],
     [
      -59.456813,
      -34.193288
     ],
     [
      -59.460425,
      -34.188481
     ],
     [
      -59.466394,
      -34.180231
     ],
     [
      -59.47299,
      -34.171243
     ],
     [
      -59.475948,
      -34.167106
     ],
     [
      -59.476629,
      -34.166002
     ],
     [
      -59.481602,
      -34.153027
     ],
     [
      -59.485162,
      -34.145878
     ],
     [
      -59.490817,
      -34.134157
     ],
     [
      -59.499926,
      -34.115499
     ],
     [
      -59.500659,
      -34.113202
     ],
     [
      -59.501968,
      -34.100848
     ],
     [
      -59.502832,
      -34.084535
     ],
     [
      -59.503237,
      -34.077174
     ],
     [
      -59.503787,
      -34.075201
     ],
     [
      -59.505541,
      -34.07286
     ],
     [
      -59.510253,
      -34.069173
     ],
     [
      -59.519336,
      -34.061779
     ],
     [
      -59.520855,
      -34.059632
     ],
     [
      -59.521692,
      -34.05614
     ],
     [
      -59.522347,
      -34.051217
     ],
     [
      -59.525187,
      -34.030242
     ],
     [
      -59.525422,
      -34.027942
     ],
     [
      -59.525449,
      -34.024677
     ],
     [
      -59.525789,
      -33.999138
     ],
     [
      -59.525134,
      -33.995644
     ],
     [
      -59.523276,
      -33.986941
     ],
     [
      -59.522176,
      -33.981666
     ],
     [
      -59.52215,
      -33.978823
     ],
     [
      -59.522438,
      -33.961607
     ],
     [
      -59.522648,
      -33.951793
     ],
     [
      -59.522779,
      -33.945691
     ],
     [
      -59.522883,
      -33.939046
     ],
     [
      -59.522886,
      -33.937401
     ],
     [
      -59.522651,
      -33.935799
     ],
     [
      -59.521571,
      -33.931086
     ],
     [
      -59.519935,
      -33.923788
     ],
     [
      -59.518194,
      -33.916598
     ],
     [
      -59.517488,
      -33.913557
     ],
     [
      -59.51737,
      -33.912688
     ],
     [
      -59.517357,
      -33.911211
     ],
     [
      -59.51754,
      -33.909723
     ],
     [
      -59.517841,
      -33.908528
     ],
     [
      -59.518456,
      -33.906812
     ],
     [
      -59.524464,
      -33.894938
     ],
     [
      -59.52699,
      -33.891353
     ],
     [
      -59.531034,
      -33.885811
     ],
     [
      -59.534502,
      -33.881128
     ],
     [
      -59.545471,
      -33.866502
     ],
     [
      -59.546086,
      -33.865676
     ],
     [
      -59.546596,
      -33.864719
     ],
     [
      -59.546936,
      -33.863611
     ],
     [
      -59.547094,
      -33.862415
     ],
     [
      -59.546936,
      -33.861067
     ],
     [
      -59.546609,
      -33.859915
     ],
     [
      -59.545772,
      -33.858622
     ],
     [
      -59.544057,
      -33.856459
     ],
     [
      -59.54245,
      -33.854698
     ],
     [
      -59.541171,
      -33.853174
     ],
     [
      -59.540667,
      -33.852642
     ],
     [
      -59.540317,
      -33.852251
     ],
     [
      -59.540335,
      -33.851902
     ],
     [
      -59.540421,
      -33.851511
     ],
     [
      -59.540469,
      -33.851052
     ],
     [
      -59.540238,
      -33.849952
     ],
     [
      -59.539831,
      -33.847927
     ],
     [
      -59.539939,
      -33.846914
     ],
     [
      -59.540165,
      -33.84619
     ],
     [
      -59.54065,
      -33.845404
     ],
     [
      -59.541264,
      -33.844702
     ],
     [
      -59.543071,
      -33.843297
     ],
     [
      -59.546227,
      -33.840806
     ],
     [
      -59.547261,
      -33.839374
     ],
     [
      -59.547714,
      -33.837119
     ],
     [
      -59.547218,
      -33.835204
     ],
     [
      -59.54487,
      -33.831625
     ],
     [
      -59.541638,
      -33.827402
     ],
     [
      -59.537135,
      -33.821853
     ],
     [
      -59.531685,
      -33.815212
     ],
     [
      -59.514126,
      -33.793497
     ],
     [
      -59.512946,
      -33.792575
     ],
     [
      -59.510776,
      -33.791684
     ],
     [
      -59.509095,
      -33.79129
     ],
     [
      -59.508217,
      -33.791389
     ],
     [
      -59.507539,
      -33.791559
     ],
     [
      -59.507081,
      -33.791863
     ],
     [
      -59.506849,
      -33.792167
     ]
    ]
   }
  }
 ]
}