{
"type": "FeatureCollection",
"name": "rp46_traza_zonavi",
"xy_coordinate_resolution": 1e-06,
"features": [
{ "type": "Feature", "properties": { "fid": 2, "fdc": "DVP Buenos Aires", "sag": "IGN", "es_gap": 0 }, "geometry": { "type": "MultiLineString", "coordinates": [ [ [ -60.081579, -35.457958 ], [ -60.081767, -35.457888 ], [ -60.082478, -35.457724 ], [ -60.08282, -35.457582 ], [ -60.083349, -35.457307 ], [ -60.090713, -35.452187 ], [ -60.103646, -35.443181 ], [ -60.104207, -35.442864 ], [ -60.10485, -35.44255 ], [ -60.105521, -35.442258 ], [ -60.106573, -35.441843 ], [ -60.110036, -35.44063 ], [ -60.110804, -35.440304 ], [ -60.111442, -35.439991 ], [ -60.111984, -35.439701 ], [ -60.112427, -35.439434 ], [ -60.114613, -35.437829 ], [ -60.118722, -35.434642 ], [ -60.12289, -35.431418 ], [ -60.12698, -35.428232 ], [ -60.127991, -35.427458 ], [ -60.12869, -35.426909 ], [ -60.129027, -35.426606 ], [ -60.129132, -35.426428 ], [ -60.129215, -35.426236 ], [ -60.129269, -35.426049 ], [ -60.129299, -35.425943 ], [ -60.129313, -35.425862 ], [ -60.129333, -35.425809 ], [ -60.129365, -35.425738 ], [ -60.129412, -35.425684 ], [ -60.12947, -35.425634 ], [ -60.129534, -35.42559 ], [ -60.129674, -35.425534 ], [ -60.129735, -35.42551 ], [ -60.129796, -35.4255 ], [ -60.129945, -35.425487 ], [ -60.130273, -35.425427 ], [ -60.13048, -35.425362 ], [ -60.130707, -35.425263 ], [ -60.130962, -35.425108 ] ] ] } },
{ "type": "Feature", "properties": { "fid": 2, "fdc": "DVP Buenos Aires", "sag": "IGN", "es_gap": 0 }, "geometry": { "type": "MultiLineString", "coordinates": [ [ [ -60.130952, -35.425131 ], [ -60.131141, -35.424994 ], [ -60.135236, -35.421829 ], [ -60.139438, -35.418581 ], [ -60.143315, -35.415576 ], [ -60.143502, -35.415436 ], [ -60.143617, -35.415342 ], [ -60.146255, -35.413287 ], [ -60.146604, -35.413043 ], [ -60.147321, -35.412585 ], [ -60.147914, -35.412235 ], [ -60.149035, -35.411749 ], [ -60.149548, -35.411556 ], [ -60.149595, -35.411543 ], [ -60.15027, -35.411352 ], [ -60.15374, -35.410531 ], [ -60.15998, -35.409108 ], [ -60.166188, -35.407672 ], [ -60.172415, -35.406259 ], [ -60.172633, -35.40621 ], [ -60.172687, -35.406197 ], [ -60.175558, -35.405533 ], [ -60.177503, -35.405081 ], [ -60.178653, -35.404812 ], [ -60.179571, -35.404563 ], [ -60.182864, -35.40359 ], [ -60.183744, -35.403275 ], [ -60.184419, -35.403007 ], [ -60.184908, -35.402773 ], [ -60.185531, -35.402438 ], [ -60.186032, -35.402133 ], [ -60.186665, -35.401719 ], [ -60.197909, -35.392954 ], [ -60.19912, -35.391862 ], [ -60.200768, -35.38994 ], [ -60.204821, -35.385033 ], [ -60.205209, -35.384576 ], [ -60.205379, -35.384371 ], [ -60.214859, -35.372907 ], [ -60.215313, -35.372357 ], [ -60.217211, -35.370081 ], [ -60.217942, -35.369248 ], [ -60.21897, -35.368318 ], [ -60.221722, -35.366147 ], [ -60.222121, -35.365836 ], [ -60.225442, -35.363222 ], [ -60.231133, -35.358807 ], [ -60.233167, -35.357216 ], [ -60.241082, -35.351077 ], [ -60.241084, -35.351075 ], [ -60.244559, -35.348387 ], [ -60.247636, -35.346007 ], [ -60.258956, -35.337219 ], [ -60.266406, -35.331446 ], [ -60.268336, -35.329944 ], [ -60.272777, -35.326504 ], [ -60.273498, -35.32603 ], [ -60.274124, -35.325664 ], [ -60.274701, -35.325372 ], [ -60.275588, -35.324987 ], [ -60.276482, -35.324668 ], [ -60.281489, -35.323035 ], [ -60.28163, -35.322989 ], [ -60.28341, -35.322398 ], [ -60.284201, -35.322092 ], [ -60.28514, -35.321637 ], [ -60.286345, -35.32094 ], [ -60.287316, -35.320226 ], [ -60.289231, -35.318752 ], [ -60.297963, -35.312083 ], [ -60.299381, -35.311001 ], [ -60.30507, -35.306656 ], [ -60.309014, -35.303643 ], [ -60.310477, -35.302525 ], [ -60.322428, -35.293382 ], [ -60.322689, -35.29319 ], [ -60.329942, -35.287634 ], [ -60.331533, -35.28644 ], [ -60.340702, -35.279416 ], [ -60.346018, -35.275346 ], [ -60.35375, -35.269425 ], [ -60.354876, -35.268547 ], [ -60.355782, -35.26772 ], [ -60.356503, -35.267038 ], [ -60.357354, -35.266207 ], [ -60.360527, -35.263076 ] ] ] } }
]
}
