{
"type": "FeatureCollection",
"name": "rp46_unificada",
"features": [
{ "type": "Feature", "properties": { "fid": 12, "fdc": "DVP Buenos Aires", "sag": "IGN" }, "geometry": { "type": "MultiLineString", "coordinates": [ [ [ -60.130951673201878, -35.425130697686669 ], [ -60.131140873201879, -35.424994297686673 ], [ -60.135236273201883, -35.421828797686672 ], [ -60.139438373201884, -35.418580697686671 ], [ -60.143315273201878, -35.415575597686669 ], [ -60.143501673201882, -35.415435697686668 ], [ -60.143617073201881, -35.415341697686671 ], [ -60.146254973201884, -35.413286897686667 ], [ -60.146603673201881, -35.413043097686668 ], [ -60.147321173201881, -35.412585197686674 ], [ -60.147913973201881, -35.412235097686668 ], [ -60.14903507320188, -35.411748997686672 ], [ -60.149547773201881, -35.41155609768667 ], [ -60.149594873201885, -35.411542797686671 ], [ -60.150270273201883, -35.411352197686668 ], [ -60.153739673201883, -35.410531397686668 ], [ -60.159979873201884, -35.40910819768667 ], [ -60.166188473201878, -35.407671597686672 ], [ -60.172415173201884, -35.40625899768667 ], [ -60.172632773201883, -35.40620969768667 ], [ -60.172686873201883, -35.406197397686668 ], [ -60.175558173201878, -35.405532797686668 ], [ -60.17750277320188, -35.405081397686672 ], [ -60.178653373201882, -35.40481249768667 ], [ -60.17957067320188, -35.40456319768667 ], [ -60.182864473201882, -35.403590297686669 ], [ -60.183744273201881, -35.403275497686671 ], [ -60.184418773201884, -35.403006597686669 ], [ -60.184908273201884, -35.402772697686672 ], [ -60.185530573201881, -35.402438197686671 ], [ -60.18603217320188, -35.402133197686673 ], [ -60.186665173201881, -35.401718897686671 ], [ -60.197908973201883, -35.39295359768667 ], [ -60.199119573201884, -35.391862397686673 ], [ -60.20076817320188, -35.389940497686673 ], [ -60.204821073201884, -35.385033497686671 ], [ -60.20520857320188, -35.384576497686673 ], [ -60.205378973201881, -35.384370997686673 ], [ -60.21485917320188, -35.372906597686672 ], [ -60.215313273201879, -35.372356597686668 ], [ -60.217211473201878, -35.370081297686667 ], [ -60.217942373201879, -35.369247997686671 ], [ -60.218969673201883, -35.368318497686673 ], [ -60.221721673201884, -35.366146597686672 ], [ -60.222120673201879, -35.36583569768667 ], [ -60.225441573201884, -35.363221897686671 ], [ -60.231133373201878, -35.358806697686674 ], [ -60.233167273201879, -35.357215897686672 ], [ -60.241081873201878, -35.351076897686667 ], [ -60.24108447320188, -35.351074897686672 ], [ -60.244558973201883, -35.348387497686673 ], [ -60.247635973201881, -35.346006697686668 ], [ -60.25895607320188, -35.337219197686672 ], [ -60.266406273201881, -35.331445597686674 ], [ -60.268335773201883, -35.329943597686672 ], [ -60.272777473201884, -35.326503697686668 ], [ -60.273497673201881, -35.326029897686674 ], [ -60.274123973201881, -35.325664397686673 ], [ -60.274700673201885, -35.32537229768667 ], [ -60.275588473201879, -35.324987097686673 ], [ -60.276481573201885, -35.32466759768667 ], [ -60.281489373201879, -35.323035497686668 ], [ -60.281629693201879, -35.322988927686673 ], [ -60.283409773201882, -35.322398197686674 ], [ -60.284200973201884, -35.322091897686668 ], [ -60.285139773201884, -35.321636697686671 ], [ -60.286345473201884, -35.320939597686667 ], [ -60.287316373201882, -35.320226197686672 ], [ -60.28923147320188, -35.318752197686671 ], [ -60.297963373201881, -35.312083497686672 ], [ -60.29938117320188, -35.311000697686673 ], [ -60.305069673201878, -35.306655997686669 ], [ -60.309013673201882, -35.303643297686669 ], [ -60.310477273201883, -35.30252459768667 ], [ -60.322428073201884, -35.293381997686673 ], [ -60.322689373201882, -35.293189897686673 ], [ -60.329942373201881, -35.287633997686669 ], [ -60.331532573201883, -35.286439597686673 ], [ -60.34070247320188, -35.279416097686671 ], [ -60.346018373201879, -35.275346197686673 ], [ -60.353749773201883, -35.269425297686674 ], [ -60.354875873201884, -35.268546697686673 ], [ -60.355782473201884, -35.267719997686669 ], [ -60.356502673201881, -35.26703789768667 ], [ -60.357354273201878, -35.266206797686671 ], [ -60.36055147320188, -35.263052097686668 ], [ -60.360569278465206, -35.263034577318074 ] ], [ [ -60.081578688653352, -35.457957632591558 ], [ -60.081767487658794, -35.457887605641659 ], [ -60.0824777, -35.4577238 ], [ -60.0828204, -35.4575818 ], [ -60.0833491, -35.4573066 ], [ -60.0907128, -35.4521874 ], [ -60.1036464, -35.4431806 ], [ -60.104207, -35.4428638 ], [ -60.1048498, -35.4425504 ], [ -60.1055208, -35.4422583 ], [ -60.1065733, -35.4418429 ], [ -60.1100363, -35.4406295 ], [ -60.1108038, -35.4403038 ], [ -60.1114422, -35.4399913 ], [ -60.111984, -35.4397007 ], [ -60.1124266, -35.4394341 ], [ -60.114613, -35.4378295 ], [ -60.1187217, -35.4346416 ], [ -60.1228899, -35.4314181 ], [ -60.1269802, -35.4282316 ], [ -60.1279914, -35.4274579 ], [ -60.128690361910024, -35.426908779469947 ], [ -60.1290268, -35.4266055 ], [ -60.129132016726388, -35.426428015735141 ], [ -60.129214616291264, -35.426235709437712 ], [ -60.129269401716954, -35.426049240571565 ], [ -60.129299322987912, -35.42594312826165 ], [ -60.129312808631155, -35.425862084461542 ], [ -60.129333037096039, -35.425808513091269 ], [ -60.129365065498746, -35.425738458168702 ], [ -60.12941226525011, -35.425683513088757 ], [ -60.129469579233906, -35.425634062484761 ], [ -60.129534478892033, -35.425590449774099 ], [ -60.129674392440734, -35.425534130963193 ], [ -60.129735077835342, -35.425510435841943 ], [ -60.12979576322995, -35.425499790205492 ], [ -60.129944948158368, -35.425487084121436 ], [ -60.1302728, -35.4254274 ], [ -60.1304805, -35.4253619 ], [ -60.1307069, -35.425263 ], [ -60.130962, -35.4251083 ] ] ] } }
]
}
