{
 "type": "FeatureCollection",
 "name": "rp47_traza_completa",
 "xy_coordinate_resolution": 1e-06,
 "features": [
  {
   "type": "Feature",
   "properties": {
    "fid": 1,
    "id": null
   },
   "geometry": {
    "type": "LineString",
    "coordinates": [
     [
      -59.269341,
      -35.00686
     ],
     [
      -59.276987,
      -34.99228
     ],
     [
      -59.277416,
      -34.99159
     ],
     [
      -59.277644,
      -34.990982
     ],
     [
      -59.277665,
      -34.990594
     ],
     [
      -59.277598,
      -34.990117
     ],
     [
      -59.277553,
      -34.989947
     ],
     [
      -59.277448,
      -34.989646
     ],
     [
      -59.277244,
      -34.989241
     ],
     [
      -59.277044,
      -34.988899
     ],
     [
      -59.273622,
      -34.982975
     ],
     [
      -59.272443,
      -34.980407
     ],
     [
      -59.270319,
      -34.975601
     ],
     [
      -59.27014,
      -34.97532
     ],
     [
      -59.26987,
      -34.97504
     ],
     [
      -59.269607,
      -34.974878
     ],
     [
      -59.269304,
      -34.974716
     ],
     [
      -59.269217,
      -34.974526
     ],
     [
      -59.269245,
      -34.974274
     ],
     [
      -59.269388,
      -34.973991
     ],
     [
      -59.269422,
      -34.973834
     ],
     [
      -59.269344,
      -34.973597
     ],
     [
      -59.269282,
      -34.973397
     ],
     [
      -59.269078,
      -34.972946
     ],
     [
      -59.263521,
      -34.96064
     ],
     [
      -59.262038,
      -34.957312
     ],
     [
      -59.261212,
      -34.955709
     ],
     [
      -59.26047,
      -34.954715
     ],
     [
      -59.258701,
      -34.953016
     ],
     [
      -59.240162,
      -34.936838
     ],
     [
      -59.224859,
      -34.923422
     ],
     [
      -59.223746,
      -34.922178
     ],
     [
      -59.222853,
      -34.920589
     ],
     [
      -59.222449,
      -34.918944
     ],
     [
      -59.222145,
      -34.916346
     ],
     [
      -59.220308,
      -34.896043
     ],
     [
      -59.218201,
      -34.872595
     ],
     [
      -59.2181,
      -34.8716
     ],
     [
      -59.217696,
      -34.870493
     ],
     [
      -59.216701,
      -34.86853
     ],
     [
      -59.209893,
      -34.855628
     ],
     [
      -59.209185,
      -34.85401
     ],
     [
      -59.208881,
      -34.85235
     ],
     [
      -59.209067,
      -34.850441
     ],
     [
      -59.209269,
      -34.846693
     ],
     [
      -59.209067,
      -34.845462
     ],
     [
      -59.208696,
      -34.844314
     ],
     [
      -59.20819,
      -34.843249
     ],
     [
      -59.207331,
      -34.842018
     ],
     [
      -59.206623,
      -34.841174
     ],
     [
      -59.195904,
      -34.83127
     ],
     [
      -59.194606,
      -34.829845
     ],
     [
      -59.193797,
      -34.82835
     ],
     [
      -59.181039,
      -34.804676
     ],
     [
      -59.168146,
      -34.78076
     ],
     [
      -59.167438,
      -34.779639
     ],
     [
      -59.166596,
      -34.778503
     ],
     [
      -59.161523,
      -34.772343
     ],
     [
      -59.159564,
      -34.76992
     ],
     [
      -59.158228,
      -34.768328
     ],
     [
      -59.157133,
      -34.766549
     ],
     [
      -59.140266,
      -34.739859
     ],
     [
      -59.1343,
      -34.730302
     ],
     [
      -59.131806,
      -34.727366
     ],
     [
      -59.124289,
      -34.719054
     ],
     [
      -59.113132,
      -34.70642
     ],
     [
      -59.112146,
      -34.705235
     ],
     [
      -59.111556,
      -34.704203
     ],
     [
      -59.111051,
      -34.702887
     ],
     [
      -59.105775,
      -34.688524
     ],
     [
      -59.102961,
      -34.677562
     ],
     [
      -59.100349,
      -34.667125
     ],
     [
      -59.100045,
      -34.665766
     ],
     [
      -59.099961,
      -34.664408
     ],
     [
      -59.100146,
      -34.66334
     ],
     [
      -59.108877,
      -34.630792
     ],
     [
      -59.108978,
      -34.630078
     ],
     [
      -59.108944,
      -34.62926
     ],
     [
      -59.108877,
      -34.628497
     ],
     [
      -59.108784,
      -34.627658
     ],
     [
      -59.108506,
      -34.626618
     ],
     [
      -59.107604,
      -34.622874
     ],
     [
      -59.107031,
      -34.619129
     ],
     [
      -59.105051,
      -34.602602
     ],
     [
      -59.104916,
      -34.601339
     ],
     [
      -59.105101,
      -34.60041
     ],
     [
      -59.105472,
      -34.59837
     ],
     [
      -59.105789,
      -34.59653
     ],
     [
      -59.105892,
      -34.595757
     ],
     [
      -59.1059,
      -34.595221
     ],
     [
      -59.105848,
      -34.594629
     ],
     [
      -59.105688,
      -34.593823
     ],
     [
      -59.105511,
      -34.593268
     ],
     [
      -59.105262,
      -34.592647
     ],
     [
      -59.105121,
      -34.592404
     ],
     [
      -59.104945,
      -34.592273
     ],
     [
      -59.104811,
      -34.592214
     ],
     [
      -59.104742,
      -34.592102
     ],
     [
      -59.104757,
      -34.591939
     ],
     [
      -59.104713,
      -34.591696
     ],
     [
      -59.10457,
      -34.591263
     ],
     [
      -59.104492,
      -34.591034
     ],
     [
      -59.104254,
      -34.590521
     ],
     [
      -59.103113,
      -34.587944
     ],
     [
      -59.101651,
      -34.584715
     ],
     [
      -59.101198,
      -34.583764
     ],
     [
      -59.101019,
      -34.583475
     ],
     [
      -59.100979,
      -34.583386
     ]
    ]
   }
  }
 ]
}