{
 "type": "FeatureCollection",
 "name": "rp51_traza_completa",
 "xy_coordinate_resolution": 1e-06,
 "features": [
  {
   "type": "Feature",
   "properties": {
    "fid": 2,
    "es_gap": 0
   },
   "geometry": {
    "type": "LineString",
    "coordinates": [
     [
      -59.972144,
      -36.243981
     ],
     [
      -59.97136,
      -36.241666
     ],
     [
      -59.957512,
      -36.200736
     ],
     [
      -59.952428,
      -36.18562
     ],
     [
      -59.944816,
      -36.16298
     ],
     [
      -59.944503,
      -36.162161
     ],
     [
      -59.94419,
      -36.161371
     ],
     [
      -59.943918,
      -36.160781
     ],
     [
      -59.943576,
      -36.160167
     ],
     [
      -59.943199,
      -36.15955
     ],
     [
      -59.938943,
      -36.153702
     ],
     [
      -59.93877,
      -36.153465
     ],
     [
      -59.937519,
      -36.151733
     ],
     [
      -59.936496,
      -36.150317
     ],
     [
      -59.935986,
      -36.149611
     ],
     [
      -59.935444,
      -36.148692
     ],
     [
      -59.934983,
      -36.14768
     ],
     [
      -59.933443,
      -36.143187
     ],
     [
      -59.929102,
      -36.130018
     ],
     [
      -59.925459,
      -36.118966
     ],
     [
      -59.921694,
      -36.107609
     ],
     [
      -59.912008,
      -36.078229
     ],
     [
      -59.907515,
      -36.064595
     ],
     [
      -59.905243,
      -36.057699
     ],
     [
      -59.899361,
      -36.039872
     ],
     [
      -59.898238,
      -36.036339
     ],
     [
      -59.897989,
      -36.035082
     ],
     [
      -59.897913,
      -36.034461
     ],
     [
      -59.897884,
      -36.033528
     ],
     [
      -59.897936,
      -36.032625
     ],
     [
      -59.899172,
      -36.023958
     ],
     [
      -59.899195,
      -36.023293
     ],
     [
      -59.89918,
      -36.022612
     ],
     [
      -59.899135,
      -36.022107
     ],
     [
      -59.899071,
      -36.021738
     ],
     [
      -59.898985,
      -36.02138
     ],
     [
      -59.898796,
      -36.020778
     ],
     [
      -59.898388,
      -36.019923
     ],
     [
      -59.898033,
      -36.019391
     ],
     [
      -59.897654,
      -36.018898
     ],
     [
      -59.89672,
      -36.017843
     ],
     [
      -59.891552,
      -36.012559
     ],
     [
      -59.890769,
      -36.011626
     ],
     [
      -59.890101,
      -36.01069
     ],
     [
      -59.889482,
      -36.009544
     ],
     [
      -59.889126,
      -36.008765
     ],
     [
      -59.888905,
      -36.008204
     ],
     [
      -59.888342,
      -36.006379
     ],
     [
      -59.888299,
      -36.006106
     ],
     [
      -59.888239,
      -36.005788
     ],
     [
      -59.888227,
      -36.005683
     ],
     [
      -59.888264,
      -36.005542
     ],
     [
      -59.888308,
      -36.005445
     ],
     [
      -59.888336,
      -36.005328
     ],
     [
      -59.888332,
      -36.005228
     ],
     [
      -59.888281,
      -36.005129
     ],
     [
      -59.888179,
      -36.005064
     ],
     [
      -59.888099,
      -36.00503
     ],
     [
      -59.888039,
      -36.004992
     ],
     [
      -59.88799,
      -36.004951
     ],
     [
      -59.887835,
      -36.004756
     ],
     [
      -59.88773,
      -36.004497
     ],
     [
      -59.887653,
      -36.004279
     ],
     [
      -59.887411,
      -36.003521
     ],
     [
      -59.886613,
      -36.001046
     ],
     [
      -59.886152,
      -35.999674
     ],
     [
      -59.883561,
      -35.991691
     ],
     [
      -59.879369,
      -35.979185
     ],
     [
      -59.879201,
      -35.978671
     ],
     [
      -59.870562,
      -35.952331
     ],
     [
      -59.870314,
      -35.951486
     ],
     [
      -59.870167,
      -35.95088
     ],
     [
      -59.870064,
      -35.950232
     ],
     [
      -59.870004,
      -35.949584
     ],
     [
      -59.869985,
      -35.948889
     ],
     [
      -59.869787,
      -35.942329
     ],
     [
      -59.869023,
      -35.917075
     ],
     [
      -59.868948,
      -35.916239
     ],
     [
      -59.868769,
      -35.915488
     ],
     [
      -59.868526,
      -35.914819
     ],
     [
      -59.868133,
      -35.914052
     ],
     [
      -59.867659,
      -35.913278
     ],
     [
      -59.866107,
      -35.911034
     ],
     [
      -59.865941,
      -35.910778
     ],
     [
      -59.852666,
      -35.890842
     ],
     [
      -59.848562,
      -35.884649
     ],
     [
      -59.848247,
      -35.88408
     ],
     [
      -59.847973,
      -35.883534
     ],
     [
      -59.847647,
      -35.882759
     ],
     [
      -59.847409,
      -35.88211
     ],
     [
      -59.843435,
      -35.869968
     ],
     [
      -59.840373,
      -35.860728
     ],
     [
      -59.837459,
      -35.851931
     ],
     [
      -59.837211,
      -35.851193
     ],
     [
      -59.837018,
      -35.850627
     ],
     [
      -59.834841,
      -35.844043
     ],
     [
      -59.83214,
      -35.835874
     ],
     [
      -59.827907,
      -35.822868
     ],
     [
      -59.820065,
      -35.798767
     ],
     [
      -59.818217,
      -35.793075
     ],
     [
      -59.81466,
      -35.782115
     ],
     [
      -59.80764,
      -35.76051
     ],
     [
      -59.806314,
      -35.756404
     ],
     [
      -59.806014,
      -35.755352
     ],
     [
      -59.805864,
      -35.754995
     ],
     [
      -59.805042,
      -35.752422
     ],
     [
      -59.804917,
      -35.751935
     ],
     [
      -59.804612,
      -35.751083
     ],
     [
      -59.803781,
      -35.748486
     ],
     [
      -59.803191,
      -35.746744
     ],
     [
      -59.80311,
      -35.74649
     ],
     [
      -59.802875,
      -35.745834
     ],
     [
      -59.802612,
      -35.744951
     ],
     [
      -59.802359,
      -35.744099
     ],
     [
      -59.802027,
      -35.743075
     ],
     [
      -59.801734,
      -35.742337
     ],
     [
      -59.801469,
      -35.741346
     ],
     [
      -59.800158,
      -35.737372
     ],
     [
      -59.799795,
      -35.736374
     ],
     [
      -59.799652,
      -35.735758
     ],
     [
      -59.79921,
      -35.734411
     ],
     [
      -59.797766,
      -35.729934
     ],
     [
      -59.796858,
      -35.727282
     ],
     [
      -59.796808,
      -35.727127
     ],
     [
      -59.796673,
      -35.726564
     ],
     [
      -59.795981,
      -35.724443
     ],
     [
      -59.793478,
      -35.716837
     ],
     [
      -59.792643,
      -35.714122
     ],
     [
      -59.79219,
      -35.712785
     ],
     [
      -59.791955,
      -35.712143
     ],
     [
      -59.791935,
      -35.712084
     ],
     [
      -59.791811,
      -35.711717
     ],
     [
      -59.791704,
      -35.71137
     ],
     [
      -59.791653,
      -35.711206
     ],
     [
      -59.791342,
      -35.710127
     ],
     [
      -59.790122,
      -35.706468
     ],
     [
      -59.789754,
      -35.705261
     ],
     [
      -59.789493,
      -35.704518
     ],
     [
      -59.789369,
      -35.704019
     ],
     [
      -59.788236,
      -35.700664
     ],
     [
      -59.786872,
      -35.696232
     ],
     [
      -59.786743,
      -35.69563
     ],
     [
      -59.786719,
      -35.694527
     ],
     [
      -59.786906,
      -35.693602
     ],
     [
      -59.787091,
      -35.693079
     ],
     [
      -59.787712,
      -35.692052
     ],
     [
      -59.788663,
      -35.691012
     ],
     [
      -59.789119,
      -35.690651
     ],
     [
      -59.789581,
      -35.690311
     ],
     [
      -59.804457,
      -35.678371
     ],
     [
      -59.811202,
      -35.673009
     ],
     [
      -59.812541,
      -35.671944
     ],
     [
      -59.814406,
      -35.670498
     ],
     [
      -59.814875,
      -35.670142
     ],
     [
      -59.81494,
      -35.670085
     ],
     [
      -59.815446,
      -35.669691
     ],
     [
      -59.818169,
      -35.667465
     ],
     [
      -59.818457,
      -35.667234
     ],
     [
      -59.818585,
      -35.667127
     ],
     [
      -59.82404,
      -35.662769
     ],
     [
      -59.826764,
      -35.660593
     ],
     [
      -59.827532,
      -35.659919
     ],
     [
      -59.828791,
      -35.658813
     ],
     [
      -59.830679,
      -35.657078
     ],
     [
      -59.834542,
      -35.653546
     ],
     [
      -59.837358,
      -35.651466
     ],
     [
      -59.837961,
      -35.651109
     ],
     [
      -59.838271,
      -35.650992
     ],
     [
      -59.83849,
      -35.650948
     ],
     [
      -59.838751,
      -35.650926
     ],
     [
      -59.839454,
      -35.650889
     ],
     [
      -59.83999,
      -35.650881
     ],
     [
      -59.840159,
      -35.650834
     ],
     [
      -59.840462,
      -35.650682
     ],
     [
      -59.840569,
      -35.65055
     ],
     [
      -59.840656,
      -35.650406
     ],
     [
      -59.840666,
      -35.650262
     ],
     [
      -59.840599,
      -35.649849
     ],
     [
      -59.840599,
      -35.649845
     ],
     [
      -59.8406,
      -35.649586
     ],
     [
      -59.840615,
      -35.649398
     ],
     [
      -59.840744,
      -35.649097
     ],
     [
      -59.840933,
      -35.6489
     ],
     [
      -59.841393,
      -35.648546
     ],
     [
      -59.845569,
      -35.645382
     ],
     [
      -59.846793,
      -35.644509
     ],
     [
      -59.854274,
      -35.63904
     ],
     [
      -59.855824,
      -35.637907
     ],
     [
      -59.864749,
      -35.631383
     ],
     [
      -59.870818,
      -35.626928
     ],
     [
      -59.871853,
      -35.626194
     ],
     [
      -59.873396,
      -35.625261
     ],
     [
      -59.87477,
      -35.624475
     ],
     [
      -59.877796,
      -35.622614
     ],
     [
      -59.894279,
      -35.610649
     ],
     [
      -59.895053,
      -35.610127
     ],
     [
      -59.895833,
      -35.609635
     ],
     [
      -59.896334,
      -35.609351
     ],
     [
      -59.89651,
      -35.609251
     ],
     [
      -59.897229,
      -35.608909
     ],
     [
      -59.898386,
      -35.608454
     ],
     [
      -59.90949,
      -35.604078
     ],
     [
      -59.922842,
      -35.598818
     ],
     [
      -59.929473,
      -35.596188
     ],
     [
      -59.933239,
      -35.59461
     ],
     [
      -59.942768,
      -35.590693
     ],
     [
      -59.949573,
      -35.587896
     ],
     [
      -59.957785,
      -35.58452
     ],
     [
      -59.968408,
      -35.580133
     ],
     [
      -59.97648,
      -35.576799
     ],
     [
      -60.010369,
      -35.562767
     ],
     [
      -60.022099,
      -35.557928
     ],
     [
      -60.02319,
      -35.55748
     ],
     [
      -60.023902,
      -35.557172
     ],
     [
      -60.024488,
      -35.556846
     ],
     [
      -60.02494,
      -35.556535
     ],
     [
      -60.025323,
      -35.556218
     ],
     [
      -60.025803,
      -35.55574
     ],
     [
      -60.026251,
      -35.555113
     ],
     [
      -60.027418,
      -35.55288
     ],
     [
      -60.027911,
      -35.551855
     ],
     [
      -60.028183,
      -35.551333
     ],
     [
      -60.032663,
      -35.54246
     ],
     [
      -60.033879,
      -35.540069
     ],
     [
      -60.035245,
      -35.537449
     ],
     [
      -60.036303,
      -35.535418
     ],
     [
      -60.045204,
      -35.517597
     ],
     [
      -60.0487,
      -35.510702
     ],
     [
      -60.054445,
      -35.499299
     ],
     [
      -60.054803,
      -35.498691
     ],
     [
      -60.057294,
      -35.4949
     ],
     [
      -60.059295,
      -35.491828
     ],
     [
      -60.063663,
      -35.485155
     ],
     [
      -60.066991,
      -35.480092
     ],
     [
      -60.070095,
      -35.475371
     ],
     [
      -60.076119,
      -35.46612
     ],
     [
      -60.078424,
      -35.462676
     ],
     [
      -60.080244,
      -35.459922
     ],
     [
      -60.080656,
      -35.459394
     ],
     [
      -60.080864,
      -35.459171
     ],
     [
      -60.081251,
      -35.458785
     ],
     [
      -60.08154,
      -35.458552
     ],
     [
      -60.081879,
      -35.45828
     ],
     [
      -60.081981,
      -35.458134
     ],
     [
      -60.08201,
      -35.45803
     ],
     [
      -60.082041,
      -35.457818
     ],
     [
      -60.082088,
      -35.457431
     ],
     [
      -60.082142,
      -35.457173
     ],
     [
      -60.082299,
      -35.456811
     ],
     [
      -60.08337,
      -35.455154
     ],
     [
      -60.083621,
      -35.454766
     ],
     [
      -60.083841,
      -35.454376
     ],
     [
      -60.084038,
      -35.453862
     ],
     [
      -60.084155,
      -35.453424
     ],
     [
      -60.084237,
      -35.452845
     ],
     [
      -60.084235,
      -35.452305
     ],
     [
      -60.084165,
      -35.451762
     ],
     [
      -60.084055,
      -35.451182
     ],
     [
      -60.081555,
      -35.43853
     ],
     [
      -60.081544,
      -35.43847
     ],
     [
      -60.081462,
      -35.437987
     ],
     [
      -60.081442,
      -35.437871
     ],
     [
      -60.081395,
      -35.437366
     ],
     [
      -60.081403,
      -35.436921
     ],
     [
      -60.081451,
      -35.43656
     ],
     [
      -60.081601,
      -35.435781
     ],
     [
      -60.082169,
      -35.433265
     ],
     [
      -60.082608,
      -35.431327
     ],
     [
      -60.083054,
      -35.429317
     ],
     [
      -60.083471,
      -35.427492
     ],
     [
      -60.083881,
      -35.425673
     ],
     [
      -60.084137,
      -35.424578
     ],
     [
      -60.084267,
      -35.42393
     ],
     [
      -60.084373,
      -35.423402
     ],
     [
      -60.08442,
      -35.423046
     ],
     [
      -60.084446,
      -35.422405
     ],
     [
      -60.084431,
      -35.418541
     ],
     [
      -60.084431,
      -35.418251
     ],
     [
      -60.084428,
      -35.415056
     ],
     [
      -60.08443,
      -35.414649
     ],
     [
      -60.08443,
      -35.414566
     ],
     [
      -60.084427,
      -35.414223
     ],
     [
      -60.084426,
      -35.412708
     ],
     [
      -60.08442,
      -35.403337
     ],
     [
      -60.084402,
      -35.396765
     ],
     [
      -60.084431,
      -35.396345
     ],
     [
      -60.084498,
      -35.395956
     ],
     [
      -60.085403,
      -35.390293
     ],
     [
      -60.085466,
      -35.389907
     ],
     [
      -60.088048,
      -35.374039
     ],
     [
      -60.089081,
      -35.366988
     ],
     [
      -60.089102,
      -35.366854
     ],
     [
      -60.089297,
      -35.365492
     ],
     [
      -60.08932,
      -35.365299
     ],
     [
      -60.089802,
      -35.362045
     ],
     [
      -60.090274,
      -35.358864
     ],
     [
      -60.090961,
      -35.35412
     ],
     [
      -60.091213,
      -35.352542
     ],
     [
      -60.091395,
      -35.351691
     ],
     [
      -60.092844,
      -35.346196
     ],
     [
      -60.097072,
      -35.329795
     ],
     [
      -60.098117,
      -35.32578
     ],
     [
      -60.099075,
      -35.322098
     ],
     [
      -60.099262,
      -35.321325
     ],
     [
      -60.099841,
      -35.318163
     ],
     [
      -60.101813,
      -35.307361
     ],
     [
      -60.10307,
      -35.300478
     ],
     [
      -60.10433,
      -35.293571
     ],
     [
      -60.104839,
      -35.290766
     ],
     [
      -60.104898,
      -35.290191
     ],
     [
      -60.104884,
      -35.28956
     ],
     [
      -60.104613,
      -35.286446
     ],
     [
      -60.104607,
      -35.286372
     ],
     [
      -60.104265,
      -35.282646
     ],
     [
      -60.10423,
      -35.281978
     ],
     [
      -60.104291,
      -35.281017
     ],
     [
      -60.105365,
      -35.270813
     ],
     [
      -60.105812,
      -35.266091
     ],
     [
      -60.106038,
      -35.264131
     ],
     [
      -60.106821,
      -35.258046
     ],
     [
      -60.106854,
      -35.257792
     ],
     [
      -60.109339,
      -35.238438
     ],
     [
      -60.109498,
      -35.23683
     ],
     [
      -60.111801,
      -35.211903
     ],
     [
      -60.113014,
      -35.197426
     ],
     [
      -60.113669,
      -35.188659
     ],
     [
      -60.113872,
      -35.185235
     ],
     [
      -60.113214,
      -35.176326
     ],
     [
      -60.112101,
      -35.162892
     ],
     [
      -60.110903,
      -35.149373
     ],
     [
      -60.110261,
      -35.139219
     ],
     [
      -60.109401,
      -35.124564
     ],
     [
      -60.109131,
      -35.12001
     ],
     [
      -60.10908,
      -35.119347
     ],
     [
      -60.109021,
      -35.117698
     ],
     [
      -60.108979,
      -35.112388
     ],
     [
      -60.10895,
      -35.107578
     ],
     [
      -60.108899,
      -35.104009
     ],
     [
      -60.108806,
      -35.085738
     ],
     [
      -60.108874,
      -35.080201
     ],
     [
      -60.108899,
      -35.079387
     ],
     [
      -60.109363,
      -35.076894
     ],
     [
      -60.110544,
      -35.070321
     ],
     [
      -60.110612,
      -35.069928
     ],
     [
      -60.110713,
      -35.065971
     ],
     [
      -60.110791,
      -35.063203
     ]
    ]
   }
  },
  {
   "type": "Feature",
   "properties": {
    "fid": 1,
    "es_gap": 0
   },
   "geometry": {
    "type": "LineString",
    "coordinates": [
     [
      -59.998715,
      -33.478741
     ],
     [
      -60.002071,
      -33.481574
     ],
     [
      -60.004652,
      -33.483677
     ],
     [
      -60.008965,
      -33.48728
     ],
     [
      -60.017443,
      -33.494304
     ],
     [
      -60.028031,
      -33.503165
     ],
     [
      -60.031622,
      -33.506079
     ],
     [
      -60.035154,
      -33.508999
     ],
     [
      -60.038664,
      -33.511919
     ],
     [
      -60.039996,
      -33.512999
     ],
     [
      -60.042022,
      -33.514655
     ],
     [
      -60.042583,
      -33.515118
     ],
     [
      -60.043,
      -33.515557
     ],
     [
      -60.045515,
      -33.518025
     ],
     [
      -60.046198,
      -33.518734
     ],
     [
      -60.04648,
      -33.518966
     ],
     [
      -60.046931,
      -33.519261
     ],
     [
      -60.047448,
      -33.519484
     ],
     [
      -60.047953,
      -33.519729
     ],
     [
      -60.048686,
      -33.520169
     ],
     [
      -60.049247,
      -33.520664
     ],
     [
      -60.051041,
      -33.522122
     ],
     [
      -60.052934,
      -33.523664
     ],
     [
      -60.054945,
      -33.525349
     ],
     [
      -60.055278,
      -33.525627
     ],
     [
      -60.0564,
      -33.52659
     ],
     [
      -60.057943,
      -33.527918
     ],
     [
      -60.05866,
      -33.528418
     ],
     [
      -60.059487,
      -33.528914
     ],
     [
      -60.062236,
      -33.530303
     ],
     [
      -60.067489,
      -33.533075
     ],
     [
      -60.067867,
      -33.533251
     ],
     [
      -60.070577,
      -33.534663
     ],
     [
      -60.07367,
      -33.536288
     ],
     [
      -60.083088,
      -33.541278
     ],
     [
      -60.084088,
      -33.541833
     ],
     [
      -60.084899,
      -33.542324
     ],
     [
      -60.085898,
      -33.54311
     ],
     [
      -60.086831,
      -33.543925
     ],
     [
      -60.094162,
      -33.550617
     ],
     [
      -60.103891,
      -33.559595
     ],
     [
      -60.116563,
      -33.572117
     ],
     [
      -60.120717,
      -33.576355
     ],
     [
      -60.121878,
      -33.577419
     ],
     [
      -60.123322,
      -33.579043
     ],
     [
      -60.124776,
      -33.580685
     ],
     [
      -60.125426,
      -33.581425
     ],
     [
      -60.131546,
      -33.58843
     ],
     [
      -60.136033,
      -33.593574
     ],
     [
      -60.137288,
      -33.594915
     ],
     [
      -60.138176,
      -33.59596
     ],
     [
      -60.138943,
      -33.596922
     ],
     [
      -60.141419,
      -33.600808
     ],
     [
      -60.147506,
      -33.610872
     ],
     [
      -60.170552,
      -33.649499
     ],
     [
      -60.173673,
      -33.658171
     ],
     [
      -60.188033,
      -33.705749
     ],
     [
      -60.195319,
      -33.726674
     ],
     [
      -60.19573,
      -33.728059
     ],
     [
      -60.201094,
      -33.762119
     ],
     [
      -60.203244,
      -33.775857
     ],
     [
      -60.203316,
      -33.7769
     ],
     [
      -60.203249,
      -33.777823
     ],
     [
      -60.202933,
      -33.779743
     ],
     [
      -60.201578,
      -33.788208
     ],
     [
      -60.201211,
      -33.789482
     ],
     [
      -60.199712,
      -33.793534
     ],
     [
      -60.192337,
      -33.820832
     ],
     [
      -60.192104,
      -33.821445
     ],
     [
      -60.178293,
      -33.846017
     ],
     [
      -60.166361,
      -33.867061
     ],
     [
      -60.164062,
      -33.87117
     ],
     [
      -60.163492,
      -33.872178
     ],
     [
      -60.162924,
      -33.872969
     ],
     [
      -60.162635,
      -33.873338
     ],
     [
      -60.161833,
      -33.874157
     ],
     [
      -60.160378,
      -33.875429
     ],
     [
      -60.146995,
      -33.886669
     ],
     [
      -60.146245,
      -33.887434
     ],
     [
      -60.14554,
      -33.888356
     ],
     [
      -60.144874,
      -33.889403
     ],
     [
      -60.144241,
      -33.890481
     ],
     [
      -60.132184,
      -33.910642
     ],
     [
      -60.131657,
      -33.911573
     ],
     [
      -60.120995,
      -33.940593
     ],
     [
      -60.120717,
      -33.941109
     ],
     [
      -60.120339,
      -33.941727
     ],
     [
      -60.094895,
      -33.973564
     ],
     [
      -60.094561,
      -33.974025
     ],
     [
      -60.094256,
      -33.974559
     ],
     [
      -60.094062,
      -33.975033
     ],
     [
      -60.093834,
      -33.975655
     ],
     [
      -60.093706,
      -33.976217
     ],
     [
      -60.093623,
      -33.976788
     ],
     [
      -60.09364,
      -33.977304
     ],
     [
      -60.094017,
      -34.002338
     ],
     [
      -60.094039,
      -34.002872
     ],
     [
      -60.093284,
      -34.009298
     ],
     [
      -60.093329,
      -34.017768
     ],
     [
      -60.093878,
      -34.044663
     ],
     [
      -60.094328,
      -34.046894
     ],
     [
      -60.094678,
      -34.048537
     ],
     [
      -60.094783,
      -34.049402
     ],
     [
      -60.094961,
      -34.061902
     ],
     [
      -60.094945,
      -34.062326
     ],
     [
      -60.094878,
      -34.064249
     ],
     [
      -60.094667,
      -34.065992
     ],
     [
      -60.0946,
      -34.066507
     ],
     [
      -60.094634,
      -34.067202
     ],
     [
      -60.094783,
      -34.078297
     ],
     [
      -60.094789,
      -34.078596
     ],
     [
      -60.094717,
      -34.079155
     ],
     [
      -60.094371,
      -34.080835
     ],
     [
      -60.092752,
      -34.087469
     ],
     [
      -60.09253,
      -34.088251
     ],
     [
      -60.092264,
      -34.088849
     ],
     [
      -60.091819,
      -34.089677
     ],
     [
      -60.091098,
      -34.090606
     ],
     [
      -60.068785,
      -34.115602
     ],
     [
      -60.068396,
      -34.116043
     ],
     [
      -60.067818,
      -34.116567
     ],
     [
      -60.042685,
      -34.137355
     ],
     [
      -60.038553,
      -34.141078
     ],
     [
      -60.007982,
      -34.168829
     ],
     [
      -60.007166,
      -34.169505
     ],
     [
      -60.006627,
      -34.169868
     ],
     [
      -60.005989,
      -34.170221
     ],
     [
      -60.005217,
      -34.170603
     ],
     [
      -59.962496,
      -34.192465
     ],
     [
      -59.961607,
      -34.193076
     ],
     [
      -59.934502,
      -34.212127
     ],
     [
      -59.933869,
      -34.212623
     ],
     [
      -59.932958,
      -34.213496
     ],
     [
      -59.932048,
      -34.214635
     ],
     [
      -59.915182,
      -34.23826
     ],
     [
      -59.899439,
      -34.26324
     ],
     [
      -59.885384,
      -34.290236
     ],
     [
      -59.861633,
      -34.328097
     ],
     [
      -59.853941,
      -34.34013
     ],
     [
      -59.846328,
      -34.353321
     ],
     [
      -59.845862,
      -34.354091
     ],
     [
      -59.845495,
      -34.354816
     ],
     [
      -59.845362,
      -34.355214
     ],
     [
      -59.845278,
      -34.355618
     ],
     [
      -59.845217,
      -34.356374
     ],
     [
      -59.845306,
      -34.357144
     ],
     [
      -59.846145,
      -34.360794
     ],
     [
      -59.857154,
      -34.415046
     ],
     [
      -59.857215,
      -34.415277
     ],
     [
      -59.857396,
      -34.416906
     ],
     [
      -59.857473,
      -34.417435
     ],
     [
      -59.857615,
      -34.417971
     ],
     [
      -59.857748,
      -34.418608
     ],
     [
      -59.857868,
      -34.419096
     ],
     [
      -59.857954,
      -34.419735
     ],
     [
      -59.858079,
      -34.420527
     ],
     [
      -59.859817,
      -34.42951
     ],
     [
      -59.860705,
      -34.433266
     ],
     [
      -59.862643,
      -34.441519
     ],
     [
      -59.874311,
      -34.481037
     ],
     [
      -59.876199,
      -34.48751
     ],
     [
      -59.876493,
      -34.488293
     ],
     [
      -59.876832,
      -34.488828
     ],
     [
      -59.877098,
      -34.489231
     ],
     [
      -59.89624,
      -34.513161
     ],
     [
      -59.930393,
      -34.543517
     ],
     [
      -59.930737,
      -34.543722
     ],
     [
      -59.934336,
      -34.545479
     ],
     [
      -59.938961,
      -34.547615
     ],
     [
      -59.939622,
      -34.547953
     ],
     [
      -59.940039,
      -34.548251
     ],
     [
      -59.941127,
      -34.549193
     ],
     [
      -59.995232,
      -34.597945
     ],
     [
      -59.998409,
      -34.600852
     ],
     [
      -60.003817,
      -34.605679
     ],
     [
      -60.004984,
      -34.606831
     ],
     [
      -60.005517,
      -34.607562
     ],
     [
      -60.005794,
      -34.608412
     ],
     [
      -60.006117,
      -34.609656
     ],
     [
      -60.006816,
      -34.612544
     ],
     [
      -60.013602,
      -34.640738
     ],
     [
      -60.013902,
      -34.641762
     ],
     [
      -60.014424,
      -34.642868
     ],
     [
      -60.022532,
      -34.658957
     ],
     [
      -60.026397,
      -34.666539
     ],
     [
      -60.028874,
      -34.671225
     ],
     [
      -60.03115,
      -34.674897
     ],
     [
      -60.032883,
      -34.677655
     ],
     [
      -60.033594,
      -34.679199
     ],
     [
      -60.035093,
      -34.682432
     ],
     [
      -60.052342,
      -34.719668
     ],
     [
      -60.058228,
      -34.733817
     ],
     [
      -60.070667,
      -34.758831
     ],
     [
      -60.071145,
      -34.759853
     ],
     [
      -60.071411,
      -34.76093
     ],
     [
      -60.071545,
      -34.762472
     ],
     [
      -60.075054,
      -34.798222
     ],
     [
      -60.075076,
      -34.799298
     ],
     [
      -60.075221,
      -34.800329
     ],
     [
      -60.080607,
      -34.823618
     ],
     [
      -60.080863,
      -34.824767
     ],
     [
      -60.081396,
      -34.825861
     ],
     [
      -60.089191,
      -34.840973
     ],
     [
      -60.089359,
      -34.841193
     ],
     [
      -60.089559,
      -34.841417
     ],
     [
      -60.089686,
      -34.84146
     ],
     [
      -60.089806,
      -34.841467
     ],
     [
      -60.090026,
      -34.841558
     ],
     [
      -60.090174,
      -34.841731
     ],
     [
      -60.09022,
      -34.841944
     ],
     [
      -60.090178,
      -34.842124
     ],
     [
      -60.090092,
      -34.842349
     ],
     [
      -60.090106,
      -34.842586
     ],
     [
      -60.090166,
      -34.84282
     ],
     [
      -60.090348,
      -34.843209
     ],
     [
      -60.090509,
      -34.843559
     ],
     [
      -60.090678,
      -34.843936
     ],
     [
      -60.090821,
      -34.84424
     ],
     [
      -60.091679,
      -34.845831
     ],
     [
      -60.091946,
      -34.846569
     ],
     [
      -60.092612,
      -34.848665
     ],
     [
      -60.096833,
      -34.862765
     ],
     [
      -60.106951,
      -34.883021
     ],
     [
      -60.107462,
      -34.88415
     ],
     [
      -60.107684,
      -34.884979
     ],
     [
      -60.107806,
      -34.886173
     ],
     [
      -60.107861,
      -34.886993
     ],
     [
      -60.108939,
      -34.920021
     ],
     [
      -60.110338,
      -34.966952
     ],
     [
      -60.109894,
      -34.996509
     ],
     [
      -60.110038,
      -35.006685
     ],
     [
      -60.110049,
      -35.007089
     ],
     [
      -60.110133,
      -35.007458
     ],
     [
      -60.11026,
      -35.007806
     ],
     [
      -60.11058,
      -35.008243
     ],
     [
      -60.11081,
      -35.00852
     ],
     [
      -60.110957,
      -35.008884
     ],
     [
      -60.111007,
      -35.009264
     ],
     [
      -60.110921,
      -35.009709
     ],
     [
      -60.11068,
      -35.010235
     ],
     [
      -60.110374,
      -35.010965
     ],
     [
      -60.11021,
      -35.01141
     ],
     [
      -60.11016,
      -35.011708
     ],
     [
      -60.110149,
      -35.012006
     ],
     [
      -60.11013,
      -35.012641
     ],
     [
      -60.110144,
      -35.014274
     ],
     [
      -60.110169,
      -35.014869
     ],
     [
      -60.110196,
      -35.015618
     ],
     [
      -60.11124,
      -35.048055
     ],
     [
      -60.110791,
      -35.063203
     ]
    ]
   }
  },
  {
   "type": "Feature",
   "properties": {
    "fid": 3,
    "es_gap": 0
   },
   "geometry": {
    "type": "LineString",
    "coordinates": [
     [
      -59.972144,
      -36.243981
     ],
     [
      -59.97215,
      -36.243996
     ],
     [
      -59.975143,
      -36.252808
     ],
     [
      -59.977093,
      -36.258647
     ],
     [
      -59.977581,
      -36.260188
     ],
     [
      -59.977858,
      -36.261442
     ],
     [
      -59.97795,
      -36.262749
     ],
     [
      -59.977934,
      -36.264529
     ],
     [
      -59.977795,
      -36.270101
     ],
     [
      -59.977767,
      -36.272406
     ],
     [
      -59.977827,
      -36.273526
     ],
     [
      -59.978018,
      -36.274579
     ],
     [
      -59.978182,
      -36.275259
     ],
     [
      -59.978406,
      -36.275912
     ],
     [
      -59.981653,
      -36.285487
     ],
     [
      -59.997249,
      -36.331443
     ],
     [
      -60.002657,
      -36.347414
     ],
     [
      -60.004181,
      -36.351868
     ],
     [
      -60.004879,
      -36.35398
     ],
     [
      -60.007548,
      -36.361851
     ],
     [
      -60.00762,
      -36.362161
     ],
     [
      -60.007756,
      -36.362884
     ],
     [
      -60.009192,
      -36.371168
     ],
     [
      -60.009409,
      -36.372478
     ],
     [
      -60.009742,
      -36.374598
     ],
     [
      -60.011267,
      -36.384107
     ],
     [
      -60.011373,
      -36.384833
     ],
     [
      -60.011307,
      -36.385465
     ],
     [
      -60.011182,
      -36.386149
     ],
     [
      -59.985181,
      -36.514214
     ],
     [
      -59.982352,
      -36.524013
     ],
     [
      -59.973407,
      -36.555088
     ],
     [
      -59.969388,
      -36.56887
     ],
     [
      -59.96434,
      -36.582818
     ],
     [
      -59.962654,
      -36.58758
     ],
     [
      -59.960216,
      -36.594277
     ],
     [
      -59.958529,
      -36.598943
     ],
     [
      -59.954286,
      -36.610665
     ],
     [
      -59.94373,
      -36.639992
     ],
     [
      -59.93158,
      -36.673558
     ],
     [
      -59.904667,
      -36.747809
     ],
     [
      -59.904146,
      -36.749266
     ],
     [
      -59.903962,
      -36.750354
     ],
     [
      -59.903916,
      -36.751236
     ],
     [
      -59.904047,
      -36.752962
     ],
     [
      -59.90464,
      -36.766244
     ],
     [
      -59.90464,
      -36.76679
     ],
     [
      -59.904545,
      -36.767207
     ],
     [
      -59.904301,
      -36.767685
     ],
     [
      -59.903642,
      -36.768513
     ],
     [
      -59.893801,
      -36.780259
     ],
     [
      -59.893624,
      -36.780523
     ],
     [
      -59.893492,
      -36.780908
     ],
     [
      -59.89083,
      -36.790095
     ],
     [
      -59.890665,
      -36.790692
     ],
     [
      -59.89056,
      -36.791262
     ],
     [
      -59.890491,
      -36.79166
     ],
     [
      -59.890496,
      -36.791972
     ],
     [
      -59.890555,
      -36.792243
     ],
     [
      -59.890603,
      -36.792435
     ],
     [
      -59.890716,
      -36.792619
     ],
     [
      -59.890802,
      -36.792791
     ],
     [
      -59.890922,
      -36.793004
     ],
     [
      -59.891186,
      -36.793358
     ],
     [
      -59.89154,
      -36.793661
     ],
     [
      -59.892098,
      -36.794108
     ],
     [
      -59.893123,
      -36.794873
     ],
     [
      -59.893413,
      -36.795106
     ],
     [
      -59.89397,
      -36.795575
     ],
     [
      -59.894467,
      -36.796119
     ],
     [
      -59.89477,
      -36.796464
     ],
     [
      -59.895337,
      -36.796934
     ],
     [
      -59.916464,
      -36.814628
     ],
     [
      -59.928424,
      -36.824671
     ],
     [
      -59.92905,
      -36.825167
     ],
     [
      -59.929577,
      -36.825552
     ],
     [
      -59.93046,
      -36.826069
     ],
     [
      -59.935461,
      -36.828622
     ],
     [
      -59.940943,
      -36.831422
     ],
     [
      -59.941595,
      -36.831876
     ],
     [
      -59.942102,
      -36.832245
     ],
     [
      -59.951314,
      -36.839797
     ],
     [
      -59.958456,
      -36.845634
     ],
     [
      -59.959072,
      -36.846169
     ],
     [
      -59.959073,
      -36.84617
     ]
    ]
   }
  },
  {
   "type": "Feature",
   "properties": {
    "fid": 4,
    "es_gap": 0
   },
   "geometry": {
    "type": "LineString",
    "coordinates": [
     [
      -59.959073,
      -36.84617
     ],
     [
      -59.95924,
      -36.846278
     ],
     [
      -59.959916,
      -36.846814
     ],
     [
      -59.960653,
      -36.847364
     ]
    ]
   }
  },
  {
   "type": "Feature",
   "properties": {
    "fid": 6,
    "es_gap": 0
   },
   "geometry": {
    "type": "LineString",
    "coordinates": [
     [
      -60.23117,
      -36.937037
     ],
     [
      -60.231342,
      -36.937532
     ],
     [
      -60.231584,
      -36.937872
     ],
     [
      -60.23239,
      -36.938584
     ],
     [
      -60.233331,
      -36.939305
     ],
     [
      -60.254798,
      -36.956344
     ],
     [
      -60.256959,
      -36.958022
     ],
     [
      -60.260435,
      -36.960794
     ],
     [
      -60.263986,
      -36.963518
     ],
     [
      -60.28664,
      -36.981292
     ],
     [
      -60.288409,
      -36.982705
     ],
     [
      -60.289863,
      -36.983559
     ],
     [
      -60.29216,
      -36.984528
     ],
     [
      -60.294841,
      -36.985234
     ],
     [
      -60.337019,
      -36.996628
     ],
     [
      -60.34182,
      -36.997936
     ],
     [
      -60.376471,
      -37.006248
     ]
    ]
   }
  },
  {
   "type": "Feature",
   "properties": {
    "fid": 7,
    "es_gap": 0
   },
   "geometry": {
    "type": "LineString",
    "coordinates": [
     [
      -60.376471,
      -37.006248
     ],
     [
      -60.379931,
      -37.00703
     ],
     [
      -60.385792,
      -37.008245
     ],
     [
      -60.386451,
      -37.008381
     ],
     [
      -60.387097,
      -37.008649
     ],
     [
      -60.389872,
      -37.009818
     ],
     [
      -60.390421,
      -37.009998
     ],
     [
      -60.391562,
      -37.010276
     ],
     [
      -60.400652,
      -37.012506
     ],
     [
      -60.401829,
      -37.012827
     ],
     [
      -60.402356,
      -37.012983
     ],
     [
      -60.402984,
      -37.013219
     ],
     [
      -60.403582,
      -37.013492
     ],
     [
      -60.404204,
      -37.013799
     ],
     [
      -60.404997,
      -37.014288
     ],
     [
      -60.405707,
      -37.014814
     ],
     [
      -60.406378,
      -37.015369
     ],
     [
      -60.407107,
      -37.016002
     ],
     [
      -60.429974,
      -37.035532
     ],
     [
      -60.47837,
      -37.076889
     ],
     [
      -60.479168,
      -37.07758
     ],
     [
      -60.479736,
      -37.07804
     ],
     [
      -60.480201,
      -37.078456
     ],
     [
      -60.485252,
      -37.082763
     ],
     [
      -60.492845,
      -37.089263
     ],
     [
      -60.496909,
      -37.092731
     ],
     [
      -60.497175,
      -37.09294
     ],
     [
      -60.497968,
      -37.093446
     ],
     [
      -60.498696,
      -37.093869
     ],
     [
      -60.500505,
      -37.094876
     ],
     [
      -60.502237,
      -37.095849
     ],
     [
      -60.504164,
      -37.096971
     ],
     [
      -60.505472,
      -37.097673
     ],
     [
      -60.524609,
      -37.10833
     ],
     [
      -60.530452,
      -37.111584
     ],
     [
      -60.539298,
      -37.116479
     ],
     [
      -60.539963,
      -37.116827
     ],
     [
      -60.541835,
      -37.117897
     ],
     [
      -60.559411,
      -37.127678
     ],
     [
      -60.561021,
      -37.128529
     ],
     [
      -60.582598,
      -37.140552
     ],
     [
      -60.589368,
      -37.144276
     ],
     [
      -60.623734,
      -37.163372
     ],
     [
      -60.624578,
      -37.163897
     ],
     [
      -60.624962,
      -37.164183
     ],
     [
      -60.626008,
      -37.165
     ],
     [
      -60.627631,
      -37.1663
     ],
     [
      -60.631711,
      -37.169553
     ],
     [
      -60.708389,
      -37.23047
     ],
     [
      -60.710157,
      -37.231863
     ],
     [
      -60.711554,
      -37.232757
     ],
     [
      -60.712749,
      -37.233422
     ],
     [
      -60.714134,
      -37.23397
     ],
     [
      -60.715853,
      -37.234437
     ],
     [
      -60.716982,
      -37.234679
     ],
     [
      -60.718561,
      -37.234869
     ],
     [
      -60.804003,
      -37.245111
     ],
     [
      -60.806153,
      -37.245361
     ],
     [
      -60.807327,
      -37.245562
     ],
     [
      -60.807931,
      -37.245701
     ],
     [
      -60.808635,
      -37.245921
     ],
     [
      -60.8093,
      -37.246215
     ],
     [
      -60.810013,
      -37.246611
     ],
     [
      -60.810532,
      -37.246946
     ],
     [
      -60.811038,
      -37.247312
     ],
     [
      -60.811852,
      -37.247936
     ],
     [
      -60.812364,
      -37.248346
     ],
     [
      -60.906515,
      -37.322457
     ],
     [
      -60.907759,
      -37.32349
     ],
     [
      -60.908717,
      -37.324349
     ],
     [
      -60.909496,
      -37.32514
     ],
     [
      -60.909962,
      -37.325614
     ],
     [
      -60.926558,
      -37.342809
     ],
     [
      -60.928827,
      -37.345229
     ],
     [
      -60.929431,
      -37.34582
     ],
     [
      -60.930016,
      -37.34632
     ],
     [
      -60.930748,
      -37.346872
     ],
     [
      -60.931425,
      -37.347299
     ],
     [
      -60.932279,
      -37.347813
     ],
     [
      -60.933175,
      -37.348322
     ],
     [
      -60.955429,
      -37.360766
     ],
     [
      -60.962644,
      -37.364906
     ],
     [
      -60.985184,
      -37.378659
     ],
     [
      -60.985406,
      -37.378759
     ],
     [
      -60.985572,
      -37.378814
     ],
     [
      -60.985903,
      -37.378836
     ],
     [
      -60.986169,
      -37.378835
     ],
     [
      -60.986392,
      -37.3789
     ],
     [
      -60.986528,
      -37.379005
     ],
     [
      -60.986601,
      -37.37924
     ],
     [
      -60.986644,
      -37.379412
     ],
     [
      -60.986772,
      -37.379545
     ],
     [
      -60.986933,
      -37.379681
     ],
     [
      -60.987107,
      -37.379794
     ],
     [
      -60.987912,
      -37.380272
     ],
     [
      -60.988989,
      -37.380924
     ],
     [
      -60.989547,
      -37.38127
     ],
     [
      -61.020387,
      -37.399751
     ],
     [
      -61.027169,
      -37.403462
     ],
     [
      -61.050088,
      -37.415844
     ],
     [
      -61.05754,
      -37.419912
     ],
     [
      -61.069408,
      -37.426272
     ],
     [
      -61.06946,
      -37.426453
     ],
     [
      -61.069237,
      -37.42841
     ],
     [
      -61.069112,
      -37.429761
     ],
     [
      -61.064581,
      -37.480979
     ],
     [
      -61.064636,
      -37.482523
     ],
     [
      -61.064837,
      -37.484468
     ],
     [
      -61.065789,
      -37.492593
     ],
     [
      -61.067289,
      -37.50648
     ],
     [
      -61.068191,
      -37.51422
     ],
     [
      -61.075894,
      -37.582745
     ],
     [
      -61.076193,
      -37.58564
     ],
     [
      -61.076425,
      -37.586442
     ],
     [
      -61.076888,
      -37.587505
     ],
     [
      -61.107302,
      -37.64801
     ],
     [
      -61.107729,
      -37.648899
     ],
     [
      -61.108022,
      -37.649739
     ],
     [
      -61.108278,
      -37.65054
     ],
     [
      -61.108534,
      -37.651728
     ],
     [
      -61.131221,
      -37.745246
     ],
     [
      -61.13152,
      -37.746104
     ],
     [
      -61.13216,
      -37.747223
     ],
     [
      -61.13266,
      -37.747879
     ],
     [
      -61.133203,
      -37.748424
     ],
     [
      -61.134539,
      -37.749499
     ],
     [
      -61.167691,
      -37.775522
     ],
     [
      -61.205027,
      -37.804743
     ],
     [
      -61.205353,
      -37.805045
     ],
     [
      -61.205707,
      -37.805407
     ],
     [
      -61.206179,
      -37.805985
     ],
     [
      -61.206499,
      -37.80645
     ],
     [
      -61.206804,
      -37.806973
     ],
     [
      -61.20717,
      -37.807811
     ],
     [
      -61.207451,
      -37.808837
     ],
     [
      -61.20753,
      -37.8097
     ],
     [
      -61.207481,
      -37.810813
     ],
     [
      -61.207365,
      -37.811931
     ],
     [
      -61.205402,
      -37.832402
     ],
     [
      -61.204132,
      -37.844897
     ],
     [
      -61.204126,
      -37.845291
     ],
     [
      -61.204148,
      -37.845642
     ],
     [
      -61.204241,
      -37.846344
     ],
     [
      -61.204385,
      -37.846896
     ],
     [
      -61.204587,
      -37.847469
     ],
     [
      -61.204956,
      -37.848187
     ],
     [
      -61.205838,
      -37.849909
     ],
     [
      -61.206823,
      -37.851845
     ],
     [
      -61.207472,
      -37.853087
     ],
     [
      -61.210804,
      -37.859563
     ],
     [
      -61.224477,
      -37.88596
     ],
     [
      -61.224836,
      -37.886564
     ],
     [
      -61.225395,
      -37.887343
     ],
     [
      -61.225526,
      -37.887502
     ],
     [
      -61.226044,
      -37.888051
     ],
     [
      -61.226508,
      -37.888453
     ],
     [
      -61.240605,
      -37.899573
     ],
     [
      -61.243992,
      -37.902207
     ],
     [
      -61.257069,
      -37.912443
     ],
     [
      -61.258149,
      -37.913282
     ],
     [
      -61.271544,
      -37.923744
     ],
     [
      -61.288834,
      -37.937345
     ],
     [
      -61.290566,
      -37.93873
     ],
     [
      -61.291176,
      -37.939298
     ],
     [
      -61.291737,
      -37.940134
     ],
     [
      -61.2922,
      -37.940808
     ],
     [
      -61.292469,
      -37.941664
     ],
     [
      -61.292932,
      -37.94278
     ],
     [
      -61.297201,
      -37.956197
     ],
     [
      -61.29775,
      -37.95714
     ],
     [
      -61.298104,
      -37.957697
     ],
     [
      -61.298567,
      -37.958207
     ],
     [
      -61.299836,
      -37.959217
     ],
     [
      -61.325426,
      -37.979184
     ],
     [
      -61.326292,
      -37.979934
     ],
     [
      -61.326725,
      -37.980462
     ],
     [
      -61.327194,
      -37.981222
     ],
     [
      -61.327481,
      -37.982121
     ],
     [
      -61.327646,
      -37.983198
     ],
     [
      -61.327749,
      -37.984452
     ],
     [
      -61.327841,
      -37.985707
     ],
     [
      -61.327963,
      -37.987798
     ],
     [
      -61.328317,
      -37.99344
     ],
     [
      -61.328554,
      -37.994625
     ],
     [
      -61.328762,
      -37.995173
     ],
     [
      -61.329024,
      -37.995615
     ],
     [
      -61.329317,
      -37.996028
     ],
     [
      -61.3296,
      -37.996372
     ],
     [
      -61.329774,
      -37.996557
     ],
     [
      -61.330607,
      -37.997232
     ],
     [
      -61.33097,
      -37.997556
     ],
     [
      -61.331482,
      -37.997941
     ],
     [
      -61.331962,
      -37.998299
     ],
     [
      -61.332172,
      -37.998393
     ],
     [
      -61.332362,
      -37.998446
     ],
     [
      -61.332593,
      -37.998488
     ],
     [
      -61.332808,
      -37.998506
     ],
     [
      -61.333048,
      -37.998561
     ],
     [
      -61.333179,
      -37.998636
     ],
     [
      -61.333258,
      -37.998728
     ],
     [
      -61.333343,
      -37.998883
     ],
     [
      -61.333356,
      -37.998991
     ],
     [
      -61.333383,
      -37.999122
     ],
     [
      -61.333385,
      -37.999224
     ],
     [
      -61.333531,
      -37.999435
     ],
     [
      -61.333686,
      -37.999599
     ],
     [
      -61.333912,
      -37.999767
     ],
     [
      -61.334315,
      -38.000075
     ],
     [
      -61.335139,
      -38.000736
     ],
     [
      -61.33583,
      -38.00129
     ],
     [
      -61.344483,
      -38.008037
     ],
     [
      -61.350371,
      -38.012659
     ],
     [
      -61.350853,
      -38.012986
     ],
     [
      -61.35131,
      -38.013255
     ],
     [
      -61.351944,
      -38.013731
     ],
     [
      -61.352267,
      -38.014043
     ],
     [
      -61.352621,
      -38.014302
     ],
     [
      -61.353399,
      -38.014893
     ],
     [
      -61.353951,
      -38.015343
     ],
     [
      -61.354292,
      -38.015674
     ],
     [
      -61.354585,
      -38.015929
     ],
     [
      -61.354878,
      -38.016174
     ],
     [
      -61.35861,
      -38.019076
     ],
     [
      -61.359305,
      -38.019518
     ],
     [
      -61.359988,
      -38.019897
     ],
     [
      -61.360562,
      -38.020128
     ],
     [
      -61.361117,
      -38.020296
     ],
     [
      -61.384676,
      -38.025884
     ],
     [
      -61.385292,
      -38.026066
     ],
     [
      -61.386652,
      -38.026768
     ],
     [
      -61.386835,
      -38.026859
     ],
     [
      -61.387499,
      -38.02696
     ],
     [
      -61.387664,
      -38.027032
     ],
     [
      -61.387819,
      -38.027265
     ],
     [
      -61.387847,
      -38.027433
     ],
     [
      -61.387911,
      -38.027675
     ],
     [
      -61.388073,
      -38.028029
     ],
     [
      -61.388329,
      -38.028338
     ],
     [
      -61.388573,
      -38.028581
     ],
     [
      -61.388984,
      -38.028876
     ],
     [
      -61.403292,
      -38.03949
     ],
     [
      -61.444342,
      -38.071674
     ],
     [
      -61.44561,
      -38.072639
     ],
     [
      -61.446122,
      -38.073129
     ],
     [
      -61.446952,
      -38.074074
     ],
     [
      -61.448498,
      -38.076026
     ],
     [
      -61.448818,
      -38.076537
     ],
     [
      -61.449065,
      -38.076965
     ],
     [
      -61.449315,
      -38.077565
     ],
     [
      -61.449507,
      -38.078186
     ],
     [
      -61.449733,
      -38.079262
     ],
     [
      -61.452212,
      -38.091454
     ],
     [
      -61.452627,
      -38.092817
     ],
     [
      -61.453224,
      -38.093796
     ],
     [
      -61.453883,
      -38.094727
     ],
     [
      -61.455999,
      -38.097516
     ],
     [
      -61.456304,
      -38.098015
     ],
     [
      -61.456627,
      -38.09874
     ],
     [
      -61.464473,
      -38.11845
     ],
     [
      -61.464876,
      -38.119362
     ],
     [
      -61.465681,
      -38.120552
     ],
     [
      -61.466449,
      -38.121694
     ],
     [
      -61.467327,
      -38.123085
     ],
     [
      -61.48627,
      -38.152278
     ],
     [
      -61.486477,
      -38.152719
     ],
     [
      -61.486758,
      -38.153544
     ],
     [
      -61.486819,
      -38.154786
     ],
     [
      -61.486727,
      -38.155928
     ],
     [
      -61.486447,
      -38.159946
     ],
     [
      -61.486245,
      -38.161303
     ],
     [
      -61.486245,
      -38.161917
     ],
     [
      -61.486306,
      -38.162497
     ],
     [
      -61.486581,
      -38.163308
     ],
     [
      -61.487154,
      -38.164444
     ],
     [
      -61.489746,
      -38.169939
     ],
     [
      -61.490033,
      -38.170615
     ],
     [
      -61.490179,
      -38.17108
     ],
     [
      -61.490179,
      -38.171713
     ],
     [
      -61.490033,
      -38.172494
     ],
     [
      -61.489453,
      -38.175625
     ],
     [
      -61.489051,
      -38.177471
     ],
     [
      -61.488685,
      -38.178315
     ],
     [
      -61.488276,
      -38.17889
     ],
     [
      -61.478976,
      -38.192379
     ],
     [
      -61.478677,
      -38.19282
     ],
     [
      -61.478427,
      -38.193333
     ],
     [
      -61.478323,
      -38.193779
     ],
     [
      -61.478311,
      -38.194177
     ],
     [
      -61.478043,
      -38.199056
     ],
     [
      -61.478177,
      -38.200503
     ],
     [
      -61.478701,
      -38.201874
     ],
     [
      -61.479409,
      -38.203599
     ],
     [
      -61.482482,
      -38.207529
     ],
     [
      -61.4833,
      -38.208525
     ],
     [
      -61.485178,
      -38.21188
     ],
     [
      -61.48552,
      -38.212944
     ],
     [
      -61.485495,
      -38.213969
     ],
     [
      -61.485251,
      -38.214755
     ],
     [
      -61.484763,
      -38.215311
     ],
     [
      -61.483995,
      -38.216058
     ],
     [
      -61.482909,
      -38.216691
     ],
     [
      -61.481482,
      -38.217333
     ],
     [
      -61.476518,
      -38.219681
     ],
     [
      -61.475152,
      -38.220744
     ],
     [
      -61.474188,
      -38.221501
     ],
     [
      -61.473578,
      -38.222316
     ],
     [
      -61.473274,
      -38.223082
     ],
     [
      -61.469834,
      -38.235452
     ],
     [
      -61.469651,
      -38.236525
     ],
     [
      -61.469834,
      -38.238614
     ],
     [
      -61.470249,
      -38.239773
     ],
     [
      -61.471664,
      -38.242637
     ],
     [
      -61.472554,
      -38.243825
     ],
     [
      -61.473883,
      -38.245032
     ],
     [
      -61.475371,
      -38.245961
     ],
     [
      -61.481153,
      -38.249429
     ],
     [
      -61.505401,
      -38.259543
     ],
     [
      -61.518074,
      -38.264294
     ],
     [
      -61.520123,
      -38.265261
     ],
     [
      -61.529893,
      -38.273066
     ],
     [
      -61.578085,
      -38.312105
     ],
     [
      -61.579097,
      -38.31287
     ],
     [
      -61.58017,
      -38.313454
     ],
     [
      -61.59549,
      -38.319512
     ],
     [
      -61.596637,
      -38.320019
     ],
     [
      -61.597613,
      -38.320584
     ],
     [
      -61.598515,
      -38.321359
     ],
     [
      -61.60387,
      -38.32687
     ],
     [
      -61.604736,
      -38.327818
     ],
     [
      -61.605309,
      -38.328717
     ],
     [
      -61.60587,
      -38.330038
     ],
     [
      -61.606748,
      -38.332697
     ],
     [
      -61.607248,
      -38.333477
     ],
     [
      -61.607803,
      -38.334252
     ],
     [
      -61.608163,
      -38.334573
     ],
     [
      -61.608389,
      -38.334783
     ],
     [
      -61.608706,
      -38.334917
     ],
     [
      -61.609017,
      -38.33497
     ],
     [
      -61.60931,
      -38.33501
     ],
     [
      -61.609578,
      -38.335187
     ],
     [
      -61.609645,
      -38.335307
     ],
     [
      -61.609709,
      -38.335501
     ],
     [
      -61.609724,
      -38.335649
     ],
     [
      -61.609801,
      -38.335912
     ],
     [
      -61.609935,
      -38.336087
     ],
     [
      -61.610255,
      -38.336414
     ],
     [
      -61.610764,
      -38.336893
     ],
     [
      -61.611783,
      -38.337785
     ],
     [
      -61.6466,
      -38.368685
     ],
     [
      -61.655745,
      -38.376758
     ],
     [
      -61.685207,
      -38.402824
     ],
     [
      -61.686476,
      -38.404076
     ],
     [
      -61.687781,
      -38.405701
     ],
     [
      -61.688476,
      -38.406715
     ],
     [
      -61.695075,
      -38.416511
     ],
     [
      -61.69627,
      -38.41825
     ],
     [
      -61.698197,
      -38.422245
     ],
     [
      -61.707821,
      -38.441574
     ],
     [
      -61.708406,
      -38.442567
     ],
     [
      -61.708931,
      -38.443303
     ],
     [
      -61.709419,
      -38.443785
     ],
     [
      -61.710706,
      -38.444788
     ],
     [
      -61.712883,
      -38.446436
     ],
     [
      -61.7594,
      -38.480615
     ],
     [
      -61.76048,
      -38.481288
     ],
     [
      -61.761827,
      -38.481899
     ],
     [
      -61.763389,
      -38.482367
     ],
     [
      -61.764578,
      -38.482597
     ],
     [
      -61.783124,
      -38.486127
     ],
     [
      -61.783532,
      -38.486167
     ],
     [
      -61.797242,
      -38.487101
     ],
     [
      -61.814541,
      -38.48885
     ],
     [
      -61.815419,
      -38.488965
     ],
     [
      -61.816252,
      -38.489129
     ],
     [
      -61.817026,
      -38.48933
     ],
     [
      -61.817877,
      -38.489631
     ],
     [
      -61.81852,
      -38.489924
     ],
     [
      -61.819145,
      -38.490287
     ],
     [
      -61.819722,
      -38.49065
     ],
     [
      -61.820258,
      -38.491036
     ],
     [
      -61.820752,
      -38.491447
     ],
     [
      -61.851322,
      -38.517159
     ],
     [
      -61.886416,
      -38.546344
     ],
     [
      -61.889167,
      -38.548715
     ],
     [
      -61.921593,
      -38.575548
     ],
     [
      -61.948116,
      -38.597534
     ],
     [
      -61.955398,
      -38.603711
     ],
     [
      -61.960948,
      -38.608186
     ],
     [
      -61.983446,
      -38.626832
     ],
     [
      -61.984641,
      -38.627832
     ],
     [
      -61.986025,
      -38.628728
     ],
     [
      -61.986745,
      -38.629109
     ],
     [
      -61.987794,
      -38.629614
     ],
     [
      -61.988642,
      -38.629957
     ],
     [
      -61.990356,
      -38.630619
     ],
     [
      -62.007459,
      -38.637082
     ],
     [
      -62.008319,
      -38.637468
     ],
     [
      -62.009359,
      -38.638006
     ],
     [
      -62.01053,
      -38.638735
     ],
     [
      -62.011719,
      -38.639616
     ],
     [
      -62.012725,
      -38.640402
     ],
     [
      -62.024874,
      -38.650233
     ],
     [
      -62.025807,
      -38.6509
     ],
     [
      -62.026618,
      -38.651386
     ],
     [
      -62.028338,
      -38.652243
     ],
     [
      -62.029277,
      -38.652638
     ],
     [
      -62.030344,
      -38.652996
     ],
     [
      -62.031582,
      -38.653439
     ],
     [
      -62.155568,
      -38.691987
     ],
     [
      -62.159934,
      -38.693367
     ],
     [
      -62.162057,
      -38.694348
     ],
     [
      -62.164081,
      -38.695814
     ],
     [
      -62.168741,
      -38.699645
     ],
     [
      -62.178559,
      -38.707741
     ],
     [
      -62.179249,
      -38.708402
     ],
     [
      -62.179877,
      -38.709192
     ],
     [
      -62.180255,
      -38.709878
     ],
     [
      -62.18042,
      -38.710377
     ],
     [
      -62.180468,
      -38.710729
     ],
     [
      -62.180602,
      -38.710963
     ],
     [
      -62.181017,
      -38.711182
     ]
    ]
   }
  },
  {
   "type": "Feature",
   "properties": {
    "fid": 5,
    "es_gap": 1
   },
   "geometry": {
    "type": "LineString",
    "coordinates": [
     [
      -59.960653,
      -36.847364
     ],
     [
      -59.961288,
      -36.847764
     ],
     [
      -59.961442,
      -36.847836
     ],
     [
      -59.962173,
      -36.84818
     ],
     [
      -59.962582,
      -36.848318
     ],
     [
      -59.963074,
      -36.848444
     ],
     [
      -59.963611,
      -36.848512
     ],
     [
      -59.964067,
      -36.848557
     ],
     [
      -59.965052,
      -36.848633
     ],
     [
      -60.004139,
      -36.8519
     ],
     [
      -60.01573,
      -36.852878
     ],
     [
      -60.016741,
      -36.852895
     ],
     [
      -60.017631,
      -36.85301
     ],
     [
      -60.01856,
      -36.853084
     ],
     [
      -60.01952,
      -36.853158
     ],
     [
      -60.019851,
      -36.853158
     ],
     [
      -60.020255,
      -36.85322
     ],
     [
      -60.020827,
      -36.853269
     ],
     [
      -60.055019,
      -36.85578
     ],
     [
      -60.062668,
      -36.85641
     ],
     [
      -60.063347,
      -36.856447
     ],
     [
      -60.06486,
      -36.856509
     ],
     [
      -60.087111,
      -36.857292
     ],
     [
      -60.091383,
      -36.857475
     ],
     [
      -60.093297,
      -36.857574
     ],
     [
      -60.093994,
      -36.857577
     ],
     [
      -60.094374,
      -36.857576
     ],
     [
      -60.094829,
      -36.857551
     ],
     [
      -60.095451,
      -36.857492
     ],
     [
      -60.095943,
      -36.857409
     ],
     [
      -60.096618,
      -36.857265
     ],
     [
      -60.097064,
      -36.857117
     ],
     [
      -60.097465,
      -36.856986
     ],
     [
      -60.097857,
      -36.856807
     ],
     [
      -60.098268,
      -36.856601
     ],
     [
      -60.098671,
      -36.856364
     ],
     [
      -60.09898,
      -36.856144
     ],
     [
      -60.099387,
      -36.855842
     ],
     [
      -60.102368,
      -36.853686
     ],
     [
      -60.102978,
      -36.853303
     ],
     [
      -60.103503,
      -36.852995
     ],
     [
      -60.104557,
      -36.852597
     ],
     [
      -60.105214,
      -36.852434
     ],
     [
      -60.105721,
      -36.852338
     ],
     [
      -60.10625,
      -36.852254
     ],
     [
      -60.106696,
      -36.852211
     ],
     [
      -60.107264,
      -36.85218
     ],
     [
      -60.107924,
      -36.852201
     ],
     [
      -60.108612,
      -36.852262
     ],
     [
      -60.109226,
      -36.852356
     ],
     [
      -60.10996,
      -36.852503
     ],
     [
      -60.110618,
      -36.852697
     ],
     [
      -60.111066,
      -36.852877
     ],
     [
      -60.1115,
      -36.853051
     ],
     [
      -60.112059,
      -36.853347
     ],
     [
      -60.112434,
      -36.853581
     ],
     [
      -60.112964,
      -36.853907
     ],
     [
      -60.113304,
      -36.854191
     ],
     [
      -60.113538,
      -36.854403
     ],
     [
      -60.13928,
      -36.874759
     ],
     [
      -60.139785,
      -36.875135
     ],
     [
      -60.140962,
      -36.875849
     ],
     [
      -60.141298,
      -36.876068
     ],
     [
      -60.141715,
      -36.876352
     ],
     [
      -60.142197,
      -36.876725
     ],
     [
      -60.143046,
      -36.877374
     ],
     [
      -60.143745,
      -36.877926
     ],
     [
      -60.144177,
      -36.878257
     ],
     [
      -60.144671,
      -36.878695
     ],
     [
      -60.14515,
      -36.879075
     ],
     [
      -60.145713,
      -36.879553
     ],
     [
      -60.146357,
      -36.880035
     ],
     [
      -60.150329,
      -36.883187
     ],
     [
      -60.150902,
      -36.883613
     ],
     [
      -60.151608,
      -36.884193
     ],
     [
      -60.152133,
      -36.884647
     ],
     [
      -60.152677,
      -36.885076
     ],
     [
      -60.153302,
      -36.885543
     ],
     [
      -60.157351,
      -36.88869
     ],
     [
      -60.157712,
      -36.888996
     ],
     [
      -60.159114,
      -36.890127
     ],
     [
      -60.160017,
      -36.890814
     ],
     [
      -60.168213,
      -36.897314
     ],
     [
      -60.168855,
      -36.897769
     ],
     [
      -60.169517,
      -36.898153
     ],
     [
      -60.170154,
      -36.898467
     ],
     [
      -60.170756,
      -36.89868
     ],
     [
      -60.171449,
      -36.898893
     ],
     [
      -60.172099,
      -36.899064
     ],
     [
      -60.172819,
      -36.899274
     ],
     [
      -60.173691,
      -36.899504
     ],
     [
      -60.182577,
      -36.901897
     ],
     [
      -60.183092,
      -36.902035
     ],
     [
      -60.184244,
      -36.902348
     ],
     [
      -60.185168,
      -36.902611
     ],
     [
      -60.186101,
      -36.902873
     ],
     [
      -60.186661,
      -36.903024
     ],
     [
      -60.18708,
      -36.903149
     ],
     [
      -60.187464,
      -36.903271
     ],
     [
      -60.188043,
      -36.903507
     ],
     [
      -60.188344,
      -36.903652
     ],
     [
      -60.188691,
      -36.90384
     ],
     [
      -60.1891,
      -36.904106
     ],
     [
      -60.189453,
      -36.90435
     ],
     [
      -60.189791,
      -36.904617
     ],
     [
      -60.190132,
      -36.904896
     ],
     [
      -60.206544,
      -36.917915
     ],
     [
      -60.226937,
      -36.934127
     ],
     [
      -60.227166,
      -36.934325
     ],
     [
      -60.227822,
      -36.934909
     ],
     [
      -60.228148,
      -36.935181
     ],
     [
      -60.228588,
      -36.935522
     ],
     [
      -60.228901,
      -36.93577
     ],
     [
      -60.2291,
      -36.935912
     ],
     [
      -60.229356,
      -36.936003
     ],
     [
      -60.229655,
      -36.936046
     ],
     [
      -60.229893,
      -36.936068
     ],
     [
      -60.230126,
      -36.936027
     ],
     [
      -60.230339,
      -36.936048
     ],
     [
      -60.230767,
      -36.936217
     ],
     [
      -60.230908,
      -36.936351
     ],
     [
      -60.231031,
      -36.936536
     ],
     [
      -60.231089,
      -36.936748
     ],
     [
      -60.231124,
      -36.936927
     ],
     [
      -60.23117,
      -36.937037
     ]
    ]
   }
  }
 ]
}