{
"type": "FeatureCollection",
"name": "rp61_unificada",
"xy_coordinate_resolution": 1e-06,
"features": [
{ "type": "Feature", "properties": { "fid": 1, "id": null, "es_gap": 0 }, "geometry": { "type": "LineString", "coordinates": [ [ -58.618441, -35.884409 ], [ -58.618587, -35.884592 ], [ -58.618703, -35.88479 ], [ -58.619196, -35.88573 ], [ -58.619341, -35.885909 ], [ -58.619638, -35.886073 ], [ -58.620447, -35.886343 ], [ -58.652991, -35.897211 ], [ -58.654196, -35.897685 ], [ -58.65525, -35.898187 ], [ -58.656358, -35.898788 ], [ -58.657133, -35.899259 ], [ -58.666255, -35.904713 ], [ -58.68594, -35.916097 ], [ -58.688131, -35.91708 ], [ -58.689243, -35.91738 ], [ -58.690659, -35.917544 ], [ -58.69258, -35.917435 ], [ -58.696271, -35.916629 ], [ -58.697923, -35.916588 ], [ -58.700468, -35.916834 ], [ -58.701866, -35.917353 ], [ -58.703013, -35.917899 ], [ -58.7064, -35.919605 ], [ -58.708305, -35.920164 ], [ -58.712231, -35.921093 ], [ -58.734192, -35.926265 ], [ -58.748483, -35.929595 ], [ -58.750371, -35.929841 ], [ -58.764107, -35.9304 ], [ -58.767191, -35.930564 ], [ -58.772247, -35.930932 ], [ -58.7725, -35.930537 ], [ -58.773039, -35.930373 ], [ -58.776688, -35.930741 ], [ -58.777135, -35.930905 ], [ -58.779157, -35.931096 ], [ -58.793238, -35.931765 ], [ -58.80378, -35.93315 ], [ -58.820263, -35.935306 ], [ -58.822311, -35.935756 ], [ -58.834041, -35.93942 ], [ -58.835178, -35.939564 ], [ -58.837597, -35.940178 ], [ -58.838701, -35.940594 ], [ -58.883969, -35.951782 ], [ -58.919952, -35.96065 ], [ -58.921738, -35.961107 ], [ -58.925623, -35.962464 ], [ -58.929617, -35.963862 ], [ -58.93287, -35.965008 ], [ -58.933418, -35.965165 ], [ -58.934749, -35.965526 ], [ -58.936118, -35.965787 ], [ -58.936308, -35.965733 ], [ -58.936375, -35.965334 ], [ -58.936481, -35.965276 ], [ -58.940016, -35.966172 ], [ -58.941857, -35.964996 ], [ -58.944769, -35.962665 ], [ -58.962495, -35.94872 ], [ -58.983713, -35.932033 ] ] } },
{ "type": "Feature", "properties": { "fid": 2, "id": null, "es_gap": 0 }, "geometry": { "type": "LineString", "coordinates": [ [ -59.151912, -36.024542 ], [ -59.153599, -36.023919 ], [ -59.154791, -36.023615 ], [ -59.187074, -36.015133 ], [ -59.189872, -36.014002 ], [ -59.193209, -36.012584 ], [ -59.194473, -36.011998 ], [ -59.202057, -36.009953 ], [ -59.204585, -36.008849 ], [ -59.220916, -36.000873 ], [ -59.232116, -35.995391 ], [ -59.23343, -35.994519 ], [ -59.248185, -35.983521 ], [ -59.249323, -35.9829 ], [ -59.266691, -35.973919 ], [ -59.267339, -35.97351 ], [ -59.26825, -35.972828 ], [ -59.290075, -35.956411 ], [ -59.291524, -35.955552 ], [ -59.292738, -35.955074 ], [ -59.295097, -35.954303 ], [ -59.323386, -35.94521 ], [ -59.324347, -35.944876 ], [ -59.325906, -35.944091 ], [ -59.327498, -35.942972 ], [ -59.332417, -35.939266 ], [ -59.334625, -35.940487 ], [ -59.335401, -35.940562 ], [ -59.342917, -35.939696 ], [ -59.347057, -35.939506 ], [ -59.358012, -35.935099 ], [ -59.360118, -35.935003 ], [ -59.36209, -35.934921 ], [ -59.365781, -35.933925 ], [ -59.36632, -35.933516 ], [ -59.366826, -35.932997 ], [ -59.367197, -35.93297 ], [ -59.42851, -35.953792 ], [ -59.42894, -35.953887 ], [ -59.443527, -35.954658 ], [ -59.454406, -35.955197 ], [ -59.455299, -35.955347 ], [ -59.49536, -35.968552 ], [ -59.495891, -35.96862 ], [ -59.496481, -35.968293 ], [ -59.501705, -35.964194 ], [ -59.501874, -35.964091 ], [ -59.502101, -35.964241 ], [ -59.53103, -35.989091 ], [ -59.531435, -35.989323 ], [ -59.557895, -36.011725 ], [ -59.563945, -36.016776 ], [ -59.565707, -36.018262 ], [ -59.570223, -36.022004 ], [ -59.578515, -36.02888 ], [ -59.58197, -36.03177 ], [ -59.582543, -36.032288 ], [ -59.584465, -36.033841 ], [ -59.591981, -36.040189 ], [ -59.592162, -36.040274 ], [ -59.592344, -36.040182 ], [ -59.613145, -36.023816 ], [ -59.633062, -36.00846 ], [ -59.633473, -36.008257 ], [ -59.634176, -36.008121 ], [ -59.634558, -36.007906 ], [ -59.655035, -35.992287 ], [ -59.65538, -35.99211 ], [ -59.655743, -35.992158 ], [ -59.680816, -36.013342 ], [ -59.68109, -36.013441 ], [ -59.681558, -36.013295 ], [ -59.683319, -36.012003 ], [ -59.6842, -36.011618 ], [ -59.684714, -36.011274 ], [ -59.730109, -35.976219 ], [ -59.730454, -35.97611 ], [ -59.730737, -35.976243 ], [ -59.754576, -35.99678 ], [ -59.754863, -35.99692 ], [ -59.755276, -35.996787 ], [ -59.760723, -35.99254 ], [ -59.761254, -35.992233 ], [ -59.765308, -35.989083 ], [ -59.765565, -35.988936 ], [ -59.766142, -35.989045 ], [ -59.798867, -35.999528 ], [ -59.799129, -35.999681 ], [ -59.799331, -35.99993 ], [ -59.799672, -36.000435 ], [ -59.803317, -36.003257 ], [ -59.803902, -36.003663 ], [ -59.804766, -36.004297 ], [ -59.805187, -36.004658 ], [ -59.807037, -36.006127 ], [ -59.809961, -36.008281 ], [ -59.810441, -36.008731 ], [ -59.816163, -36.01295 ], [ -59.821354, -36.016948 ], [ -59.821586, -36.016996 ], [ -59.843805, -35.999686 ], [ -59.843982, -35.999605 ], [ -59.844353, -35.999586 ], [ -59.84583, -35.999809 ], [ -59.846091, -35.999775 ], [ -59.846386, -35.999591 ], [ -59.847203, -35.998821 ], [ -59.847439, -35.99863 ], [ -59.847802, -35.998521 ], [ -59.849512, -35.997989 ], [ -59.850363, -35.9979 ], [ -59.85129, -35.997962 ], [ -59.858647, -35.999441 ], [ -59.859852, -35.999646 ], [ -59.86736, -36.001166 ], [ -59.887283, -36.005166 ], [ -59.887563, -36.005154 ], [ -59.887728, -36.005065 ], [ -59.887995, -36.005006 ], [ -59.888242, -36.005087 ], [ -59.88837, -36.005234 ], [ -59.888482, -36.005333 ], [ -59.888893, -36.005479 ], [ -59.889388, -36.005588 ], [ -59.892676, -36.006255 ], [ -59.899502, -36.007639 ], [ -59.900513, -36.00787 ], [ -59.902081, -36.008518 ], [ -59.941729, -36.026757 ], [ -59.942917, -36.027268 ], [ -59.943751, -36.027418 ], [ -59.944956, -36.027371 ], [ -59.994337, -36.023724 ], [ -60.004626, -36.022949 ], [ -60.006914, -36.022743 ], [ -60.007887, -36.022695 ], [ -60.00807, -36.022586 ] ] } },
{ "type": "Feature", "properties": { "fid": 3, "id": null, "es_gap": 0 }, "geometry": { "type": "LineString", "coordinates": [ [ -60.00807, -36.022586 ], [ -60.00814, -36.022561 ], [ -60.00823, -36.022578 ], [ -60.008288, -36.022625 ], [ -60.008344, -36.022646 ], [ -60.011626, -36.022383 ], [ -60.012848, -36.022287 ], [ -60.012865, -36.022453 ], [ -60.013479, -36.027958 ], [ -60.01578, -36.02777 ], [ -60.01816, -36.027596 ], [ -60.022689, -36.027256 ], [ -60.022963, -36.027273 ], [ -60.023275, -36.027225 ], [ -60.027463, -36.026871 ], [ -60.029764, -36.026663 ], [ -60.032646, -36.026417 ], [ -60.055432, -36.024659 ], [ -60.064499, -36.023937 ], [ -60.065763, -36.023978 ], [ -60.067263, -36.023978 ], [ -60.069151, -36.0238 ], [ -60.071021, -36.023214 ], [ -60.074628, -36.022219 ], [ -60.078841, -36.02102 ], [ -60.080055, -36.02057 ], [ -60.082077, -36.01952 ], [ -60.083611, -36.018293 ], [ -60.086543, -36.014926 ], [ -60.088987, -36.012091 ], [ -60.089594, -36.011395 ], [ -60.090909, -36.010414 ], [ -60.103195, -36.003283 ], [ -60.106667, -36.001238 ], [ -60.111453, -35.998457 ], [ -60.124515, -35.990971 ], [ -60.130396, -35.987562 ], [ -60.131745, -35.986498 ], [ -60.136177, -35.982298 ], [ -60.137475, -35.980893 ], [ -60.143053, -35.976419 ], [ -60.165839, -35.958168 ], [ -60.169766, -35.95514 ], [ -60.17189, -35.953598 ], [ -60.17462, -35.951524 ], [ -60.178412, -35.948605 ], [ -60.181783, -35.946012 ], [ -60.186114, -35.94271 ], [ -60.189131, -35.940391 ], [ -60.197524, -35.933759 ], [ -60.20108, -35.93088 ], [ -60.207485, -35.925939 ], [ -60.213367, -35.921435 ], [ -60.215827, -35.92003 ], [ -60.218709, -35.91891 ], [ -60.222164, -35.91816 ], [ -60.247124, -35.914693 ], [ -60.269152, -35.909479 ], [ -60.271511, -35.908714 ], [ -60.278753, -35.905887 ] ] } },
{ "type": "Feature", "properties": { "fid": 4, "id": null, "es_gap": 0 }, "geometry": { "type": "LineString", "coordinates": [ [ -60.280917, -35.90764 ], [ -60.28102, -35.907612 ], [ -60.281298, -35.907438 ], [ -60.283662, -35.905513 ], [ -60.291827, -35.899227 ], [ -60.306642, -35.887717 ], [ -60.307017, -35.887577 ], [ -60.307463, -35.887707 ], [ -60.308837, -35.888905 ], [ -60.309224, -35.889052 ], [ -60.309789, -35.888762 ], [ -60.331437, -35.871866 ], [ -60.341278, -35.864196 ], [ -60.341623, -35.864005 ], [ -60.341998, -35.864147 ], [ -60.346892, -35.868333 ], [ -60.347246, -35.868538 ], [ -60.347688, -35.868483 ], [ -60.348181, -35.868114 ], [ -60.349315, -35.867704 ], [ -60.350891, -35.867138 ], [ -60.35119, -35.866878 ], [ -60.351624, -35.866171 ], [ -60.351961, -35.865792 ], [ -60.357497, -35.861483 ], [ -60.357716, -35.861261 ], [ -60.35786, -35.860906 ], [ -60.357961, -35.860606 ], [ -60.358095, -35.860363 ], [ -60.3585, -35.860042 ], [ -60.360367, -35.859158 ], [ -60.360843, -35.858895 ], [ -60.37998, -35.844012 ], [ -60.387791, -35.837918 ], [ -60.393218, -35.833785 ], [ -60.404055, -35.825286 ], [ -60.407582, -35.822539 ], [ -60.407594, -35.822432 ], [ -60.407432, -35.822269 ], [ -60.3976, -35.813899 ], [ -60.400385, -35.811952 ], [ -60.403832, -35.809546 ], [ -60.407704, -35.806805 ], [ -60.409811, -35.805162 ], [ -60.409878, -35.802476 ], [ -60.413274, -35.802483 ], [ -60.417884, -35.798956 ], [ -60.416207, -35.7975 ], [ -60.416474, -35.79723 ], [ -60.416453, -35.797049 ], [ -60.416931, -35.796829 ], [ -60.42005, -35.793757 ], [ -60.420139, -35.793597 ], [ -60.419979, -35.793436 ], [ -60.42004, -35.793009 ], [ -60.420205, -35.792576 ], [ -60.420602, -35.791919 ], [ -60.420741, -35.791584 ], [ -60.420764, -35.791403 ], [ -60.42071, -35.791122 ], [ -60.420232, -35.788691 ], [ -60.421893, -35.786381 ], [ -60.42185, -35.786107 ], [ -60.421606, -35.785957 ], [ -60.421395, -35.785889 ], [ -60.421564, -35.785684 ], [ -60.421614, -35.785103 ], [ -60.422095, -35.78526 ], [ -60.422204, -35.785458 ], [ -60.422255, -35.785622 ], [ -60.423207, -35.785622 ], [ -60.429051, -35.785974 ], [ -60.429906, -35.786029 ], [ -60.432211, -35.786576 ], [ -60.434284, -35.787017 ], [ -60.434284, -35.787017 ], [ -60.436964, -35.784774 ], [ -60.440309, -35.782013 ], [ -60.45777, -35.767847 ], [ -60.461123, -35.770691 ], [ -60.461376, -35.770787 ], [ -60.461646, -35.770677 ], [ -60.497527, -35.743023 ], [ -60.515476, -35.729247 ], [ -60.535928, -35.713505 ], [ -60.536181, -35.713532 ], [ -60.554694, -35.732879 ], [ -60.555065, -35.732961 ], [ -60.555419, -35.732729 ], [ -60.555369, -35.73251 ], [ -60.551678, -35.728816 ], [ -60.551577, -35.728433 ], [ -60.562144, -35.71851 ], [ -60.56235, -35.718414 ], [ -60.562548, -35.718472 ], [ -60.563243, -35.719139 ], [ -60.563437, -35.719242 ], [ -60.563669, -35.719194 ], [ -60.583699, -35.703758 ], [ -60.583881, -35.703686 ], [ -60.584201, -35.703775 ], [ -60.58967, -35.706019 ], [ -60.589927, -35.706146 ], [ -60.590175, -35.706433 ], [ -60.591077, -35.707429 ], [ -60.604948, -35.719799 ], [ -60.605285, -35.71995 ], [ -60.605908, -35.719553 ], [ -60.626958, -35.703508 ], [ -60.626996, -35.703381 ], [ -60.607455, -35.686505 ], [ -60.607122, -35.686296 ], [ -60.607176, -35.685961 ], [ -60.609921, -35.683942 ], [ -60.610326, -35.683385 ], [ -60.619507, -35.676351 ], [ -60.622979, -35.673558 ], [ -60.627841, -35.669888 ], [ -60.633243, -35.665712 ], [ -60.64863, -35.653943 ], [ -60.648596, -35.653765 ], [ -60.646506, -35.652032 ], [ -60.646481, -35.651834 ], [ -60.661793, -35.63996 ], [ -60.663057, -35.639124 ], [ -60.670245, -35.633508 ], [ -60.670674, -35.633426 ], [ -60.670944, -35.633289 ], [ -60.678326, -35.627501 ], [ -60.681107, -35.625405 ], [ -60.688328, -35.619816 ], [ -60.709665, -35.603319 ], [ -60.720586, -35.594919 ], [ -60.722609, -35.593343 ], [ -60.727007, -35.589889 ], [ -60.731019, -35.586833 ], [ -60.742327, -35.57806 ], [ -60.744872, -35.576032 ], [ -60.764203, -35.560911 ], [ -60.772124, -35.554672 ], [ -60.780164, -35.548433 ], [ -60.79679, -35.535484 ], [ -60.796887, -35.535258 ], [ -60.799878, -35.532998 ], [ -60.803799, -35.529924 ], [ -60.811484, -35.523978 ], [ -60.8161, -35.520283 ], [ -60.819369, -35.517759 ], [ -60.839029, -35.502332 ], [ -60.852023, -35.49211 ], [ -60.862042, -35.484274 ], [ -60.862059, -35.484096 ], [ -60.860441, -35.482655 ], [ -60.86517, -35.476443 ], [ -60.865269, -35.476263 ] ] } },
{ "type": "Feature", "properties": { "fid": 5, "id": null, "es_gap": 1 }, "geometry": { "type": "LineString", "coordinates": [ [ -58.983713, -35.932033 ], [ -59.06328, -35.998885 ], [ -59.063818, -35.999412 ], [ -59.064225, -35.999957 ], [ -59.064536, -36.000559 ], [ -59.06473, -36.001209 ], [ -59.064818, -36.00187 ], [ -59.064899, -36.002497 ], [ -59.066103, -36.011309 ], [ -59.066273, -36.011961 ], [ -59.066728, -36.012812 ], [ -59.067657, -36.013801 ], [ -59.07841, -36.023123 ], [ -59.078837, -36.02356 ], [ -59.078924, -36.023741 ], [ -59.078948, -36.023919 ], [ -59.078974, -36.024101 ], [ -59.079097, -36.024194 ], [ -59.079313, -36.024226 ], [ -59.079464, -36.024232 ], [ -59.07971, -36.024319 ], [ -59.080147, -36.024644 ], [ -59.082392, -36.02653 ], [ -59.082875, -36.027044 ], [ -59.083027, -36.027519 ], [ -59.083027, -36.027853 ], [ -59.08307, -36.028025 ], [ -59.083363, -36.028071 ], [ -59.083653, -36.028052 ], [ -59.083899, -36.028152 ], [ -59.084653, -36.028482 ], [ -59.08624, -36.029853 ], [ -59.086406, -36.030183 ], [ -59.086539, -36.03072 ], [ -59.086482, -36.031348 ], [ -59.086469, -36.031858 ], [ -59.086439, -36.032133 ], [ -59.086341, -36.032363 ], [ -59.08618, -36.032609 ], [ -59.085901, -36.03284 ], [ -59.079366, -36.037817 ], [ -59.079073, -36.038064 ], [ -59.078751, -36.038524 ], [ -59.07857, -36.039037 ], [ -59.078579, -36.039473 ], [ -59.078769, -36.03993 ], [ -59.079068, -36.040318 ], [ -59.079567, -36.040765 ], [ -59.101289, -36.059474 ], [ -59.10222, -36.060244 ], [ -59.102552, -36.060431 ], [ -59.103196, -36.060634 ], [ -59.103679, -36.060649 ], [ -59.104006, -36.060575 ], [ -59.104295, -36.060436 ], [ -59.104762, -36.060129 ], [ -59.105072, -36.059889 ], [ -59.15049, -36.025268 ], [ -59.151222, -36.024825 ], [ -59.151926, -36.024537 ] ] } },
{ "type": "Feature", "properties": { "fid": 6, "id": null, "es_gap": 1 }, "geometry": { "type": "LineString", "coordinates": [ [ -60.278753, -35.905887 ], [ -60.280917, -35.90764 ] ] } }
]
}
