{
"type": "FeatureCollection",
"name": "rp91_unificada",
"features": [
{ "type": "Feature", "properties": { "fid": 1, "fdc": "DVP Buenos Aires", "sag": "IGN" }, "geometry": { "type": "LineString", "coordinates": [ [ -59.787031494363944, -35.693125474115426 ], [ -59.786760262886531, -35.693295489936915 ], [ -59.786456265190367, -35.693390107280578 ], [ -59.785487841391834, -35.693444807881193 ], [ -59.783978760762395, -35.693551783482796 ], [ -59.7792745, -35.693881 ], [ -59.7787723, -35.6939157 ], [ -59.7714708, -35.6944201 ], [ -59.7515676, -35.695884 ], [ -59.7441665, -35.6964152 ], [ -59.7329588, -35.6972196 ], [ -59.7321472, -35.6973029 ], [ -59.7309923, -35.6975604 ], [ -59.7300749, -35.6979633 ], [ -59.7293499, -35.6983699 ], [ -59.7284967, -35.6990311 ], [ -59.7279075, -35.6995752 ], [ -59.7245997, -35.7026175 ], [ -59.7239637, -35.7032255 ], [ -59.7238885, -35.703292 ], [ -59.722656, -35.7043823 ], [ -59.7218929, -35.7049931 ], [ -59.7212692, -35.7053721 ], [ -59.7206051, -35.7057014 ], [ -59.7198223, -35.706023 ], [ -59.7191327, -35.7062513 ], [ -59.7182967, -35.7064465 ], [ -59.717445, -35.7065776 ], [ -59.699305, -35.7086183 ], [ -59.698465315261871, -35.708709244285828 ], [ -59.697799978986751, -35.7087831498065 ], [ -59.697232031195121, -35.708860011475295 ], [ -59.696581257683889, -35.708985650582022 ], [ -59.695960519873182, -35.709165979306725 ], [ -59.695323504990462, -35.709387129469746 ], [ -59.69315445730652, -35.710090896660496 ], [ -59.692636569015768, -35.710256072541426 ], [ -59.692244284563536, -35.710378753287394 ], [ -59.691862012011477, -35.710535429628166 ], [ -59.69145061393165, -35.710757140904867 ], [ -59.690860821994185, -35.711179868696782 ], [ -59.6899544, -35.7117712 ], [ -59.6895415, -35.7120618 ], [ -59.6886161, -35.7127435 ], [ -59.6867641, -35.7141067 ], [ -59.6862407, -35.714489 ], [ -59.675534, -35.7223343 ], [ -59.6703668, -35.7261202 ], [ -59.6641191, -35.7307137 ], [ -59.6622924, -35.7320533 ], [ -59.6539935, -35.738139 ], [ -59.6510346, -35.7403092 ], [ -59.6493749, -35.7415265 ], [ -59.6299022, -35.7558072 ], [ -59.6222109, -35.7614471 ], [ -59.6137838, -35.7676261 ], [ -59.6058824, -35.7733919 ], [ -59.6021035, -35.7761493 ], [ -59.6008802, -35.7770418 ], [ -59.5968988, -35.7799468 ], [ -59.5961976, -35.7804585 ], [ -59.5865256, -35.7875151 ], [ -59.5650342, -35.8032472 ], [ -59.546003, -35.8170925 ], [ -59.5413596, -35.8204278 ], [ -59.540795180821135, -35.820830699805214 ], [ -59.5399972, -35.8212651 ], [ -59.5393166, -35.8216012 ], [ -59.5384643, -35.8219025 ], [ -59.5334792, -35.8234422 ], [ -59.5325421, -35.8237316 ], [ -59.5313316, -35.824142 ], [ -59.530699544755926, -35.824420321488034 ], [ -59.530035118653544, -35.824774551669535 ], [ -59.5291881, -35.8253927 ], [ -59.5282818, -35.8263039 ], [ -59.52758024, -35.82722894 ], [ -59.52580396, -35.83027311 ], [ -59.5253947, -35.83098457 ], [ -59.522836, -35.8353777 ], [ -59.5224435, -35.835944 ], [ -59.52195445, -35.83654271 ], [ -59.52132271, -35.83713877 ], [ -59.5202177, -35.8378885 ], [ -59.519627, -35.8381907 ], [ -59.5186501, -35.8386321 ], [ -59.4980503, -35.8451098 ], [ -59.4901377, -35.847544 ], [ -59.4866932, -35.8486352 ], [ -59.476883, -35.8516869 ], [ -59.4761954, -35.8518903 ], [ -59.4752496, -35.8520937 ], [ -59.4743681, -35.8521856 ], [ -59.4734973, -35.8521993 ], [ -59.4705725, -35.8520009 ], [ -59.4642068, -35.8515231 ], [ -59.4636537, -35.8514916 ], [ -59.4626847, -35.8514874 ], [ -59.447309, -35.8518755 ], [ -59.4472213, -35.8518778 ], [ -59.4446698, -35.8519333 ], [ -59.4434369, -35.8520446 ], [ -59.4423658, -35.8522349 ], [ -59.4410622, -35.8526331 ], [ -59.439824, -35.8532597 ], [ -59.4387391, -35.8539753 ], [ -59.4363947, -35.8558672 ], [ -59.434375, -35.857497 ], [ -59.4233943, -35.8663573 ], [ -59.422874, -35.8667771 ], [ -59.4208098, -35.8683829 ], [ -59.4200218, -35.8689779 ], [ -59.4197873, -35.8691387 ], [ -59.4188554, -35.8697038 ], [ -59.418001955719113, -35.870111073627285 ], [ -59.417346631344159, -35.870373643175093 ], [ -59.4167251, -35.8705867 ], [ -59.4093174, -35.8724249 ], [ -59.4086156, -35.8726512 ], [ -59.4078771, -35.8729519 ], [ -59.4066426, -35.8735759 ], [ -59.4053592, -35.8745071 ], [ -59.402475, -35.876618 ], [ -59.4017287, -35.8771815 ], [ -59.4013834, -35.8774339 ], [ -59.3993798, -35.8788856 ], [ -59.3992625, -35.8789713 ], [ -59.3953627, -35.8818627 ], [ -59.3929867, -35.8836243 ], [ -59.3878402, -35.8873961 ], [ -59.3869191, -35.8882118 ], [ -59.3865988, -35.8885407 ], [ -59.3855493, -35.889953 ], [ -59.3804457, -35.8976297 ], [ -59.3757071, -35.9048216 ], [ -59.3750439, -35.9055936 ], [ -59.373872, -35.9066399 ], [ -59.3644595, -35.9138891 ], [ -59.360606462546187, -35.916904033720385 ], [ -59.355717014570878, -35.921391495002752 ], [ -59.35459137, -35.92230801 ], [ -59.353845699411288, -35.922915758677632 ], [ -59.3470219, -35.9280846 ], [ -59.332452999260063, -35.939252575323444 ] ] } }
]
}
