{
"type": "FeatureCollection",
"name": "rp91_traza_completa_eje_asc",
"xy_coordinate_resolution": 1e-06,
"features": [
{ "type": "Feature", "properties": { "fid": 1, "name": "RP91-1105", "cmt": null, "desc": null, "src": null, "link1_href": null, "link1_text": null, "link1_type": null, "link2_href": null, "link2_text": null, "link2_type": null, "number": null, "type": null, "gpxx_TrackExtension": "<gpxx:DisplayColor>Cyan</gpxx:DisplayColor>", "gpxtrkx_TrackStatsExtension": "<gpxtrkx:Distance>53014</gpxtrkx:Distance><gpxtrkx:TotalElapsedTime>4786</gpxtrkx:TotalElapsedTime><gpxtrkx:MovingTime>2874</gpxtrkx:MovingTime><gpxtrkx:StoppedTime>1909</gpxtrkx:StoppedTime><gpxtrkx:MovingSpeed>18</gpxtrkx:MovingSpeed><gpxtrkx:MaxSpeed>33</gpxtrkx:MaxSpeed><gpxtrkx:MaxElevation>62</gpxtrkx:MaxElevation><gpxtrkx:MinElevation>31</gpxtrkx:MinElevation><gpxtrkx:Ascent>145</gpxtrkx:Ascent><gpxtrkx:Descent>145</gpxtrkx:Descent><gpxtrkx:AvgAscentRate>0</gpxtrkx:AvgAscentRate><gpxtrkx:MaxAscentRate>2</gpxtrkx:MaxAscentRate><gpxtrkx:AvgDescentRate>0</gpxtrkx:AvgDescentRate><gpxtrkx:MaxDescentRate>-1</gpxtrkx:MaxDescentRate>" }, "geometry": { "type": "LineString", "coordinates": [ [ -59.787059, -35.693067, 42.500646 ], [ -59.786899, -35.693213, 0.0 ], [ -59.786648, -35.693341, 40.521784 ], [ -59.786184, -35.693412, 38.11 ], [ -59.785043, -35.693481, 38.59 ], [ -59.78391, -35.693564, 38.59 ], [ -59.782708, -35.693651, 39.55 ], [ -59.781528, -35.693742, 38.59 ], [ -59.780245, -35.693834, 38.11 ], [ -59.779004, -35.693927, 38.11 ], [ -59.777736, -35.694014, 38.11 ], [ -59.776435, -35.694109, 38.11 ], [ -59.775311, -35.694197, 38.11 ], [ -59.774174, -35.694281, 38.11 ], [ -59.77294, -35.694366, 38.59 ], [ -59.771732, -35.694455, 39.07 ], [ -59.770632, -35.694528, 38.59 ], [ -59.76952, -35.69461, 39.07 ], [ -59.768368, -35.694691, 38.59 ], [ -59.767175, -35.694775, 39.07 ], [ -59.765956, -35.694861, 39.55 ], [ -59.764703, -35.69495, 39.55 ], [ -59.763432, -35.695039, 40.03 ], [ -59.76215, -35.69513, 40.03 ], [ -59.76095, -35.695218, 40.03 ], [ -59.75966, -35.695312, 40.03 ], [ -59.75852, -35.695394, 40.99 ], [ -59.757192, -35.695484, 40.51 ], [ -59.756047, -35.695566, 40.51 ], [ -59.754805, -35.695653, 41.47 ], [ -59.753622, -35.695738, 41.47 ], [ -59.752472, -35.695822, 41.47 ], [ -59.751379, -35.695899, 41.47 ], [ -59.750061, -35.695994, 41.47 ], [ -59.748789, -35.696087, 41.47 ], [ -59.747498, -35.696179, 40.99 ], [ -59.74618, -35.696268, 41.47 ], [ -59.744863, -35.696365, 41.47 ], [ -59.74353, -35.696461, 41.47 ], [ -59.742192, -35.696558, 41.95 ], [ -59.740838, -35.696652, 41.95 ], [ -59.739477, -35.696754, 41.95 ], [ -59.738389, -35.696831, 42.44 ], [ -59.737155, -35.696916, 41.95 ], [ -59.736008, -35.697003, 41.47 ], [ -59.734876, -35.697077, 41.47 ], [ -59.733693, -35.697166, 41.47 ], [ -59.732538, -35.697255, 41.95 ], [ -59.731365, -35.697464, 41.47 ], [ -59.730344, -35.697832, 39.55 ], [ -59.729266, -35.698414, 40.51 ], [ -59.728413, -35.699108, 41.47 ], [ -59.727663, -35.69979, 42.44 ], [ -59.726795, -35.700601, 42.92 ], [ -59.725945, -35.701379, 42.92 ], [ -59.725212, -35.702063, 42.44 ], [ -59.724508, -35.702708, 40.99 ], [ -59.723741, -35.703427, 40.99 ], [ -59.722981, -35.704115, 41.95 ], [ -59.722147, -35.704796, 42.92 ], [ -59.721076, -35.705475, 43.88 ], [ -59.719916, -35.706, 43.88 ], [ -59.718734, -35.706362, 43.4 ], [ -59.717387, -35.706601, 44.36 ], [ -59.71627, -35.706728, 44.84 ], [ -59.714987, -35.706869, 44.36 ], [ -59.713816, -35.707001, 43.4 ], [ -59.712637, -35.707135, 42.92 ], [ -59.711404, -35.707273, 43.4 ], [ -59.710128, -35.707416, 43.4 ], [ -59.708825, -35.707557, 43.4 ], [ -59.707718, -35.707683, 43.4 ], [ -59.706548, -35.707817, 43.88 ], [ -59.705454, -35.707945, 43.4 ], [ -59.704223, -35.708084, 42.92 ], [ -59.702944, -35.708227, 41.47 ], [ -59.701854, -35.70835, 41.47 ], [ -59.700703, -35.708479, 40.99 ], [ -59.699569, -35.708603, 41.95 ], [ -59.698266, -35.708749, 42.44 ], [ -59.697081, -35.708892, 42.44 ], [ -59.696025, -35.709167, 39.55 ], [ -59.694973, -35.709521, 40.51 ], [ -59.693874, -35.70989, 40.51 ], [ -59.692926, -35.710221, 53.01 ], [ -59.691829, -35.710582, 47.72 ], [ -59.691323, -35.710844, 0.0 ], [ -59.690809, -35.71123, 45.8 ], [ -59.689832, -35.711859, 44.84 ], [ -59.688899, -35.712537, 44.84 ], [ -59.687886, -35.713279, 44.84 ], [ -59.686872, -35.71402, 44.84 ], [ -59.685922, -35.714714, 43.88 ], [ -59.685075, -35.715338, 43.4 ], [ -59.684196, -35.715986, 42.44 ], [ -59.683532, -35.716469, 37.63 ], [ -59.682667, -35.717074, 37.63 ], [ -59.681849, -35.717678, 38.59 ], [ -59.680808, -35.718433, 39.55 ], [ -59.679929, -35.719075, 40.51 ], [ -59.679086, -35.719695, 40.99 ], [ -59.678254, -35.720302, 40.99 ], [ -59.677412, -35.720924, 41.47 ], [ -59.676545, -35.721557, 41.95 ], [ -59.67565, -35.72221, 42.44 ], [ -59.674742, -35.722881, 42.44 ], [ -59.673831, -35.723546, 42.44 ], [ -59.67293, -35.7242, 42.44 ], [ -59.672068, -35.72484, 42.44 ], [ -59.671201, -35.725476, 42.44 ], [ -59.670337, -35.726112, 42.44 ], [ -59.669465, -35.726754, 42.44 ], [ -59.668595, -35.727385, 42.44 ], [ -59.667628, -35.728106, 41.95 ], [ -59.666783, -35.728744, 39.07 ], [ -59.666075, -35.729265, 45.8 ], [ -59.665151, -35.729939, 45.32 ], [ -59.664261, -35.730592, 44.36 ], [ -59.663269, -35.73132, 43.4 ], [ -59.662307, -35.732028, 41.95 ], [ -59.66141, -35.732688, 40.51 ], [ -59.660495, -35.733361, 39.55 ], [ -59.65958, -35.734033, 39.07 ], [ -59.658677, -35.734692, 38.11 ], [ -59.657758, -35.735363, 38.11 ], [ -59.656831, -35.73604, 37.63 ], [ -59.655988, -35.736656, 37.15 ], [ -59.655083, -35.737318, 36.67 ], [ -59.654174, -35.73798, 36.67 ], [ -59.653342, -35.738594, 36.67 ], [ -59.652441, -35.739253, 37.15 ], [ -59.651488, -35.739944, 37.63 ], [ -59.650676, -35.740553, 37.63 ], [ -59.649792, -35.741205, 38.11 ], [ -59.648925, -35.741837, 38.59 ], [ -59.648091, -35.742451, 38.59 ], [ -59.647095, -35.743187, 38.59 ], [ -59.646253, -35.743804, 38.59 ], [ -59.645253, -35.744538, 38.59 ], [ -59.644371, -35.745191, 38.11 ], [ -59.643534, -35.745809, 37.63 ], [ -59.64271, -35.746416, 37.63 ], [ -59.641808, -35.747077, 37.63 ], [ -59.640859, -35.747772, 37.15 ], [ -59.640039, -35.748386, 36.67 ], [ -59.639267, -35.748995, 36.19 ], [ -59.638442, -35.749577, 37.63 ], [ -59.637583, -35.75019, 38.59 ], [ -59.636594, -35.750914, 39.07 ], [ -59.635624, -35.751629, 39.55 ], [ -59.634804, -35.752225, 39.55 ], [ -59.633959, -35.75285, 39.55 ], [ -59.633035, -35.753522, 40.03 ], [ -59.632079, -35.754227, 40.03 ], [ -59.631091, -35.754955, 40.51 ], [ -59.630197, -35.755611, 40.51 ], [ -59.62927, -35.756279, 40.51 ], [ -59.628344, -35.756956, 40.51 ], [ -59.627419, -35.757638, 40.99 ], [ -59.626478, -35.758325, 40.99 ], [ -59.625535, -35.759013, 40.99 ], [ -59.624582, -35.759711, 40.99 ], [ -59.623628, -35.76041, 40.99 ], [ -59.622665, -35.76111, 40.99 ], [ -59.621711, -35.761814, 40.99 ], [ -59.620752, -35.762514, 40.99 ], [ -59.619786, -35.763214, 40.99 ], [ -59.618821, -35.763916, 40.99 ], [ -59.617872, -35.764622, 40.99 ], [ -59.616967, -35.765283, 40.51 ], [ -59.616049, -35.765954, 40.51 ], [ -59.615089, -35.766655, 40.51 ], [ -59.614111, -35.76737, 40.51 ], [ -59.613142, -35.768077, 40.51 ], [ -59.612242, -35.768732, 40.51 ], [ -59.611325, -35.769406, 40.51 ], [ -59.610393, -35.770094, 40.51 ], [ -59.609534, -35.770718, 40.51 ], [ -59.608649, -35.771353, 40.51 ], [ -59.607733, -35.772029, 40.51 ], [ -59.606793, -35.772715, 40.51 ], [ -59.605841, -35.773405, 40.51 ], [ -59.604885, -35.774112, 40.51 ], [ -59.6039, -35.774833, 40.99 ], [ -59.60292, -35.775552, 40.99 ], [ -59.60193, -35.776274, 40.99 ], [ -59.600937, -35.777, 40.99 ], [ -59.599933, -35.777736, 40.99 ], [ -59.598926, -35.778462, 40.99 ], [ -59.597923, -35.779188, 40.99 ], [ -59.596917, -35.779922, 41.47 ], [ -59.595903, -35.780656, 40.99 ], [ -59.594903, -35.781389, 40.99 ], [ -59.593916, -35.782112, 41.47 ], [ -59.592913, -35.782844, 40.99 ], [ -59.591933, -35.783554, 40.99 ], [ -59.59097, -35.784259, 40.99 ], [ -59.590011, -35.784959, 40.99 ], [ -59.589066, -35.785649, 40.99 ], [ -59.58812, -35.786344, 40.99 ], [ -59.587173, -35.78703, 40.99 ], [ -59.58623, -35.787718, 40.99 ], [ -59.585283, -35.788411, 40.99 ], [ -59.584335, -35.789098, 40.99 ], [ -59.583406, -35.789778, 40.99 ], [ -59.582477, -35.790453, 40.99 ], [ -59.581543, -35.791136, 40.99 ], [ -59.580591, -35.791828, 40.99 ], [ -59.579611, -35.792557, 40.99 ], [ -59.578609, -35.793283, 40.99 ], [ -59.577616, -35.79401, 41.47 ], [ -59.576616, -35.794745, 41.47 ], [ -59.575792, -35.795345, 41.47 ], [ -59.574952, -35.795965, 41.47 ], [ -59.574112, -35.796577, 41.47 ], [ -59.573091, -35.79732, 41.47 ], [ -59.572088, -35.798065, 41.47 ], [ -59.571081, -35.798789, 41.47 ], [ -59.570081, -35.799516, 41.47 ], [ -59.569092, -35.80024, 41.47 ], [ -59.568136, -35.800942, 41.47 ], [ -59.567188, -35.80163, 41.47 ], [ -59.566266, -35.8023, 41.47 ], [ -59.565434, -35.802909, 40.99 ], [ -59.564598, -35.803519, 40.99 ], [ -59.563736, -35.804143, 40.99 ], [ -59.562855, -35.804792, 40.99 ], [ -59.561967, -35.805461, 40.99 ], [ -59.561033, -35.806142, 40.51 ], [ -59.560104, -35.80682, 40.51 ], [ -59.559171, -35.807498, 40.51 ], [ -59.558268, -35.808163, 40.51 ], [ -59.557388, -35.808803, 40.51 ], [ -59.556478, -35.809467, 40.51 ], [ -59.555585, -35.81012, 40.03 ], [ -59.554682, -35.810774, 40.51 ], [ -59.553782, -35.811435, 40.51 ], [ -59.552857, -35.812104, 40.51 ], [ -59.551935, -35.812785, 40.51 ], [ -59.550997, -35.813458, 40.99 ], [ -59.550055, -35.814144, 41.47 ], [ -59.549111, -35.81483, 40.99 ], [ -59.548171, -35.815512, 41.47 ], [ -59.547227, -35.816202, 41.47 ], [ -59.54626, -35.816898, 41.47 ], [ -59.545287, -35.817611, 41.47 ], [ -59.544305, -35.818324, 41.47 ], [ -59.543334, -35.819028, 41.47 ], [ -59.542382, -35.819723, 41.95 ], [ -59.541369, -35.820466, 41.95 ], [ -59.540464, -35.821044, 41.95 ], [ -59.539466, -35.821556, 42.44 ], [ -59.538381, -35.82197, 42.44 ], [ -59.537306, -35.822301, 42.44 ], [ -59.536075, -35.822661, 41.95 ], [ -59.534891, -35.823018, 41.47 ], [ -59.53371, -35.823371, 41.47 ], [ -59.532543, -35.823723, 41.47 ], [ -59.531379, -35.824131, 40.99 ], [ -59.530222, -35.824723, 41.47 ], [ -59.529307, -35.825302, 41.95 ], [ -59.528533, -35.82599, 41.95 ], [ -59.527894, -35.826761, 42.44 ], [ -59.527273, -35.827739, 41.95 ], [ -59.526753, -35.828636, 41.95 ], [ -59.526256, -35.82951, 40.99 ], [ -59.52582, -35.830301, 39.07 ], [ -59.525338, -35.831137, 39.55 ], [ -59.524845, -35.831998, 40.03 ], [ -59.524323, -35.832891, 40.99 ], [ -59.523816, -35.833766, 41.95 ], [ -59.523324, -35.834626, 42.44 ], [ -59.522824, -35.835463, 42.44 ], [ -59.522223, -35.83626, 42.44 ], [ -59.521466, -35.837028, 42.44 ], [ -59.520577, -35.837719, 42.92 ], [ -59.519573, -35.838277, 42.44 ], [ -59.518438, -35.838736, 42.92 ], [ -59.517218, -35.839133, 42.92 ], [ -59.515968, -35.839517, 42.92 ], [ -59.514733, -35.8399, 42.44 ], [ -59.51353, -35.840274, 42.44 ], [ -59.512309, -35.840655, 43.4 ], [ -59.511071, -35.841043, 43.88 ], [ -59.509825, -35.841431, 44.36 ], [ -59.508645, -35.841801, 44.36 ], [ -59.507501, -35.842155, 44.36 ], [ -59.506371, -35.842508, 44.36 ], [ -59.505246, -35.84286, 44.36 ], [ -59.504115, -35.843213, 43.88 ], [ -59.502976, -35.843572, 43.88 ], [ -59.501824, -35.843927, 43.88 ], [ -59.500678, -35.84428, 43.88 ], [ -59.499609, -35.844613, 43.88 ], [ -59.49853, -35.844952, 43.88 ], [ -59.497406, -35.845304, 43.88 ], [ -59.496208, -35.845678, 43.88 ], [ -59.494953, -35.846069, 44.36 ], [ -59.493669, -35.846466, 44.36 ], [ -59.492373, -35.846873, 44.36 ], [ -59.491065, -35.847278, 44.84 ], [ -59.489752, -35.847686, 44.84 ], [ -59.488449, -35.848096, 44.84 ], [ -59.487182, -35.848492, 45.32 ], [ -59.485972, -35.848864, 44.84 ], [ -59.484803, -35.849232, 44.36 ], [ -59.483667, -35.849587, 43.88 ], [ -59.482591, -35.849919, 42.92 ], [ -59.481329, -35.850319, 42.44 ], [ -59.480143, -35.850697, 41.95 ], [ -59.478974, -35.851061, 41.47 ], [ -59.477855, -35.851407, 40.99 ], [ -59.476777, -35.851736, 40.51 ], [ -59.475568, -35.852048, 40.99 ], [ -59.474267, -35.852211, 40.99 ], [ -59.472871, -35.852205, 41.47 ], [ -59.471715, -35.852116, 41.95 ], [ -59.470502, -35.85202, 41.95 ], [ -59.469276, -35.851922, 42.44 ], [ -59.468039, -35.851828, 42.44 ], [ -59.466811, -35.851739, 42.44 ], [ -59.465639, -35.851653, 41.95 ], [ -59.464362, -35.851563, 41.47 ], [ -59.463244, -35.851512, 40.51 ], [ -59.461955, -35.851541, 40.51 ], [ -59.460628, -35.851575, 40.51 ], [ -59.459349, -35.851612, 40.03 ], [ -59.458424, -35.851628, 38.59 ], [ -59.457196, -35.851661, 38.59 ], [ -59.456014, -35.851699, 39.07 ], [ -59.454883, -35.851726, 39.07 ], [ -59.45366, -35.851755, 39.55 ], [ -59.452451, -35.851783, 40.03 ], [ -59.451233, -35.851814, 40.51 ], [ -59.449989, -35.851837, 40.99 ], [ -59.448795, -35.85187, 40.51 ], [ -59.447622, -35.851889, 39.07 ], [ -59.446851, -35.851902, 49.65 ], [ -59.445623, -35.85194, 45.32 ], [ -59.444401, -35.851981, 43.4 ], [ -59.443254, -35.852082, 42.44 ], [ -59.442144, -35.852303, 42.44 ], [ -59.441026, -35.852658, 41.95 ], [ -59.439952, -35.853176, 41.95 ], [ -59.439065, -35.853739, 40.99 ], [ -59.438143, -35.854469, 40.03 ], [ -59.437306, -35.855149, 39.55 ], [ -59.436486, -35.855807, 38.59 ], [ -59.435632, -35.85649, 38.59 ], [ -59.434686, -35.857253, 38.59 ], [ -59.433866, -35.857914, 39.07 ], [ -59.432996, -35.858605, 39.07 ], [ -59.432102, -35.859328, 39.55 ], [ -59.431202, -35.860053, 39.55 ], [ -59.430341, -35.860743, 39.55 ], [ -59.429477, -35.861443, 39.55 ], [ -59.428618, -35.862133, 40.03 ], [ -59.427825, -35.862772, 39.55 ], [ -59.426854, -35.863559, 39.07 ], [ -59.426028, -35.864218, 39.07 ], [ -59.425182, -35.864892, 40.51 ], [ -59.424325, -35.865576, 42.44 ], [ -59.42345, -35.866279, 43.88 ], [ -59.422581, -35.866989, 44.36 ], [ -59.421711, -35.867688, 44.84 ], [ -59.420827, -35.868392, 45.32 ], [ -59.419937, -35.869066, 45.32 ], [ -59.419003, -35.869657, 44.84 ], [ -59.418013, -35.870138, 44.84 ], [ -59.416991, -35.870532, 44.36 ], [ -59.415891, -35.87084, 44.36 ], [ -59.414749, -35.871118, 44.84 ], [ -59.413575, -35.871397, 44.84 ], [ -59.412375, -35.871693, 45.32 ], [ -59.411165, -35.871983, 45.8 ], [ -59.409941, -35.872279, 45.8 ], [ -59.408753, -35.872624, 45.8 ], [ -59.407625, -35.873079, 45.32 ], [ -59.406533, -35.873679, 43.88 ], [ -59.405485, -35.874409, 42.92 ], [ -59.40456, -35.87509, 41.95 ], [ -59.403594, -35.875814, 40.51 ], [ -59.402757, -35.876422, 37.63 ], [ -59.402118, -35.87687, 43.4 ], [ -59.401232, -35.877519, 41.95 ], [ -59.400346, -35.878166, 41.47 ], [ -59.399481, -35.878805, 41.95 ], [ -59.398599, -35.879448, 40.99 ], [ -59.39772, -35.880105, 39.55 ], [ -59.396837, -35.880756, 39.55 ], [ -59.395979, -35.881396, 39.55 ], [ -59.395152, -35.882006, 39.55 ], [ -59.394185, -35.882718, 39.55 ], [ -59.393256, -35.883402, 39.55 ], [ -59.392344, -35.884076, 39.55 ], [ -59.391407, -35.884765, 39.55 ], [ -59.390438, -35.88547, 39.55 ], [ -59.389429, -35.886214, 39.55 ], [ -59.388587, -35.886826, 49.65 ], [ -59.387697, -35.887505, 47.72 ], [ -59.386848, -35.88827, 46.28 ], [ -59.386123, -35.889113, 45.32 ], [ -59.385468, -35.890039, 44.36 ], [ -59.384836, -35.890994, 43.88 ], [ -59.3842, -35.891961, 43.4 ], [ -59.38355, -35.892942, 42.92 ], [ -59.382894, -35.893929, 42.92 ], [ -59.382242, -35.894927, 42.44 ], [ -59.381578, -35.89593, 42.44 ], [ -59.380936, -35.896916, 41.95 ], [ -59.380293, -35.897894, 41.95 ], [ -59.379644, -35.898871, 41.95 ], [ -59.378995, -35.899851, 41.95 ], [ -59.378343, -35.900829, 41.95 ], [ -59.377703, -35.901806, 41.47 ], [ -59.377082, -35.902765, 41.47 ], [ -59.376489, -35.903664, 41.47 ], [ -59.375919, -35.904513, 40.99 ], [ -59.375264, -35.905353, 42.44 ], [ -59.37447, -35.906167, 44.36 ], [ -59.373553, -35.906937, 46.28 ], [ -59.372561, -35.90769, 47.24 ], [ -59.37155, -35.908456, 48.2 ], [ -59.370534, -35.909236, 49.16 ], [ -59.369519, -35.910012, 49.65 ], [ -59.368507, -35.910787, 50.13 ], [ -59.367516, -35.911548, 50.13 ], [ -59.366544, -35.912294, 49.65 ], [ -59.365647, -35.912993, 48.2 ], [ -59.364825, -35.91362, 47.24 ], [ -59.363952, -35.914287, 46.76 ], [ -59.363032, -35.914996, 47.24 ], [ -59.362055, -35.915745, 47.72 ], [ -59.361063, -35.916521, 48.68 ], [ -59.36016, -35.917291, 49.16 ], [ -59.359285, -35.918082, 49.16 ], [ -59.358399, -35.918899, 49.16 ], [ -59.357495, -35.919728, 49.65 ], [ -59.356604, -35.920542, 49.65 ], [ -59.355728, -35.921339, 49.16 ], [ -59.354845, -35.922116, 49.16 ], [ -59.353925, -35.922857, 49.16 ], [ -59.35299, -35.923572, 48.68 ], [ -59.352107, -35.924244, 48.68 ], [ -59.351282, -35.924875, 48.68 ], [ -59.350462, -35.9255, 48.68 ], [ -59.34961, -35.926149, 48.68 ], [ -59.348732, -35.926822, 51.57 ], [ -59.347871, -35.927486, 53.49 ], [ -59.346958, -35.928181, 52.05 ], [ -59.346004, -35.928907, 51.09 ], [ -59.345016, -35.929664, 51.09 ], [ -59.343998, -35.930439, 51.57 ], [ -59.342953, -35.931232, 52.05 ], [ -59.341889, -35.932043, 52.05 ], [ -59.340832, -35.932849, 52.53 ], [ -59.339805, -35.933634, 52.05 ], [ -59.338833, -35.934379, 50.61 ], [ -59.337893, -35.935099, 47.72 ], [ -59.336959, -35.935801, 45.8 ], [ -59.336051, -35.936497, 44.36 ], [ -59.335151, -35.937184, 43.88 ], [ -59.334263, -35.937871, 43.4 ], [ -59.333377, -35.938545, 42.92 ], [ -59.332498, -35.939217, 42.92 ], [ -59.332458, -35.939247, 42.878418 ] ] } }
]
}
