{
"type": "FeatureCollection",
"name": "rp91_mojones_fisicos_ajustados",
"xy_coordinate_resolution": 1e-06,
"features": [
{ "type": "Feature", "properties": { "fid": 1, "ele": -4.414925, "time": "2026-05-11T11:14:28Z", "magvar": null, "geoidheight": null, "name": "M-RP91-00+000", "cmt": null, "desc": null, "src": null, "link1_href": null, "link1_text": null, "link1_type": null, "link2_href": null, "link2_text": null, "link2_type": null, "sym": "Flag, Blue", "type": null, "fix": null, "sat": null, "hdop": null, "vdop": null, "pdop": null, "ageofdgpsdata": null, "dgpsid": null }, "geometry": { "type": "Point", "coordinates": [ -59.787059, -35.693067, -4.414925 ] } },
{ "type": "Feature", "properties": { "fid": 3, "ele": 41.555534, "time": "2026-05-11T11:43:46Z", "magvar": null, "geoidheight": null, "name": "M-RP91-10+000", "cmt": null, "desc": null, "src": null, "link1_href": null, "link1_text": null, "link1_type": null, "link2_href": null, "link2_text": null, "link2_type": null, "sym": "Flag, Blue", "type": null, "fix": null, "sat": null, "hdop": null, "vdop": null, "pdop": null, "ageofdgpsdata": null, "dgpsid": null }, "geometry": { "type": "Point", "coordinates": [ -59.683542, -35.716461, 37.703457 ] } },
{ "type": "Feature", "properties": { "fid": 4, "ele": 38.086964, "time": "2026-05-11T11:49:06Z", "magvar": null, "geoidheight": null, "name": "M-RP91-12+000", "cmt": null, "desc": null, "src": null, "link1_href": null, "link1_text": null, "link1_type": null, "link2_href": null, "link2_text": null, "link2_type": null, "sym": "Flag, Blue", "type": null, "fix": null, "sat": null, "hdop": null, "vdop": null, "pdop": null, "ageofdgpsdata": null, "dgpsid": null }, "geometry": { "type": "Point", "coordinates": [ -59.66674, -35.728776, 39.481714 ] } },
{ "type": "Feature", "properties": { "fid": 5, "ele": 37.450169, "time": "2026-05-11T12:21:48Z", "magvar": null, "geoidheight": null, "name": "M-RP91-36+000", "cmt": null, "desc": null, "src": null, "link1_href": null, "link1_text": null, "link1_type": null, "link2_href": null, "link2_text": null, "link2_type": null, "sym": "Flag, Blue", "type": null, "fix": null, "sat": null, "hdop": null, "vdop": null, "pdop": null, "ageofdgpsdata": null, "dgpsid": null }, "geometry": { "type": "Point", "coordinates": [ -59.458682, -35.851623, 38.992375 ] } },
{ "type": "Feature", "properties": { "fid": 6, "ele": 38.318214, "time": "2026-05-11T12:26:24Z", "magvar": null, "geoidheight": null, "name": "M-RP91-37+000", "cmt": null, "desc": null, "src": null, "link1_href": null, "link1_text": null, "link1_type": null, "link2_href": null, "link2_text": null, "link2_type": null, "sym": "Flag, Blue", "type": null, "fix": null, "sat": null, "hdop": null, "vdop": null, "pdop": null, "ageofdgpsdata": null, "dgpsid": null }, "geometry": { "type": "Point", "coordinates": [ -59.447282, -35.851895, 43.730849 ] } },
{ "type": "Feature", "properties": { "fid": 7, "ele": 44.152245, "time": "2026-05-11T12:32:20Z", "magvar": null, "geoidheight": null, "name": "M-RP91-42+000", "cmt": null, "desc": null, "src": null, "link1_href": null, "link1_text": null, "link1_type": null, "link2_href": null, "link2_text": null, "link2_type": null, "sym": "Flag, Blue", "type": null, "fix": null, "sat": null, "hdop": null, "vdop": null, "pdop": null, "ageofdgpsdata": null, "dgpsid": null }, "geometry": { "type": "Point", "coordinates": [ -59.402662, -35.876488, 38.484193 ] } },
{ "type": "Feature", "properties": { "fid": 8, "ele": 41.969067, "time": "2026-05-11T12:49:21Z", "magvar": null, "geoidheight": null, "name": "M-RP91-FIN", "cmt": null, "desc": null, "src": null, "link1_href": null, "link1_text": null, "link1_type": null, "link2_href": null, "link2_text": null, "link2_type": null, "sym": "Flag, Blue", "type": null, "fix": null, "sat": null, "hdop": null, "vdop": null, "pdop": null, "ageofdgpsdata": null, "dgpsid": null }, "geometry": { "type": "Point", "coordinates": [ -59.332458, -35.939247, 41.969067 ] } },
{ "type": "Feature", "properties": { "fid": 9, "ele": 40.129642, "time": "2026-05-11T13:20:21Z", "magvar": null, "geoidheight": null, "name": "M-RP91-25+000", "cmt": null, "desc": null, "src": null, "link1_href": null, "link1_text": null, "link1_type": null, "link2_href": null, "link2_text": null, "link2_type": null, "sym": "Flag, Blue", "type": null, "fix": null, "sat": null, "hdop": null, "vdop": null, "pdop": null, "ageofdgpsdata": null, "dgpsid": null }, "geometry": { "type": "Point", "coordinates": [ -59.560123, -35.806805, 40.129642 ] } },
{ "type": "Feature", "properties": { "fid": 10, "ele": -403.804443, "time": "2026-05-11T13:44:49Z", "magvar": null, "geoidheight": null, "name": "M-RP91-00+000_B", "cmt": null, "desc": null, "src": null, "link1_href": null, "link1_text": null, "link1_type": null, "link2_href": null, "link2_text": null, "link2_type": null, "sym": "Flag, Blue", "type": null, "fix": null, "sat": null, "hdop": null, "vdop": null, "pdop": null, "ageofdgpsdata": null, "dgpsid": null }, "geometry": { "type": "Point", "coordinates": [ -59.786576, -35.692159, -403.804443 ] } }
]
}
